name,address,area,lat,lng
Centric Health - Carlow,"The Primary Care Centre, The Atrium Shamrock Plaza, Carlow Town, Carlow, R93 XR20",Carlow,52.8365106,-6.9244226
Clayton Medical Group,"Clayton Hall Medical Centre, Staplestown Road, Carlow Town, Carlow, R93 N8W2",Carlow,52.8353748,-6.917054800000001
Crow Street Medical Centre,"Lower Main Street, Borris, Carlow, R95 F1WP",Carlow,52.5405393,-6.9554423
Dolmen Family Medical Practice,"Shamrock Plaza, Green Lane, Carlow Town, Carlow, R93 YF70",Carlow,52.8365106,-6.9244226
Dr Byrne Surgery,"Cloughgrace, Cournellan, Borris, Carlow, R95 W8P6",Carlow,52.57486660000001,-6.915618299999999
Dr John Allan,"Ballysallagh Cottage, Ballysallagh Lower, Hacketstown , Carlow, R93 A022",Carlow,52.858968,-6.5355288
Dr Regina O'Kelly,"Flemington House, 1 Brown Street, Carlow Town, Carlow, R93 W0D1",Carlow,52.837481,-6.929389199999999
Family Medical Centre,"Tullow Family Medical Centre, Market Square, Tullow, Carlow, R93 WK74",Carlow,52.803121,-6.736156599999999
Gallagher Medical Practice,"35c Dublin Street, Carlow Town, Carlow, R93 H9D0",Carlow,52.8383385,-6.9310643
Gallagher Medical Practice,"Main Street, Hacketstown, Carlow, R93 CK25",Carlow,52.865243,-6.558178700000001
Gallagher Medical Practice,"Rathvilly Health Centre, Rathvilly, Carlow, R93 W6W8",Carlow,52.87986720000001,-6.6906747
Leighlinbridge Health Centre,"Pump Lane, Leighlinbridge, Carlow, R93 D5F2",Carlow,52.7357512,-6.9801568
MB Medical,"Bachelors Walk, Muine Bheag, Carlow, R21 EH57",Carlow,52.7032976,-6.9605154
Mill Street Medical Centre,"Mill Street, Tullow, Carlow, R93 N284",Carlow,52.800231,-6.7340741
Myshall GP,"Myshall Health Centre, Myshall, Carlow, R21 CA33",Carlow,52.6871881,-6.781879
The Oaks Family Practice,"65 Tullow Street, Carlow Town, Carlow, R93 N8F7",Carlow,52.835972,-6.925887599999999
Tullow Health Centre,"Shillelagh Road, Tullow, Carlow, R93 H0C1",Carlow,52.8018577,-6.7105516
Acorn Medical Practice,"Unit 4, Clonmahon Place, Ballinagh, Cavan, H12 K7Y5",Cavan,53.9330668,-7.4077679
Arva Medical Centre,"Broad Road, Arva, Cavan, H12 TW26",Cavan,53.9229283,-7.5831641
Atlantic Medical,"16 College Street, Cavan Town, Cavan, H12 F439",Cavan,53.9889547,-7.3627863
Ballyconnell Medical,"Preaching House Lane, Ballyconnell, Cavan, H14 CD52",Cavan,54.1186198,-7.5843979
Belturbet Medical Practice,"Deanery Street, Belturbet, Cavan, H14 PD30",Cavan,54.1019034,-7.4398387
Cavan Medical Practice,"113 College Street, Cavan Town, Cavan, H12 A9P2",Cavan,53.988187,-7.362104599999999
Collins Medical Practice,"Drumalee Primary Care Centre, Loughtee Business Park Cootehill Road, Cavan Town, Cavan, H12 NV22",Cavan,54.0012678,-7.355255799999999
Cootehill Medical Centre,"4 Cavan Road, Cootehill, Cavan, H16 AH30",Cavan,54.0725774,-7.083728499999999
Dr Nigel McKenna,"Drumalee Primary Care Centre, Loughtee Business Park, Cootehill, Cavan, H12 NV22",Cavan,54.0012678,-7.355255799999999
Drumalee Cross Family Practice,"Drumalee Cross, Drumalee, Cavan, H12 K7E5",Cavan,54.0009214,-7.351771999999999
Drumalee Primary Care Centre,"Loughtee Business Park, Cootehill Road, Drumalee, Cavan, H12 NV22",Cavan,54.0012804,-7.3543978
Elm House Surgery,"Loughtee Business Park, Cootehill Road, Cavan, H12 V443",Cavan,54.0012804,-7.3543978
Family Practice Centre,"Granard Road, Ballyjamesduff, Cavan, A82 X2Y3",Cavan,53.8610232,-7.2116357
Farnham Medical Practice,"Primary Care Building, Connolly St, Cavan Town, Cavan, H12 C3W6",Cavan,53.9881492,-7.3606596
Killeshandra Health Centre,"Killeshandra Health Centre, Railway Road, Killeshandra, Cavan, H12 X299",Cavan,54.0135853,-7.5288657
Kingscourt Surgery,"Kells Road, Kingscourt, Cavan, A82 R2V8",Cavan,53.8993845,-6.8155878
Lisnalea Medical Centre,"Lisnalea, Bailieborough, Cavan, A82 PT80",Cavan,53.9132063,-6.9771594
Swanlinbar Health Centre,"Creamery Road, Swanlinbar, Cavan, H14 HC58",Cavan,54.1901319,-7.7023733
The Cottage Surgery,"New Road, Bailieborough, Cavan, A82 D2X0",Cavan,53.9166065,-6.9732505
The Darley Health Centre,"Fairgreen, Cootehill, Cavan, H16 EN24",Cavan,54.0752645,-7.083630299999999
Virginia Medical Practice,"Dublin Road, Virginia, Cavan, A82 AH29",Cavan,53.83162919999999,-7.067628200000001
Ardlea Medical Practice,"79 Upper O'Connell Street, Ennis, Clare, V95 PD2N",Clare,52.8427332,-8.9830701
Ballyvaughan Medical Centre,"Ballyvaughan Enterprise Centre, Ballyvaughan, Clare, H91 W8WH",Clare,53.1141003,-9.150108
Bridge Surgery,"The Square, Sixmilebridge, Clare, V95 W8YW",Clare,52.7416491,-8.7725329
Buglers Medical Practice,"Ard Na Greine, Ennis, Clare, V95 YN9V",Clare,52.8397492,-8.9797275
Burren Medical Centre,"Market Street, Corofin, Clare, V95 FAW9",Clare,52.94623,-9.067012799999999
Carr Medical Centre,"26 Frances Street, Kilrush, Clare, V15 RD82",Clare,52.6371146,-9.4876051
Carrigaholt Health Centre,"Rinemackaderrig, Carrigaholt, Clare, V15 DA21",Clare,52.60120620000001,-9.708794
Collins Medical Centre,"Saint Brendan's Road, Lisdoonvarna, Clare, V95 HH6W",Clare,53.0298091,-9.2867494
Doctor365 Ennis,"H.r. Medical Centre, 3 Bank Place, Ennis, Clare, V95 C2YP",Clare,52.8452091,-8.984646300000001
Dr Maura O'Meara,"Ennis Road, Miltown Malbay, Clare, V95 WN26",Clare,52.85356,-9.39821
Dr Paul Kiernan,"7 Westbury Shopping Centre, Westbury, Corbally, Clare, V94 E7N1",Clare,52.6857889,-8.6061847
Dr Peter Flynn,"9 Killian Park, Shannon, Clare, V14 Y526",Clare,52.709681,-8.8669574
Ennis Medical Centre,"Francis Street, Ennis, Clare, V95 KC3H",Clare,52.845712,-8.9774636
Ennistymon Medical Centre,"Main Street, Ennistymon, Clare, V95 T9NE",Clare,52.94075309999999,-9.2932389
Fergus Medical Centre,"2 Saint Anthony's Terrace, Harmony Row, Ennis, Clare, V95 WYX3",Clare,52.84658659999999,-8.9872836
Flynn Medical Centre Shannon,"22 Tullyvarraga Hill, Tullyvarraga, Shannon, Clare, V14 W522",Clare,52.70630980000001,-8.873556899999999
Kilkee Medical Centre,"Chapel Street, Kilkee, Clare, V15 DP82",Clare,52.67896,-9.64653
Killaloe Family Practice,"2 Rygan House, Shantraud, Killaloe, Clare, V94 T0H2",Clare,52.8042451,-8.448089099999999
Kilrush General Practice,"Merchants Quay Business Quarter, Frances Street, Kilrush, Clare, V15 XW83",Clare,52.6364336,-9.4900709
Kilrush Medical Centre,"Toler Street, Kilrush, Clare, V15 K446",Clare,52.6383521,-9.4875712
Lahinch Medical Centre,"4 Bay Links View, Station Road, Lahinch, Clare, V95 A56D",Clare,52.9316799,-9.343705199999999
Medical Centre,"The Square, Kildysart, Clare, V95 R23F",Clare,52.67397030000001,-9.1083119
Miltown Medical Centre,"Spanish Point Road, Miltown Malbay, Clare, V95 X72N",Clare,52.849188,-9.4136866
Ozondu Medical Centre,"Ballycasey Business Park, Ballycasey Park, Shannon, Clare, V14 WR50",Clare,52.71266319999999,-8.8677516
Richmond Medical Centre,"Ennis Road, Kilmihil, Clare, V15 KF50",Clare,52.7196047,-9.3068213
Riverwalk Medical Centre,"21 Parnell Street, Ennis, Clare, V95 RK3C",Clare,52.8440451,-8.984556999999999
Roslevan Medical Practice,"Tulla Road, Roslevan, Ennis, Clare, V95 YE27",Clare,52.8563534,-8.9534352
Saffron & Blue Clarecastle,"Clare Abbey Primary Health Centre, Clarecastle, Ennis, Clare, V95 HK50",Clare,52.8224366,-8.975098
Scariff Medical Centre,"Market Square, Ballyminoge, Scarriff, Clare, V94 KPN1",Clare,52.9109144,-8.5314285
Shannon Medical Centre,"Unit 1, Caisleain Daire, Shannon, Clare, V14 D377",Clare,52.7085434,-8.8814493
Sonas Medical Centre,"Station Road, Ennis, Clare, V95 TY4E",Clare,52.8410208,-8.9804462
The Abbey Medical Centre,"Westgate Business Park, Kilrush Road, Ennis, Clare, V95 D60V",Clare,52.8311234,-8.9970954
The East Clinic,"Thomas Street, Killaloe, Clare, V94 RY63",Clare,52.8064827,-8.4447492
The Elm Medical Centre,"Gort Road Shopping Centre, Gort Road, Ennis, Clare, V95 F2NK",Clare,52.8589507,-8.9823646
The Green Medical Centre,"Green, Newmarket-on-fergus, Clare, V95 WP04",Clare,52.7609957,-8.894185199999999
The Medical Centre,"Ennistymon Road, Lahinch, Clare, V95 X0WX",Clare,52.9348625,-9.3355864
Tulla Health Clinic,"Main Street, Tulla, Clare, V95 K6HD",Clare,52.8656047,-8.7550841
Waterside Medical Centre,"The Square, Sixmilebridge, Clare, V95 HRY1",Clare,52.7420994,-8.7725593
4th Practice Enhanced Medical Services,"Mallow Primary Healthcare Centre, Goulds Hill, Mallow, Cork, P51 Y8EC",Cork,52.13897619999999,-8.6539164
Airport Dental And Medical Cork,"Rathmacullig West, Farmers Cross, Ballygarvan, Cork, T12 H5FY",Cork,51.8478113,-8.4716097
Ath Transna Medical Centre,"West End, Newmarket, Cork, P51 W2PY",Cork,52.21301339999999,-9.001477900000001
Avonlea Medical Centre,"Boreenmanna Road, Cork City, Cork, T12 F2DR",Cork,51.8912877,-8.4477099
Avonlea Medical Centre,"Boreenmanna Road, Cork, Cork, T12 F2DR",Cork,51.8912877,-8.4477099
Ballycotton Medical Centre,"Monagurra, Shanagarry, Cork, P25 PF96",Cork,51.8402615,-8.0339297
Ballymodan Family Practice,"3 Ballymodan Place, Bandon, Cork, P72 RX61",Cork,51.7440633,-8.7401179
Ballyvourney Health Centre,"Ballymakeera, Cork, Cork, P12 A504",Cork,51.9416703,-9.1603201
Bandon Medical Clinic,"11/12 Oliver Plunkett Street, Bandon, Cork, P72 N272",Cork,51.74531750000001,-8.7337264
Bank Place Clinic,"Bank Place, Castletownbere, Cork, P75 V275",Cork,51.65055109999999,-9.9129889
Bank Place Clinic,"Bere Island Health Centre, Ballynakilla, Bere Island, Cork, P75 FW92",Cork,51.6403921,-9.8594526
Bantry Bay Medical Centre,"The Quay, Bantry, Cork, P75 Y368",Cork,51.6801431,-9.4587061
Barryscourt Medical Centre,"Midleton Road, Carrigtwohill, Cork, T45 EY17",Cork,51.9096373,-8.252424999999999
Belvedere Surgery,"Douglas Road, Ballinlough, Cork, T12 D57T",Cork,51.8845421,-8.449718
Blackpool Bridge Surgery,"83 Thomas Davis Street, Blackpool, Cork, T23 K7Y4",Cork,51.9132984,-8.4720204
Blackpool Medical Centre,"90 Great William O'Brien Street, Blackpool, Cork, T23 TR7A",Cork,51.910993,-8.4743207
Blackrock Medical Centre Cork,"74 Skehard Road, Blackrock, Cork, T12 X2DT",Cork,51.8881761,-8.4218307
Blackwater Medical,"12a Millenium Park, Foxhole, Youghal, Cork, P36 KR97",Cork,51.9542704,-7.8471707
Blarney Medical Centre,"Monacnappa, Blarney, Cork, T23 EAY1",Cork,51.9340261,-8.569967499999999
Bridge Medical Practice,"Carrigaline Primary Care Centre, Kilnagleary, Carrigaline, Cork, P43 X095",Cork,51.8090633,-8.373176599999999
Broad Lane Family Practice,"72 Great William O'brien Street, Blackpool, Cork, T23 EDX9",Cork,51.9097684,-8.4750993
BrookLane Medical Centre,"Millbrook, New Road, Bandon, Cork, P72 YH72",Cork,51.7405206,-8.742501599999999
"Cahill, O'Donnell Practice","Blackrock Hall Primary Care Centre, Blackrock Avenue, Blackrock, Cork, T12 X3FV",Cork,51.8915229,-8.4110554
Cantillon/Gaughran Surgery,"Main Street, Carrigaline, Cork, P43 EV77",Cork,51.8129635,-8.3924452
Carraig Mervue Family Practice,"College Road, Carrignavar, Cork, T34 RX79",Cork,51.9883604,-8.4678571
Carrig Medical Centre,"Station Road, Carrigaline, Cork, P43 YN96",Cork,51.8175212,-8.3890857
Carrigaline Medical Practice,"Carrig House, Old Waterpark, Carrigaline, Cork, P43 EA48",Cork,51.8148893,-8.390318299999999
Carrigdean Medical Centre,"Togher Road, Togher, Cork, T12 AC8V",Cork,51.8770291,-8.4938744
Carrigtwohill Clinic,"Carrigtwohill Shopping & Business Centre, Carrigtwohill, Cork, T45 W673",Cork,51.9091592,-8.2566174
Chapel Lane Surgery,"3 Chapel Lane, Mallow, Cork, P51 NA03",Cork,52.1381532,-8.646004699999999
Charleville Family Practice,"Rathgoggin, Charleville, Cork, P56 T863",Cork,52.360293,-8.689932599999999
Charleville Primary Care Centre,"Rathgoggin South, Charleville, Cork, P56 TP20",Cork,52.3483689,-8.674816
City Medical Centre,"5 Lower Friars Walk, Ballyphehane, Cork, T12 P588",Cork,51.88168959999999,-8.4783262
City South GP,"Suite 1a Ardfallen Medical Centre, Douglas Road, Ballinlough, Cork, T12 D57T",Cork,51.8838504,-8.4474161
Cityplus GP Services,"Millbrook Medical Centre, New Road, Bandon, Cork, P72 D343",Cork,51.7405206,-8.742501599999999
Clady Medical Centre,"1 Firview, Curraheen Road, Bishopstown, Cork, T12 Y86V",Cork,51.8792653,-8.519563999999999
Classes Lake Medical Centre,"Classes Lake Retail Park, Classes Lake, Ovens, Cork, P31 NY51",Cork,51.8853056,-8.6280942
Clonakilty Family Health Clinic,"Clonakilty Shopping Centre, Faxbridge, Clonakilty, Cork, P85 W024",Cork,51.6239067,-8.8816176
Clonakilty Medical Clinic,"Larkin Street, Clonakilty, Cork, P85 F958",Cork,51.6209327,-8.8900815
Cloyne Medical Centre,"The Square, Cloyne, Cork, P25 TW96",Cork,51.8632347,-8.1210921
Coach Horse Lane Surgery,"Coach Horse Lane, The Square, Midleton, Cork, P25 DH57",Cork,51.9131812,-8.1735708
Coachford Family Practice,"The Old Surgery, Clontaebeg, Coachford, Cork, P12 FN50",Cork,51.909471,-8.788960099999999
Cobh Primary Care Centre,"Ticknock, Cobh, Cork, P24 V621",Cork,51.8530415,-8.295090499999999
Cork City Medical Centre,"First Floor, 91 Saint Patrick's Street, Cork City, Cork, T12 K5FK",Cork,51.8985239,-8.4729451
Cork Road Medical Clinic,"1 Cork Road, Carrigaline, Cork, P43 YW98",Cork,51.8168268,-8.3909597
Crosshaven Surgery,"Point Road, Crosshaven, Cork, P43 DT66",Cork,51.8062712,-8.2910237
Crotty/Wiseman Medical Centre,"Main Street, Ballincollig, Cork, P31 F384",Cork,51.888034,-8.5879216
Curraheen Clinic,"Curraheen Road, Bishopstown, Cork, T12 XY7D",Cork,51.8749152,-8.5468264
Dillon's Cross Medical Centre,"Old Youghal Road, Cork City, Cork, T23 YXV4",Cork,51.9116329,-8.4412268
Douglas Medical Centre,"East Douglas Street, Douglas, Cork, T12 A3PC",Cork,51.8765971,-8.4347656
Dr Ailin Becker,"Main Street, Ballydehob, Cork, P81 X853",Cork,51.5631376,-9.4592246
Dr Bastiaan Van Eynatten,"5 Adelaide Terrace, Wellington Road, Cork City, Cork, T23 VY84",Cork,51.9033048,-8.4613766
Dr Brendan O'Regan,"4 Pearse Square, Ballyphehane, Cork, T12 W56R",Cork,51.8833616,-8.4825172
Dr Buckeridge,"325 Blarney Street, Ballinlough, Cork, T23 K59H",Cork,51.9014946,-8.486711399999999
Dr Deborah Buckley,"Market Green Shopping Centre, Midleton, Cork, P25 DY83",Cork,51.9161988,-8.1792442
Dr Donncha Ó'Cuill,"6 The Orchards, Glasheen Road, Cork City, Cork, T12 K7CP",Cork,51.8879952,-8.4950117
Dr Edward O'Sullivan,"La Verna, ishopstown Road, Cork City, Cork, T12 E9PE",Cork,51.8793442,-8.5169514
Dr Eugene Morgan,"Ballinvarrig, Whitechurch, Cork, T34 DY79",Cork,51.9703751,-8.5032033
Dr Glisson Surgery,"North Road, Castletownbere, Cork, P75 W665",Cork,51.653685,-9.9073779
Dr Greg Murphy,"Chapel Square, Passage West, Cork, T12 Y862",Cork,51.8713502,-8.3358129
Dr J O'Connell,"Sackville Street, Dunmanway, Cork, P47 WN77",Cork,51.7221736,-9.1089421
Dr John Dromey Surgery,"Ballyleigh, Waterfall, Cork, T12 VC43",Cork,51.8323417,-8.5749208
Dr John J Burke,"Castle Street, Macroom, Cork, P12 HF44",Cork,51.9054264,-8.9616187
Dr Leader Surgery,"Threadle Hill, Gneeves, Boherbue, Cork, P51 NCD6",Cork,52.1558473,-9.0727005
Dr Margaret Fitzsimons,"104 Gerald Griffin Street, Blackpool, Cork, T23 AE0H",Cork,51.9078113,-8.4757433
Dr Margaret Fitzsimons,"Edencurragh 1 Perrott Avenue, College Road, Cork City, Cork, T12 YF9N",Cork,51.89205450000001,-8.489171899999999
Dr Mark Buckley,"Main Street, Castlemartyr, Cork, P25 KT53",Cork,51.9126295,-8.0594514
Dr O'Brien,"3 Kerry Road, Mayfield, Cork, T23 H9AC",Cork,51.9128425,-8.4328342
Dr O'Regan Surgery,"1 Bromley Park, Donnybrook, Cork, T12 N524",Cork,51.8673435,-8.4403092
Dr Pat Kennedy and Ger McLaughlin,"Primary Care Centre, Castle Square, Carrigtwohill, Cork, T45 FX06",Cork,51.9094919,-8.2589402
Dr Paul Deasy Surgery,"South Gate House, Cove Street, Cork City, Cork, T12 HN2F",Cork,51.89513299999999,-8.475951799999999
Dr Rafique Youghal Clinic,"Unit A12 Millennium Park, Foxhole, Youghal, Cork, P36 KR97",Cork,51.9542704,-7.8471707
Dr Thomas Moloney,"39 Wolfe Tone Street, Clonakilty, Cork, P85 X510",Cork,51.6232383,-8.8846436
Drimoleague Surgery,"East End, Drimoleague, Cork, P47 HP90",Cork,51.6616929,-9.2587681
Dundanion Medical Centre,"Rockfield Avenue, Church Road, Blackrock, Cork, T12 K77V",Cork,51.8940482,-8.4182434
Dunmanway Primary Care Centre,"Sackville Street, Dunmanway, Cork, P47 PK51",Cork,51.7221815,-9.1087451
East Cork Medical Centre,"6 New Cork Road, Midleton, Cork, P25 WV52",Cork,51.9165727,-8.1770047
Eastgate Medical,"Ballincollig Health Centre, Innishmore, Ballincollig, Cork, P31 D832",Cork,51.8866097,-8.6096109
Egmont Family Practice,"Newmarket Road, Kanturk, Cork, P51 EW6T",Cork,52.1862267,-8.9165971
Elm wood Medical Practice,"Grange Road, Frankfield, Cork, T12 N9YR",Cork,51.8672452,-8.453517
Emmet Place Family Practice,"1 Emmet Place, Youghal, Cork, P36 VF96",Cork,51.9553278,-7.8518132
Emmet Square Surgery,"12 Emmet Square, Clonakilty, Cork, P85 D212",Cork,51.6217603,-8.892083
Esculap Medical Centre,"Primary Care Centre, Main Street, Ballincollig, Cork, P31 XN96",Cork,51.888034,-8.5879216
Family First Medical Practice,"Fermoy Clinic, McCurtain Street, Fermoy, Cork, P61 KH74",Cork,52.1377563,-8.2782008
Family Practice,"2 New Catherine Street, Youghal, Cork, P36 HY86",Cork,51.9555701,-7.848236200000001
Fermoy Medical Practice,"61-63 Mccurtain Street, Fermoy, Cork, P61 KH74",Cork,52.1375757,-8.278342199999999
Fingerpost Surgery,"The Fingerpost, Douglas, Cork, T12 EYC9",Cork,51.8757958,-8.432646199999999
Friars Walk Medical,"24 Friars Walk, Cork City, Cork, T12 HTN3",Cork,51.88902789999999,-8.475484
Glanmire Medical Centre,"Crestfield Centre, Riverstown, Glanmire, Cork, T45 CX99",Cork,51.9302866,-8.3949162
Glengarriff Medical Centre,"The Village, Glengarriff, Cork, P75 FK61",Cork,51.7499809,-9.5503781
GP Now - Union Quay Medical centre,"Union Quay, Ballintemple, Cork, T12 K2EC",Cork,51.8962404,-8.4682826
Grand Parade Medical Centre,"11-13 Grand Parade, Cork City, Cork, T12 V528",Cork,51.898248,-8.4752901
Grattan Street Health Centre,"Grattan Street, Cork City, Cork, T12 AP83",Cork,51.8991367,-8.4799872
Great Island General Practice,"The Lodge, College Manor, Cobh, Cork, P24 YF90",Cork,51.8562238,-8.293222
Greenmount Surgery,"Lough Community Centre, Green Street, Greenmount, Cork, T12 VF5C",Cork,51.8904752,-8.4811379
Greenwood Surgery,"Greenwood Estate, Togher, Cork, T12 E40D",Cork,51.8740018,-8.4942652
Gurranabraher Medical Centre,"Saint Mary's Primary Care Centre, Baker's Road, Gurranebraher, Cork, T23 V09X",Cork,51.9034101,-8.4904443
Harbour Medical Centre,"4 Church Hill, Passage West, Cork, T12 DEC5",Cork,51.8709216,-8.3359566
Harbours Brink Medical Centre,"Lower Aghada, Ballynafarsid, Cork, P25 YE20",Cork,51.843425,-8.2089501
Haven Medical Centre,"Derrymihan West, Castletownbere, Cork, P75W884",Cork,51.6517045,-9.9019336
Hazelwood Medical Centre,"Baltydaniel East, Mallow, Cork, P51 FF82",Cork,52.1866848,-8.666861899999999
Herons Wood Medical Centre,"Herons Wood, Carrigaline, Cork, P43 VF30",Cork,51.8247879,-8.388490599999999
Hollyhill Medical Centre,"Saint Mary's Health Campus, Baker's Road, Gurranebraher, Cork, T23 V09X",Cork,51.9036326,-8.4955956
HR Clinic,"25 Earlwood Estate, The Lough, Togher, Cork, T12 Y9AK",Cork,51.8842242,-8.4876834
Imokilly Medical Centre,"Distillery Lane, Main Street, Midleton, Cork, P25 V180",Cork,51.9133571,-8.1713487
Innishannon Medical Centre,"Main Street, Innishannon, Cork, T12 FX0N",Cork,51.7646844,-8.656305999999999
Ivyville Medical Centre,"2 Ivy Ville, Douglas Road, Cork City, Cork, T12 FK5X",Cork,51.8899362,-8.4610707
John Bourke,"Scarteen Road, Newmarket, Cork, P51 PC85",Cork,52.2202575,-9.0068096
Killeagh Medical,"The Old Barracks, Church View, Killeagh, Cork, P36 C780",Cork,51.9432477,-7.991772799999999
Killeen Medical Centre,"121 Lower Friars Walk, Ballyphehane, Cork, T12 DNT2",Cork,51.8809367,-8.479019
Kilmoney Clinic,"Kilmoney Road Lower, Carrigaline, Cork, P43 VY30",Cork,51.8114219,-8.3993484
Kinsale Medical Centre,"New Road, Kinsale, Cork, P17 RY11",Cork,51.7096568,-8.5197965
Knight's Hill Medical Centre,"Old Youghal Road, Mayfield, Cork, T23 NDC2",Cork,51.9113729,-8.4422311
Langford Hall Medical Centre,"12 Langford Row, off Infirmary Road, Ballintemple, Cork, T12 VF9F",Cork,51.8926665,-8.467476999999999
LeeMed Clinic,"99 Shandon Street, Cork City, Cork, T23 KDH2",Cork,51.90341369999999,-8.478305200000001
Link Road Medical Centre,"Link Road, Ballincollig, Cork, P31 DF84",Cork,51.8870324,-8.5790981
Living Health Clinic,"Fermoy Road, Mitchelstown, Cork, P67 T263",Cork,52.2588265,-8.2755
Main Street Medical Centre,"Midleton House, Main Street, Midleton, Cork, P25 YC60",Cork,51.91211209999999,-8.1712962
Marino Medical Centre,"Banry Primary Care Centre, Dromleigh South, Bantry, Cork, P75 VP89",Cork,51.6754644,-9.449798
Market Place Surgery,"Market Place, Kinsale, Cork, P17 HR25",Cork,51.7062997,-8.5245131
Market Square Family Practice,"The Square, Buttery Court, Market Square, Mallow, Cork, P51 VA8D",Cork,52.1376375,-8.641604
Mayfield Family Practice,"Mayfield Shopping Centre, Silversprings Road, Mayfield, Cork, T23 RY7N",Cork,51.9140886,-8.4286941
MD Clinic,"4 The Plaza City Square, Watercourse Road, Blackpool, Cork, T23 NDW4",Cork,51.9085812,-8.4739446
MD Clinic Cork,"The Plaza City Square, Watercourse Road, Blackpool, Cork, T23 N20R",Cork,51.9085669,-8.4739558
Meadow Park Surgery,"1 Meadow Park Drive, Ballyvolane, Cork, T23 DHC2",Cork,51.9180753,-8.4490918
Medical Centre,"54 Lower Friars Walk, Ballyphehane, Cork, T12 YH70",Cork,51.88367,-8.4771089
MediGroup - Dr Coffey and Dr Fitzgibbon,"Cathedral Road, Gurranebraher, Cork, T23 EC2N",Cork,51.9043924,-8.4867672
MediGroup - Dr McNeice and Dr Monahan,"Cathedral Road, Gurranebraher, Cork, T23 EC2N",Cork,51.9043924,-8.4867672
Medina Medical Group,"Mill Road, Fermoy, Cork, P61 NN79",Cork,52.1390888,-8.2717146
Midleton Medi Centre,"69 Saint Mary's Road, Midleton, Cork, P25 VK63",Cork,51.9107061,-8.1697115
Midleton Medical Centre,"Suncourt Estate, Midleton, Cork, P25 EP93",Cork,51.9176858,-8.1716319
Military Hill Surgery,"Military Road, Saint Lukes, Cork City, Cork, T23 X9DY",Cork,51.9060308,-8.4618793
Millbrook Medical Centre,"New Road, Bandon, Cork, P72 D343",Cork,51.7282856,-8.7322647
Millstreet Medical Centre,"Killarney Road, Millstreet, Cork, P51 W9XE",Cork,52.0601766,-9.0709889
Mizen Medical Practice,"The Parade, Ballydehob, Cork, P81 KF97",Cork,51.5622529,-9.4623329
Mizen Medical Practice,"Goleen Health Centre, Calnan Park, Goleen, Cork, P81 TN93",Cork,51.494727,-9.7127386
Mizen Primary Care Centre,"Ardmanagh Road, Schull, Cork, P81 NH42",Cork,51.5289477,-9.5506528
mycorkgp.ie,"Douglas Road, Douglas, Cork, T12 XE00",Cork,51.879685,-8.4396765
New Road Surgery,"New Road, Castletownroche, Cork, P51 H79N",Cork,52.17376609999999,-8.463377999999999
North Main Street Medical Centre,"Unit 4 North Main Street Shopping Centre, North Main Street Cork, Cork City, Cork, T12 PT68",Cork,51.9003726,-8.478857
NUA Medical Practice (Newtown Medical Centre Bantry),"Bantry Primary Care, Droumleigh, Bantry, Cork, P75 VP89",Cork,51.6755548,-9.4480471
O'Connell Practice,"Strand Street, Kanturk, Cork, P51 X4HC",Cork,52.1765676,-8.9048172
Oakacre Surgery,"Ballineen And Enniskeane Primary Heath Care Centre, Derrigra, Ballineen, Cork, P47 DT21",Cork,51.7369293,-8.9436058
Old School House Surgery,"Buttevant, Cork, P51 K7PX",Cork,52.2310904,-8.6736404
Our Clinic Sanocka,"Gleann An ÓIr, Main Road, Ballincollg, Cork, P31 XR82",Cork,51.88750599999999,-8.5985774
Ovens-Ballincollig Medical Group,"Primary Care Centre, Main Street, Ballincollig, Cork, P31 XN96",Cork,51.888034,-8.5879216
Owenabue Medical Centre,"Ballea Road, Carrigaline, Cork, P43 EN26",Cork,51.8170747,-8.4025778
Padua Clinic,"Curraheen Road, Bishopstown, Cork, T12 CP5F",Cork,51.8760847,-8.5344026
Parklands Surgery,"1 Park Grove, Parklands, Cork, T23 W863",Cork,51.9198461,-8.4905584
Patrick Street Medical Centre,"9 Saint Patrick's Street, Cork City, Cork, T12 HYH0",Cork,51.8998921,-8.47038
Primary Care Centre,"Fair Green Plaza, Macroom, Cork, P12 K244",Cork,51.9055739,-8.9544006
Rahona House Surgery,"Rahona House, Hawkes Road, Bishopstown, Cork, T12 H9EV",Cork,51.8777309,-8.5238417
Ringmahon Medical Centre,"35 Dunlocha Cottages, Blackrock, Cork, T12 W6YF",Cork,51.8947105,-8.4047901
Riverstown Family Practice,"Old Court, Riverstown, Glanmire, Cork, T45 KN77",Cork,51.9285382,-8.3907975
Rockwell Medical Centre,"Charleville Primary Care Centre, Rathgoggin South, Charleville, Cork, P56 TP20",Cork,52.3487613,-8.6750306
Rosscarbery Medical Centre,"West Square, Rosscarbery, Cork, P85 P306",Cork,51.577296,-9.0331744
Rossdale Medical Centre,"Unit 3, Bandon Roundabout, Bishopstown, Cork, T12 DW74",Cork,51.8753067,-8.523920799999999
Ryecourt Clinic,"Ryecourt, Farnanes, Cork, P14 A620",Cork,51.848074,-8.7885148
Saint Mary's Primary Care Centre,"Baker's Road, Gurranebraher, Cork, T23 V09X",Cork,51.9036326,-8.4955956
Salutem Clinic,"West Village, Ballincollig, Cork, P31 RP04",Cork,51.8862524,-8.6063117
Shandon Medical Centre,"51 Shandon Street, Cork City, Cork, T23 P99X",Cork,51.9020716,-8.4787149
Silverdale Surgery,"Blackrock Hall Primary Care Centre, Blackrock Avenue, Blackrock, Cork, T12 X3FV",Cork,51.8915229,-8.4110554
Skibbereen Medical Centre,"Market Street, Skibbereen, Cork, P81 EE08",Cork,51.5458793,-9.2653207
South Douglas Road Medical Centre,"South Douglas Road, Ballinlough, Cork, T12 T2YD",Cork,51.8793253,-8.445387
South Terrace Family Practice,"Suite 6 Block B, South Terrace, Ballintemple, Cork, T12 C6TC",Cork,51.8944235,-8.4673699
Special Kids Medical Clinic Ltd,"7 Chestnut Crescent, Castlelake, Carrigtwohill, Cork, T45 VW99",Cork,51.9116262,-8.2763286
Sullane Family Practice,"Unit 7, Fair Green Plaza, Macroom, Cork, P12 F579",Cork,51.9055739,-8.9544006
The Broadale Medical Centre,"Broadale, Maryborough Hill, Cork, T12 H5HK",Cork,51.8644827,-8.4129318
The Cork Road Clinic,"Mallow Primary Healthcare Centre, Goulds Hill, Mallow, Cork, P51 K650",Cork,52.13897619999999,-8.6539164
The Dispensery Medical Centre,"Station Road, Carrigtwohill, Cork, T45 F292",Cork,51.9150254,-8.2623173
The GP Practice,"Ground Floor, Cobh Primary Care Centre, Ticknock, Cobh, Cork, P24 V621",Cork,51.8604301,-8.2961453
The Grove Medical Centre,"Gleann An ÓIr, Main Road, Ballincollig, Cork, P31 XR82",Cork,51.88750599999999,-8.5985774
The Harty Practice,"Blackrock Hall Primary Care Centre, Blackrock Avenue, Blackrock, Cork, T12 X3FV",Cork,51.8915229,-8.4110554
The Harty Practice,"11 Eugene Drive, Grange, Douglas, Cork, T12 FX26",Cork,51.8688375,-8.448150499999999
The Laurels Surgery,"The Laurels, Castlepark, Mallow, Cork, P51 TK53",Cork,52.137602,-8.6336399
The Medical Centre,"Grattan Street, Youghal, Cork, P36 TK28",Cork,51.9539991,-7.8462344
The Medical Centre,"Ashdale House, Shean Lower, Blarney, Cork, T23 E06C",Cork,51.93344039999999,-8.5615389
The Medical Centre,"Mallow Primary Healthcare Centre, Goulds Hill, Mallow, Cork, P51 Y8EC",Cork,52.13897619999999,-8.6539164
The Muskerry Family Practice,"Railway View, Macroom, Cork, P12 HY91",Cork,51.9043116,-8.9532429
The Park Clinic,"Kevin Barry Hill, Fermoy, Cork, P61 V242",Cork,52.1368515,-8.2772687
The Park Family Practice,"Lower Friars Walk, Ballyphehane, Cork, T12 YTW6",Cork,51.882127,-8.4787009
The Red House Family Practice,"Mallow Primary Health Care Centre, Mallow, Cork, P51 PE00",Cork,52.1199913,-8.656805
The Rochestown Clinic,"The Square, Mount Oval Village, Rochestown, Cork, T12 YE6K",Cork,51.8694091,-8.4075721
The Surgery,"Ballytrasna, Little Island, Cork, T45 N670",Cork,51.903838,-8.3453602
The Surgery,"24 Douglas West, Douglas, Cork, T12 T2WP",Cork,51.87508039999999,-8.4396642
The Surgery,"6 Main Street, Carrigtwohill, Cork, T45 R258",Cork,51.9094667,-8.261451
The Surgery Passage West,"Passage West Surgery, Cork Street, Passage West, Cork, T12 YE1V",Cork,51.872533,-8.336981
The Village Medical Centre,"Tullig More, Ballinhassig, Cork, T12 D521",Cork,51.8118258,-8.5299701
The Village Medical Centre,"Togher Village Centre, Togher Road, Togher, Cork, T12 X0PP",Cork,51.8767733,-8.493618699999999
The Weir Family Health Clinic,"Bandon Primary Care Centre, Market Street, Bandon, Cork, P72 WD58",Cork,51.74380009999999,-8.7382489
Timoleague Family Health Clinic,"Abbey Street, Timoleague, Cork, P72 EW94",Cork,51.64343,-8.76466
Tower Medical & Dental Centre,"1 Shournagh Valley, Tower, Blarney, Cork, T23 PX0H",Cork,51.925929,-8.6085294
Town Centre Medical Practice,"31/32 Fair Street East, Mallow, Cork, P51 WN62",Cork,52.1384064,-8.643840599999999
Tullig Medical Centre,"Tullig, Millstreet, Cork, P51 H29H",Cork,52.0603293,-9.0517155
Turners Cross Medical Centre,"1 Ossory Place, Evergreen Road, Turners Cross, Cork, T12 YH6P",Cork,51.8896565,-8.4693268
Washington Street Medical Centre,"24 Washington Street West, Cork City, Cork, T12 K5TK",Cork,51.8975211,-8.4804999
Waterfront Medical Centre,"Clarke Street, Clonakilty, Cork, P85 FW98",Cork,51.6225859,-8.8863868
Well Road Surgery,"Mill Grove, Well Road, Douglas, Cork, T12 VF9C",Cork,51.8829022,-8.4376825
Westbeach Surgery,"16a West Beach, Cobh, Cork, P24 XR65",Cork,51.8504587,-8.292812
Wherland's Lane Medical Centre,"Blackpool Bridge, Blackpool, Cork, T23 APR3",Cork,51.9117243,-8.473847899999999
Wilton Medical Centre,"53 Wilton Court, Wilton, Cork, T12 HD5C",Cork,51.8791761,-8.5055199
Wilton Medicentre,"Wilton Road, Glasheen, Cork, T12 PKF6",Cork,51.8859597,-8.50675
Woodbrook Family Practice,"The Old Bank House, 11 Church Street, Newmarket, Cork, P51 DK53",Cork,52.2140232,-9.0030815
Woodview Family Doctors,"Sallybrook, Glanmire, Cork, T45 RR67",Cork,51.9444113,-8.398968
Adara Primary Care Centre,"Portnoo Road, Ardara, Donegal, F94 RF29",Donegal,54.7659013,-8.410307999999999
Ark Medical Centre,"Unit 1B, Pearse Road, Letterkenny, Donegal, F92 TN92",Donegal,54.95123239999999,-7.73227
Arranmore Health Centre,"Ballintra, Arranmore, Donegal, F92 DX08",Donegal,54.9780546,-8.506204799999999
Ballyraine Park Health Centre,"Ballyraine, Letterkenny, Donegal, F92 V9V0",Donegal,54.9539079,-7.708620799999999
Ballyraine Road Surgery,"Inverarie, Ballyraine Road, Letterkenny, Donegal, F92 TYF1",Donegal,54.9521471,-7.715422
Bayview Family Practice,"Bundoran Primary Care Centre, Station Road, Bundoran, Donegal, F94 DR52",Donegal,54.47797000000001,-8.275125
Bayview Family Practice,"An Clochár Health Campus, College Street, Ballyshannon, Donegal, F94 TPX4",Donegal,54.5013419,-8.1819195
Buncrana Medical Centre,"Maginn Avenue, Buncrana, Donegal, F93 KA02",Donegal,55.1345497,-7.4517902
Burtonport Health Centre,"Burtonport, Donegal, F94 HX66",Donegal,54.9836896,-8.4410004
Carndonagh Health Centre,"allyloskey Road, Carndonagh, Donegal, F93 RD74",Donegal,55.2454932,-7.2618504
Carrigart Medical Practice,"Glengillagrana High, Carrigart, Letterkenny, Donegal, F92 H9RV",Donegal,55.1373063,-7.799934099999999
Cloghan Primary Care Centre,"Cloghan Beg, Cloghan, Donegal, F93 HK29",Donegal,54.8373167,-7.932295399999999
Derrybeg Family Practice,"Derrybeg Health Centre, Stranacorkra, Derrybeg, Donegal, F92 YF20",Donegal,55.087795,-8.290331
Donegal Health Centre Primary Care Centre,"Waterloo Place, Donegal Town, Donegal, F94 XVA4",Donegal,54.65580869999999,-8.110715599999999
Dunfanaghy Health Centre,"Pound Street, Dunfanaghy, Donegal, F92 H302",Donegal,55.1814693,-7.9712811
Dungloe Medical Centre,"Gweedore Road, Dungloe, Donegal, F94 TK80",Donegal,54.9579515,-8.3558265
Dunkineely Health Centre,"Main Street, Dunkineely, Donegal, F94 C92X",Donegal,54.6309928,-8.3645706
Falcarragh Medical Centre,"Main Street, Falcarragh, Donegal, F92 WR9F",Donegal,55.1364761,-8.1031177
General Practice,"College Street, Ballyshannon, Donegal, F94 H2AX",Donegal,54.5013419,-8.1819195
Glenities Primary Care Centre,"Main Street, Glenties, Donegal, F94 FY64",Donegal,54.7970913,-8.2827774
Goath Dobhair Medical Centre,"Carraig Na Trá, Magheraclogher, Bunbeg, Donegal, F92 VXY4",Donegal,55.0642813,-8.3003618
Inishowen Medical,"Clonmany Health Centre, Cleagh, Clonmany, Donegal, F93 N5DV",Donegal,55.2576741,-7.4015777
Inishowen Medical,"Ardaravan Square, Buncrana, Donegal, F93 E8VF",Donegal,55.132978,-7.4512595
Killybegs Family Health Centre,"Harbour View Court, Shore Road, Killybegs, Donegal, F94 Y9TV",Donegal,54.6353538,-8.4449174
Killybegs Health Centre,"Saint Catherines Road, Killybegs, Donegal, F94 PK59",Donegal,54.6333323,-8.4462086
Letterkenny Doctors,"Level 1 Scally Place, Justice Walsh Road, Letterkenny, Donegal, F92 DPX8",Donegal,54.9511393,-7.7336932
Letterkenny Private Medical,"Roe House, Dry Arch Business Park, Letterkenny, Donegal, F92 NHT0",Donegal,54.9448695,-7.691346599999999
Lettermacaward Health Centre,"Madavagh, Lettermacaward, Donegal, F94 RH96",Donegal,54.8560008,-8.3075783
Lifford Health Centre,"Lifford Bridge, Lifford, Donegal, F93 TH24",Donegal,54.8315926,-7.483247299999999
Medical Centre,"Main Street, Dungloe, Donegal, F94 E89A",Donegal,54.9498234,-8.36056
Milford Health Centre,"Main Street, Milford, Donegal, F92 P7YE",Donegal,55.0886478,-7.6990925
Millbrae Surgery,"Stranorlar Primary Care Centre, Pound Street, Stranorlar, Donegal, F93 YKC9",Donegal,54.80507,-7.766253
Millbrae Surgery,"Millbrae, Carndonagh, Donegal, F93 Y772",Donegal,55.2506229,-7.266890500000001
Millrow Family Practice,"New Row, Donegal Town, Donegal, F94 KRK2",Donegal,54.6552292,-8.1094707
Mountcharles Primary Care Centre,"Station Road, Mountcharles, Donegal, F94 E86H",Donegal,54.6427446,-8.1965415
Moville Group Practice,"Moville Primary Care Centre, Glencrow, Moville, Donegal, F93 NF29",Donegal,55.1888041,-7.045217999999999
Newtowncunningham Health Centre,"Main Street, Newtowncunningham, Donegal, F93 RP73",Donegal,54.9977402,-7.5067306
Ramelton Health Centre,"Back Road, Ramelton, Donegal, F92 DE98",Donegal,55.0342651,-7.648852799999999
Raphoe Medical Centre,"Meetinghouse Street, Raphoe, Donegal, F93 X681",Donegal,54.8715778,-7.6062401
Rathford Medical Practice,"Milford Health Centre, Main Street, Milford, Donegal, F92 P7YE",Donegal,55.0868779,-7.6972515
Rathmullan Health Centre,"Pier Road, Rathmullan, Donegal, F92 PC43",Donegal,55.0956952,-7.5346584
Scally McDaid Medical Practice,"Level 1, Dr Scally Place, Letterkenny, Donegal, F92 DPX8",Donegal,54.9511393,-7.7336932
Stranorlar Primary Care Centre,"Pound Street, Stranorlar, Donegal, F93 D9HH",Donegal,54.8042542,-7.7605906
Tamney Dispensary,"Tamney, Donegal, F92 H261",Donegal,55.1990023,-7.6910645
The Grove Medical Practice,"Ardeskin, Donegal, F94 NW8C",Donegal,54.648794,-8.096212399999999
Agarwal Wellness and Medical Centre,"2 Church View, Lower Main Street, Lucan, Dublin, K78 Y5N9",Dublin 1,53.358397,-6.448833599999999
Amaranta Family Practice,"30 Ardagh Grove, Blackrock, Dublin, A94 W3Y0",Dublin 1,53.2835523,-6.1842782
Applewood Medical Centre,"Applewood Village, Swords, Dublin, K67 V2Y0",Dublin 1,53.471163,-6.232677
Balbriggan Medical Centre,"Fingal House, Drogheda Street, Balbriggan, Dublin, K32 ED88",Dublin 1,53.6099358,-6.183876799999999
Ballybrack Medical Centre,"4a Church Road, Ballybrack, Glenageary, Dublin, A96 CT85",Dublin 1,53.252712,-6.1245664
Ballyowen Lane Medical Centric Health,"Ballyowen Castle Centre, Ballyowen Lane, Lucan, Dublin, K78 X6V9",Dublin 1,53.3486268,-6.423285099999999
Ballyowen Lane Medical Centric Health,"Ballyowen Castle Centre, Ballyowen Lane, Lucan Dublin, Dublin, K78 X6V9",Dublin 1,53.3486268,-6.423285099999999
Bayview Medical,"5 Killiney Shopping Centre, Rochestown Avenue, Dun Laoghaire, Dublin, A96 XA78",Dublin 1,53.2671111,-6.135466999999999
Beechlawn Medical Centre,"Carrickbrennan Road, Monkstown, Dublin, A94 NX03",Dublin 1,53.2918366,-6.1514533
Belgrave Clinic,"3 Charleston Road, Dublin 6, Dublin, D06 V6T3",Dublin 1,53.3237078,-6.2598987
Blackrock Family Practice,"41 Main Street, Blackrock, Dublin, A94 D5P2",Dublin 1,53.3009425,-6.1772867
Blackrock Medical Centre,"Frascati Shopping Centre, Blackrock, Dublin, A94 H6V9",Dublin 1,53.30068869999999,-6.1824743
Blackrock Medical Clinic,"34 Main Street, Blackrock, Dublin, A94 T6H3",Dublin 1,53.3011802,-6.176736200000001
Blackrock Medical Practice,"62 Newtownpark Avenue, Blackrock, Dublin, A94 DH59",Dublin 1,53.291142,-6.1713876
Bracken Family Practice,"66 Dublin Street, Balbriggan, Dublin, K32 HC94",Dublin 1,53.6056204,-6.1837351
Carysfort Clinic,"11 Proby Square, Blackrock, Dublin, A94 AD91",Dublin 1,53.2926391,-6.179595600000001
Castle Medical Centre,"9 Bridge Street, Swords, Dublin, K67 KX63",Dublin 1,53.45919920000001,-6.2209327
Centric Health - Boroimhe Medical Centre,"Boroimhe Shopping Centre, Boroimhe, Swords, Dublin, K67 E9K0",Dublin 1,53.4467684,-6.237830199999999
Centric Health City West Medical,"Citywest Shopping Centre, Fortunes Walk, Saggart, Dublin, D24 K0YT",Dublin 1,53.2831169,-6.4230195
Chapel Hill Medical Centre,"Chapel Hill, Lucan, Dublin, K78 A9N9",Dublin 1,53.3592386,-6.4419828
Dalkey Medical Practice,"4a Saint Patrick's Road, Dalkey, Dublin, A96 T2P0",Dublin 1,53.27780389999999,-6.1037913
Deansgrange Medical Centre,"Unit 3 2 Clonkeen Road, Deansgrange, Blackrock, Dublin, A94 A4E4",Dublin 1,53.2783741,-6.163386900000001
Deansgrange Medical Practice,"67 Clonkeen Road, Deansgrange, Blackrock, Dublin, A94 YC52",Dublin 1,53.2741493,-6.162320999999999
DF Medical Centre,"Ardfield House, Lower Main Street, Lucan, Dublin, K78 V8W6",Dublin 1,53.3555517,-6.4541957
Dodsboro Clinic,"Woodview Court, Tandys Lane, Lucan, Dublin, K78 Y4C9",Dublin 1,53.3537206,-6.4609069
Doherty Medical Practice,"41 Sallynoggin Road, Sallynoggin, Dublin, A96 R2T8",Dublin 1,53.2777095,-6.141104299999999
Donabate Clinic,"Warrington Mews, Main Street, Donabate, Dublin, K36 DH34",Dublin 1,53.4865268,-6.1479003
Donabate Medical Centre,"Unit 4, Portrane Road, Donabate, Dublin, K36 XV57",Dublin 1,53.4916519,-6.1390253
Dr Cathal O'Sullivan,"37 Seapoint Avenue, Blackrock, Dublin, A94 X3T8",Dublin 1,53.2980207,-6.1627074
Dr Davina Healy,"Anchorage, 7 Castle Close, Sandycove, Dublin, A96 HW56",Dublin 1,53.2841002,-6.110635299999999
Dr Fergus Murray,"The Square, Lower Main Street, Rush, Dublin, K56 R274",Dublin 1,53.5217499,-6.0868441
Dr Joseph P Cranley,"5/6 Main Street, Howth, Dublin, D13 P2C1",Dublin 1,53.3857069,-6.065262700000001
Dr Panos Harris,"84a Hillcrest Park, Hillcrest, Lucan, Dublin, K78 CD58",Dublin 1,53.3510119,-6.4548489
Dr Patrick Feeney Surgery,"96 Lower Kilmacud Road, Stillorgan, Dublin, A94 X5X5",Dublin 1,53.2888065,-6.2143137
Dr Peter Staunton,"37 Woodlands Park, Stillorgan, Dublin, A94 KX81",Dublin 1,53.2963625,-6.1995702
Dr Richard Fitzpatrick,"Burmet, 196 Glenageary Road Upper, Glenageary, Dublin, A96 FE09",Dublin 1,53.2771321,-6.128093900000001
Dr Samir Ekky,"49 Esker Lawns, Lucan, Dublin, K78 A5R2",Dublin 1,53.3565041,-6.441272
Dr W Fraser,"Benedin, Windgate Rise, Howth, Dublin, D13 YV00",Dublin 1,53.3725759,-6.062172899999999
Dr. Marian Mcwade,"Avoca Cottage, 12 Avoca Avenue, Blackrock, Dublin, A94 EV56",Dublin 1,53.29708220000001,-6.185181099999999
Dr. Patrick Coughlan,"87a Booterstown Avenue, Booterstown, Blackrock, Dublin, A94 RR71",Dublin 1,53.3042806,-6.198848
Drs Gallagher and Byrne Family Practice,"31 The Rise, Mount Merrion, Blackrock, Dublin, A94 E0C1",Dublin 1,53.29930719999999,-6.209013199999999
Dun Laoghaire Surgery,"1 Glenageary Road Lower, Glenageary, Dublin, A96 V078",Dublin 1,53.28930519999999,-6.129959299999999
Elton Dental and Medical Centre,"30 Sandycove Road, Dun Laoghaire, Dublin, A96 V9P1",Dublin 1,53.28573609999999,-6.115994499999999
Fingal Clinic,"Station Road, Lusk, Dublin, K45 DC85",Dublin 1,53.5242994,-6.160934
Finnstown Medical Centre,"Finnstown Shopping Centre, Newcastle Road, Lucan, Dublin, K78 E8X7",Dublin 1,53.3412711,-6.4516031
Forest Medical Practice,"108 Forrest Fields Road, Swords, Dublin, K67 D802",Dublin 1,53.4525551,-6.2369885
Generation Health Medical Clinic,"1st Floor South Building, 16a Monkstown Crescent, Monkstown, Dublin, A94 Y8X0",Dublin 1,53.2939509,-6.1513857
Gleneagle Medical Centre,"32a Greygates, Stillorgan Road, Blackrock, Dublin, A94 D368",Dublin 1,53.3004265,-6.2060224
GP HomeCare (Lucan Family Doctor),"9 Oldbridge Walk, Lucan, Dublin, K78 HC94",Dublin 1,53.3393227,-6.4333952
Grange Mount Surgery,"Grangemount, Ring Commons, Dublin, K32 WK07",Dublin 1,53.6093842,-6.2522346
Hamlet Lane Medical Centre,"Castle Mill Shopping Centre, Hamlet Lane, Balbriggan, Dublin, K32 PP59",Dublin 1,53.6132067,-6.205997699999999
Harbour Health,"1-2 Lower Glenageary Road, Dun Laoghaire, Dublin, A96 AE76",Dublin 1,53.2892076,-6.1300058
Henry Medical,"63 Clontarf Road, Dublin 3, Dublin, D03 R8P9",Dublin 1,53.3624619,-6.2171784
HSE - Community Medical Doctors,"Tivoli Road, Dun Laoghaire, Dublin, A96 DK64",Dublin 1,53.2884163,-6.1404656
Johnstown Medical Centre,"107a Johnstown Road, Cabinteely, Glenageary, Dublin, A96 W248",Dublin 1,53.2690435,-6.1452244
Kilmacud Medical Centre,"26 Lower Kilmacud Road, Stillorgan, Dublin, A94 KD78",Dublin 1,53.288823,-6.2078577
Kingsford Medical Centre,"Unit 6Kingsford Cross, Strand Road, Portmarnock Dublin, Dublin, D13 NW18",Dublin 1,53.4253165,-6.131869
Kinsealy Medical Centre,"20 The Rise, Melrose Park, Kinsealy, Dublin, K67 F683",Dublin 1,53.4459354,-6.2021117
Lambay Family Practice,"Mary's Cottage, 7 Upper Main Street, Rush, Dublin, K56 NR02",Dublin 1,53.5220516,-6.0918601
Lifetime Family Practice,"Ridge House, Shanganagh Road, Glenageary, Dublin, A96 N8W7",Dublin 1,53.2520223,-6.1241846
Malahide Family Practice,"15 Strand Street, Malahide, Dublin, K36 A625",Dublin 1,53.4519798,-6.154499800000001
Malahide Medical Centre,"Kilronan House, Church Road, Malahide, Dublin, K36 RW18",Dublin 1,53.4503234,-6.1533776
Manor Hall Medical Centre,"Manor Mall Shopping Centre, Brackenstown Road, Swords, Dublin, K67 K6W7",Dublin 1,53.4602733,-6.245288
Monkstown Surgery,"25 Oliver Plunkett Road, Dun Laoghaire, Dublin, A96 V8K1",Dublin 1,53.2854459,-6.153485799999999
Mount Merrion Medical Centre,"1st Floor 71 Deerpark Road, Mount Merrion, Blackrock, Dublin, A94 D087",Dublin 1,53.2960512,-6.2124649
Mount Merrion Medical Clinic,"71 Deerpark Road, Mount Merrion, Blackrock, Dublin, A94 D087",Dublin 1,53.2960512,-6.2124649
MyMedical - Cherrywood,"Cherrywood Business Park, Bray Road, Loughlinstown, Dublin, D18 T8Y6",Dublin 1,53.2434159,-6.139821899999999
Portmarnock Family Practice,"Portmarnock Arcade, Strand Road, Portmarnock, Dublin, D13 E1W6",Dublin 1,53.4216604,-6.136694
Portmarnock GP Clinic,"1 The Dunes, Portmarnock, Dublin, D13 T2T6",Dublin 1,53.423792,-6.1331619
Primacare - Lusk,"Station Road, Lusk, Dublin, K45 PX83",Dublin 1,53.5242994,-6.160934
Primehealth Medical Centre,"91 Main Street, Swords, Dublin, K67 F6P8",Dublin 1,53.4548891,-6.2223188
Railway Avenue Medical Practice,"1 Railway Avenue, Malahide, Dublin, K36 F899",Dublin 1,53.45114160000001,-6.1556962
Rath Mhuire Health Centre,"9 Malahide Road, Swords, Dublin, K67 V8N3",Dublin 1,53.4559609,-6.2196441
Rathcoole Medical Centre,"Main Street, Rathcoole, Dublin, D24 Y53K",Dublin 1,53.2817612,-6.469666
Ridgewood Medical Centre,"Ridgewood Grove, Ridgewood, Swords, Dublin, K67 R7F9",Dublin 1,53.4446267,-6.2442897
Rockcourt Medical Centre,"The Courtyard, 40 Main Street, Blackrock, Dublin, A94 Y1R7",Dublin 1,53.301113,-6.1763401
Rush Family Practice,"6a Lower Main Street, Rush, Dublin, K56 NC80",Dublin 1,53.521696,-6.091055
RushGP.ie,"44 Upper Main Street, Rush, Dublin, K56 NV61",Dublin 1,53.5222493,-6.0948207
Saggart Medical Centre,"Garters Lane, Saggart, Dublin, D24 AK65",Dublin 1,53.2855447,-6.440254
Salus Medical Clinic,"Unit 2 Albany House, Main Street, Swords, Dublin, K67 X2H5",Dublin 1,53.4544542,-6.2226073
Sandycove Surgery,"1 Mount Pleasant, Sandycove Road, Sandycove, Dublin, A96 P596",Dublin 1,53.286296,-6.1194238
Seabury Medical Centre,"1 Seabury Parade, Malahide, Dublin, K36 FK13",Dublin 1,53.4553417,-6.1793683
Seaholm Surgery,"10 Holmpatrick, Skerries, Dublin, K34 R942",Dublin 1,53.5761462,-6.104672
Sheehan Medical Centre,"Dun Laoghaire Industrial Estate, Pottery Road, Dun Laoghaire, Dublin, A96 A6P2",Dublin 1,53.2755502,-6.157797899999999
Sheehan Medical Practice,"21 Summerhill Road, Dun Laoghaire, Dublin, Dublin, A96 A4P1",Dublin 1,53.2881004,-6.1255817
Sheehan Medical Practice,"21 Summerhill Road, Dun Laoghaire, Dublin, A96 A4P1",Dublin 1,53.2881004,-6.1255817
Slade Castle Family Practice,"Unit 6, Slade Castle Court, Saggart, Dublin, D24 NTE2",Dublin 1,53.2798615,-6.4452549
Slievemore Clinic,"Old Dublin Road, Stillorgan, Dublin, A94 CH66",Dublin 1,53.2906622,-6.1999478
Stillorgan Medical Centre,"22 Stillorgan Plaza, Lower Kilmacud Road, Stillorgan, Dublin, A94 TR90",Dublin 1,53.28839310000001,-6.1994725
Swords Family Practice,"Castle Shopping Centre, Bridge Street, Swords, Dublin, K67 Y7C1",Dublin 1,53.459017,-6.2215415
Temenos Medical Centre,"Townyard House, Townyard Lane, Malahide, Dublin, K36 Y622",Dublin 1,53.4515325,-6.1524757
The Medical & Laser Clinic,"Newcastle Shopping Centre, Main Street, Newcastle, Dublin, D22 T9N6",Dublin 1,53.3000974,-6.4993438
The Medical Centre,"Lucan Shopping Centre, Newcastle Road, Lucan, Dublin, K78 YD79",Dublin 1,53.3487016,-6.452722199999999
The Medical Centre,"7 Main Street, Lucan, Dublin, K78 K072",Dublin 1,53.35714129999999,-6.450469099999999
The Plaza Clinic,"17 Main Street, Swords, Dublin, K67 H3K4",Dublin 1,53.45840829999999,-6.2199225
The Surgery,"7 Strand Street, Skerries, Dublin, K34 FY51",Dublin 1,53.5811499,-6.1069486
The Surgery,"76 Sandyford Village, Dublin 18, Dublin, D18 X2X8",Dublin 1,53.2694781,-6.2236984
The Village Medical Centre,"The Diamond, Main Street, Malahide, Dublin, K36 XW83",Dublin 1,53.4511031,-6.1533636
Tully Family Practice,"Unit 1 Bakers Point, Pottery Road , Dun Laoghaire, Dublin, A96 Y80F",Dublin 1,53.2734045,-6.1533541
Virtue Medical,"G9 The Pottery, Bakers Point, Dun Laoghaire, Dublin, A96 EN23",Dublin 1,53.2934153,-6.1425047
Windmill Medical Centre,"New Street, Skerries, Dublin, K34 Y658",Dublin 1,53.5788002,-6.1096852
Woodbine Medical Centre,"31 Woodbine Park, Booterstown, Blackrock, Dublin, A94 HX31",Dublin 1,53.3102199,-6.208628099999999
Yew Medical Centre,"1st floor Balbriggan Primary Care Centre, 66 Dublin Street, Balbriggan, Dublin, K32 HC94",Dublin 1,53.6052584,-6.1838326
Ballyfermot Family Practice,"Ballyfermot Road, Ballyfermot, Dublin, D10 CK40",Dublin 10,53.3426708,-6.3575676
Claddagh Surgery,"Ballyfermot & Palmerstown Primary Care Ctr, Ballyfermot Road, Cherry Orchard, Dublin, D10 C973",Dublin 10,53.3433229,-6.3717885
Dr Eric Dilworth,"411 Ballyfermot Road, Cherry Orchard, Dublin, D10 K683",Dublin 10,53.3426462,-6.362240799999999
Dr Mohsin Moola,"314 Ballyfermot Road, Ballyfermot, Dublin, D10 PH57",Dublin 10,53.3425434,-6.3544453
Dr Naseema Moorad,"314 Ballyfermot Road, Ballyfermot, Dublin, D10 PH57",Dublin 10,53.3425434,-6.3544453
Grange Cross Medical,"336 Ballyfermot Road, Ballyfermot, Dublin, D10 EE79",Dublin 10,53.3426637,-6.3566959
Medi Centre,"283 Ballyfermot Road, Ballyfermot, Dublin, D10 PW57",Dublin 10,53.3420073,-6.3528028
Sarsfield Medical Centre,"201 Seven Oaks, Sarsfield Road, Kilmainham, Dublin, D10 KV70",Dublin 10,53.3415674,-6.32729
Charlestown Medical Centre,"Charlestown Centre, Saint Margaret's Road, Charlestown, Dublin, D11 KXC7",Dublin 11,53.4038659,-6.3037158
Clune Road Medical Centre,"23 Clune Road, Finglas, Dublin, D11 W95N",Dublin 11,53.3907751,-6.2940451
Cremore Clinic,"66 Ballygall Road East, Glasnevin, Dublin, D11 RX50",Dublin 11,53.38166469999999,-6.2765144
Dr Desmond Day,"Dr. Desmond Day, 63 Main Street, Finglas, Dublin, D11 PDR3",Dublin 11,53.3893554,-6.2993818
Dr Ronan O'Ferrall,"102 Slaney Road, Dublin Industrial Estate, Cabra East, Dublin, D11 A268",Dublin 11,53.3740184,-6.290064099999999
Finglas Family Practice,"Seamus Ennis Road, Finglas, Dublin, D11 X3DW",Dublin 11,53.3901189,-6.29813
Glasnevin Ave Medical Centre,"280 Glasnevin Avenue, Glasnevin North, Dublin, D11 HW5P",Dublin 11,53.3906613,-6.2867874
Glasnevin Family Practice,"11 Finglas Road, Cabra East, Dublin, D11 PA00",Dublin 11,53.36705869999999,-6.272833599999999
JPM Chambers,"167 Glasnevin Avenue, Glasnevin North, Dublin, D11 YK5N",Dublin 11,53.3901835,-6.2784301
Melville Medical Clinic,"Unit 10 Meakstown Neighbourhood Centre, Melville Road, Finglas, Dublin, D11 TXP3",Dublin 11,53.4021139,-6.2975593
North Road Medical Centre,"23 North Road, Finglas North, Dublin, D11 N224",Dublin 11,53.3915868,-6.301781399999999
Village Medical Centre,"45-48 Main Street, Finglas, Dublin, D11 TCC9",Dublin 11,53.3880838,-6.2977051
Willow Park Medical Centre,"72 Willow Park Crescent, Finglas, Dublin, D11 X981",Dublin 11,53.3932477,-6.2857609
Armagh Road Primary Care Centre,"Armagh Road, Crumlin, Dublin, D12 YY82",Dublin 12,53.3205108,-6.3067696
Crumlin Family Practice,"Unit 2, Windmill Lodge, Windmill Road, Dublin, D12 XT54",Dublin 12,53.32132619999999,-6.315743299999999
Crumlin Medical Practice,"1 Errigal Road, Drimnagh, Dublin, D12 NV0A",Dublin 12,53.3252873,-6.3216326
Dr Andrew Low,"6 Swanward Court, Parnell Road, Dublin, D12 A6Y2",Dublin 12,53.3300364,-6.285847299999999
Dr Catherine King,"172 Sundrive Road, Kimmage, Dublin, D12 V2CY",Dublin 12,53.32505399999999,-6.2966449
Dr Helen Fenton,"154 Cooley Road, Drimnagh, Dublin, D12 YR99",Dublin 12,53.3306768,-6.3246946
Dr Rowan and Dr White Surgery,"Primary Care Centre, Armagh Road, Crumlin, Dublin, D12 YY82",Dublin 12,53.31892389999999,-6.3065243
Dr. John Synnott Surgery,"144 Old County Road, Drimnagh, Dublin, D12 XFP6",Dublin 12,53.3270989,-6.306096399999999
Drs Canwell and Spillane,"133 Saint Peter's Road, Walkinstown, Dublin, D12 XN9F",Dublin 12,53.3122271,-6.327005799999999
Errigal Road Surgery,"112 Errigal Road, Drimnagh, Dublin, D12 T286",Dublin 12,53.32905280000001,-6.3235766
Galtymore Medical Centre,"131 Galtymore Road, Drimnagh, Dublin, D12 HX4A",Dublin 12,53.334414,-6.3195032
Kimmage Medical Centre,"202 Kimmage Road West, Kimmage, Dublin, D12 A4VF",Dublin 12,53.316468,-6.3166053
Long Mile Medical Centre,"Long Mile Road, Walkinstown, Dublin, D12 KH34",Dublin 12,53.3236892,-6.337621
Park West Clinic,"2nd Floor Block 71, Park West Business Park, Cherry Orchard, Dublin, D12 Y4C0",Dublin 12,53.3316178,-6.371101599999999
Parkwest Medical Centre,"The Plaza Park West Avenue, Park West Business Park, Cherry Orchard, Dublin, D12 Y4C0",Dublin 12,53.3308109,-6.3715708
Perrystown Family Practice,"171 Whitehall Road, Terenure, Dublin, D12 P030",Dublin 12,53.307568,-6.319266799999999
Shackleton & Behan Family Doctors,"115 Cromwell's Fort Road, Walkinstown, Dublin, D12 YR27",Dublin 12,53.31696360000001,-6.322845099999999
Sundrive Medical Centre,"36 Sundrive Road, Kimmage, Dublin, D12 AR22",Dublin 12,53.3205459,-6.2927148
The Iveagh Medical clinic,"235 Crumlin Road, Crumlin, Dublin, D12 WR53",Dublin 12,53.3276327,-6.3080396
Walkinstown Medical Centre,"133 Walkinstown Road, Walkinstown, Dublin, D12 PX7A",Dublin 12,53.3189663,-6.331891499999999
Baldoyle Medical Clinic,"Racecourse Shopping Centre, Grange Road, Baldoyle, Dublin, D13 N6W7",Dublin 13,53.396529,-6.137719199999999
Bayside Family Practice,"Bayside Shopping Centre, Bayside Square East, Killbarrack, Dublin, D13 KT59",Dublin 13,53.3892473,-6.1396635
Bayside Medical Centre,"Bayside Shopping Centre, Bayside Square East, Sutton, Dublin, D13 W2K1",Dublin 13,53.3892473,-6.1396635
Breda Synnott,"Brookstone Road, Baldoyle, Dublin, D13 HD36",Dublin 13,53.3971362,-6.1353297
Clongriffin Medical Centre,"17a Main Street, Clongriffin, Dublin, D13 N2Y4",Dublin 13,53.4023164,-6.1522668
Donaghmede Medical Clinic,"Unit 40a Donaghmede Shopping Centre, Grange Road, Donaghmede, Dublin, D13 V9X6",Dublin 13,53.3978831,-6.1500057
Dr Brian Walsh,"Warren House, 16 Warrenhouse Road, Dublin, D13 TR53",Dublin 13,53.39395159999999,-6.1246553
Dr John McGuinness,"118 Dublin Road, Sutton, Dublin, D13 K2K7",Dublin 13,53.3892102,-6.1168175
Grange Clinic,"Grange Road, Grange, Dublin, D13 F7H9",Dublin 13,53.3978831,-6.1500057
Ibrahim Surgery,"52 Ardara Avenue, Donaghmede, Dublin, D13 RK03",Dublin 13,53.3963313,-6.169552899999999
Sutton Clinic,"31 Howth Road, Sutton, Dublin, D13 H582",Dublin 13,53.390176,-6.1049938
Sutton Cross Medical Centre,"Sutton Centre, Sutton Cross, Dublin, D13 A6C8",Dublin 13,53.3498053,-6.2603097
Sutton Surgery,"Saint Margaret's, Greenfield Road, Sutton, Dublin, D13 H9H6",Dublin 13,53.387197,-6.1047795
Aranleigh Health Centre,"1 Aranleigh Mount, Rathfarnham, Dublin, D14 K822",Dublin 14,53.2903769,-6.2822213
Ballyboden Medical,"Unit 1 Ballyboden Shopping Centre, Taylor's Lan, Rathfarnham, Dublin, D16 RK74",Dublin 14,53.2817351,-6.2900726
Braemor Family Practice,"119b Braemor Road, Rathfarnham, Dublin, D14 VK46",Dublin 14,53.3003138,-6.2636612
Centric Health - Churchtown Medical,"96/98 Churchtown Road Upper, Churchtown, Dublin, D14 EW68",Dublin 14,53.2949748,-6.2590382
Churchtown Family Practice,"111d Beaumont Avenue, Churchtown, Dublin, D14 X5R5",Dublin 14,53.2882658,-6.2561444
Churchtown Medical Centre,"67 Churchtown Road Upper, Churchtown, Dublin, D14 KR83",Dublin 14,53.2960579,-6.262042399999999
Dodder Park Medical,"4 Dodder Park Drive, Rathfarnham, Dublin, D14 VY57",Dublin 14,53.3042668,-6.2813276
Dr Alex Khourie,"5 Saint Enda's Drive, Rathfarnham, Dublin, D14 T2P8",Dublin 14,53.2891353,-6.2835659
Dr Bent and Kinsella,"17 Pembroke Cottages, Main Street, Dundrum, Dublin, D14 X2T7",Dublin 14,53.28962869999999,-6.2435741
Dr Bhutta Surgery,"34 Mount Carmel Road, Churchtown, Dublin, D14 TP93",Dublin 14,53.29612119999999,-6.238912699999999
Dr Cantwell and Gleeson Surgery,"5 Saint Enda's Drive, Rathfarnham, Dublin, D14 T2P8",Dublin 14,53.2891353,-6.2835659
Dr Patrick Magovern,"3 Drummartin Road, Kilmacud West, Dublin, D14 K0T9",Dublin 14,53.2887636,-6.222697300000001
Dr Paul Heslin,"3 Beaumont Avenue, Churchtown, Dublin, D14 K2N5",Dublin 14,53.2880322,-6.2566362
Dundrum Family Practice,"218 Barton Road East, Dundrum, Dublin, D14 AE92",Dublin 14,53.2887148,-6.246912399999999
Goatstown Medical Centre,"6 Drummartin Terrace, Ardilea, Dublin, D14 DY94",Dublin 14,53.2918511,-6.229234000000001
Marian Road Medical,"50 Marian Road, Rathfarnham, Dublin, D14 R9P6",Dublin 14,53.2927115,-6.297867699999999
Moe Family Practice,"Woodlawn, Clonskeagh Road, Clonskeagh, Dublin, D14 X5R3",Dublin 14,53.312119,-6.2386363
Priority Medical Clinic,"6 Pembroke Cottages, Main Street, Dundrum, Dublin, D14 A9W8",Dublin 14,53.2899118,-6.2438366
Rosemount Family Doctors,"Rosemount Shopping Centre, Marian Road, Ballyroan, Dublin, D14 V8W8",Dublin 14,53.2922106,-6.2978117
Rowan Family Practice,"123 Churchtown Road Lower, Churchtown Lower, Dublin, D14 E840",Dublin 14,53.2966425,-6.253899
Solas Medical Centre,"Unit 12 Rathfarnham Shopping Centre, Butterfield Avenue, Rathfarnham, Dublin, D14 VP03",Dublin 14,53.2967555,-6.297553
The Gables Medical Centre,"Unit 13 Nutgrove Retail Park, Nutgrove Avenue, Rathfarnham, Dublin, D14 NT35",Dublin 14,53.2925556,-6.267383499999999
Woodlawn Medical Centre,"1 Woodlawn Terrace, Churchtown Road Upper, Churchtown, Dublin, D14 W3V5",Dublin 14,53.2953275,-6.2571214
Ballinteer Health General & Family Pratice,"21 Woodpark, Ballinteer Avenue, Ballinteer, Dublin, D16 HT65",Dublin 16,53.277582,-6.2467177
Ballinteer Medical,"Unit 1, Ballinteer Business Centre, Ballinteer Avenue, Dublin, D16 X0H2",Dublin 16,53.2760198,-6.249542600000001
Ballyboden Medical,"Unit 1 Ballyboden Shopping Centre, Taylor's Lan, Rathfarnham, Dublin, D16 RK74",Dublin 16,53.2817351,-6.2900726
Bloomfield Health Services,"Stocking Lane, Rathfarnham, Dublin, D16 C6T4",Dublin 16,53.2730353,-6.3063157
Centric Health - Dundrum,"Rockfield Medical Campus, Dundrum, Dublin, D16 A6K5",Dublin 16,53.2860341,-6.235947
Centric Health - Dundrum Medical,"Unit 1 Level 4, Dundrum Town Centre, Sandyford Road, Dublin, D16 XC91",Dublin 16,53.28698199999999,-6.242252
Centric Virtual Clinic,"Balally Primary Care Centre Rockfield Medical Campus, Overend Way , Dundrum, Dublin, D16 A6K5",Dublin 16,53.2865518,-6.236252299999999
Dr Pamela Mangal,"Kaieteur Ville, Knocklyon Avenue, Knocklyon, Dublin, D16 VH61",Dublin 16,53.2887154,-6.3234507
Dr Peter Wai Yin Hooi,"105 Broadford Hill, Ballinteer, Dublin, D16 YD29",Dublin 16,53.2797788,-6.2594547
GP Practice,"Unit 19/20 Knocklyon Shopping Centre, Idrone Avenue, Knocklyon, Dublin, D16 EA36",Dublin 16,53.2829999,-6.317812699999999
Grange Road Family Practice,"Grange Road Retail Park Unit 3b, Grange Road, Ballinteer, Dublin, D16 VN25",Dublin 16,53.2772936,-6.265012899999999
Rathfarnham Medical Centre,"4 Glendoher Road, Ballyboden, Dublin, D16 W726",Dublin 16,53.2859152,-6.2931458
Scholarstown Family Practice,"10a Templeroan Lodge, Scholarstown Road, Ballyroan, Dublin, D16 E2Y5",Dublin 16,53.2797072,-6.307504700000001
The Family Medicine Centre,"4 Ballyroan Road, Rathfarnham, Dublin, D16 A2N6",Dublin 16,53.293019,-6.309099799999999
Alfa Medics,"Northside Shopping Centre, Oscar Traynor Road, Kilmore, Dublin, D17 R997",Dublin 17,53.3957062,-6.2121933
Darndale Health Centre,"Darndale Belcamp Village Centre, Darndale, Dublin, D17 X050",Dublin 17,53.4014509,-6.1945464
Meridian Clinic - Clarehall,"3rd Floor Clarehall Shopping Centre, Malahide Road, Northern Cross, Dublin, D17 NX38",Dublin 17,53.40106189999999,-6.181532499999999
Northern Cross Medical Centre,"Unit 4 Burnell Court, Malahide Road , Priorswood, Dublin, D17 KF95",Dublin 17,53.4027135,-6.1882661
Beacon Clinic,"Beacon Court, Sandyford Business Park, Sandyford, Dublin, D18 E7P4",Dublin 18,53.2757368,-6.2194441
Belarmine Medical Centre,"Belarmine Plaza, Belarmine Avenue, Stepaside, Dublin, D18 W5W9",Dublin 18,53.2606214,-6.2205825
Blackglen Medical,"Unit 7 Blackglen Village Centre, Sandyford, Dublin, D18 KN23",Dublin 18,53.2687161,-6.242790599999999
Central Park Medical,"Building 8 Vantage West, Central Park, Leopardstown, Dublin, D18 K5FV",Dublin 18,53.26647819999999,-6.192451
Centric Health Sandyford Medical And Dental,"The Plaza, Beacon South Quarter, Sandyford, Dublin, D18 F729",Dublin 18,53.2775928,-6.2167644
D18 Medical,"Unit 40B Belarmine Plaza, Belarmine Avenue, Belarmine , Dublin, D18 W5W9",Dublin 18,53.2608982,-6.220697599999999
Foxrock Medical Centre,"1a Brighton Road, Foxrock, Dublin, D18 N8C0",Dublin 18,53.26656699999999,-6.1836807
Glencairn Medical Centre,"Leopardstown Valley, Ballyogan Road, Ballyogan, Dublin, D18 YK54",Dublin 18,53.2573623,-6.1955086
Leopardstown Primary Care Centre,"Leopardstown Valley Shopping Centre, Ballyogan Road, Ballyogan, Dublin, D18 H6W0",Dublin 18,53.2585585,-6.1978995
Medixclinic,"Suite 7 The Mall, Beacon Court, Sandyford Industrial Estate, Dublin, D18 N2E2",Dublin 18,53.2757368,-6.2194441
Orsmond Clinics,"13 Loughlinstown Road, Loughlinstown, Dublin, D18 VOR1",Dublin 18,53.2480658,-6.1284987
Sandyford Healthcare,"21 Time Place Corrig Road, Sandyford Business Park, Sandyford, Dublin, D18 R89T",Dublin 18,53.2766933,-6.2150565
Shankill Family Practice,"1 Athgoe Drive, Shankill, Dublin, D18 C596",Dublin 18,53.234724,-6.1209383
Shankill Surgery,"Shankill Primary Care Centre, Lower Road, Shankill, Dublin, D18 DW08",Dublin 18,53.2306738,-6.126338
Stepaside Medical Centre,"The Village, Enniskerry Road, Stepaside Village, Dublin, D18 TW61",Dublin 18,53.25247049999999,-6.2134816
The Park Clinic Cabinteely,"Park Shopping Centre, Glen Drive, Cabinteely, Dublin, D18 C984",Dublin 18,53.262181,-6.161854300000001
VideoDoc,"Beacon Court, Sandyford Industrial Estate, Sandyford, Dublin, D18 C2D0",Dublin 18,53.2757368,-6.2194441
Woodfield GP Surgery,"Shanganagh Road, Shankill, Dublin, D18 VK57",Dublin 18,53.2430862,-6.1216514
Aungier Street Clinic,"14-16 Redmond's Hill, Aungier Street, Dublin, D02 RP46",Dublin 2,53.3380291,-6.2662264
Clare Street Medical Centre,"26 Clare Street, Dublin, D02 VX59",Dublin 2,53.3414709,-6.252176299999999
Clifton Court Clinic,"Clifton Court, Fitzwilliam Street Lower, Dublin, D02 V279",Dublin 2,53.3377124,-6.2486493
Dame Street Medical Centre,"16 Dame Street, Woodview, Dublin, D02 TD50",Dublin 2,53.3440618,-6.2651619
Dawson Medical,"Suite 1, Morrison Chambers, 32 Nassau Street, Dublin 2, Dublin, D02 PC58",Dublin 2,53.3427729,-6.2574783
Dr Anvor Amod,"44 Westland Row, Dublin, D02 W274",Dublin 2,53.342771,-6.2497731
Dr Brady's Surgery,"Apartment 2, 12 Camden Street Upper, Dublin, D02 A270",Dublin 2,53.3327791,-6.2651154
Dr El-Zayed Hegazy,"4 Chatham Street, Dublin, D02 R223",Dublin 2,53.3407277,-6.261892
Dr Goodwin McDonnell,"3 Ely Place Upper, Dublin, D02 XV65",Dublin 2,53.3368465,-6.2544324
E&S Doctors,"31/32 Wellington Quay, Dublin, D02 KP11",Dublin 2,53.3457871,-6.2641931
Fitzwilliam Medical Centre,"79 Fitzwilliam Lane, Dublin, D02 V567",Dublin 2,53.33872359999999,-6.2514601
Grafton Medical Practice,"Grafton Buildings, 34 Grafton Street, Grafton Street, Dublin, D02 XY06",Dublin 2,53.3411188,-6.2603494
Hanover Medical Centre,"Unit 5, Lazer Lane, Dublin, D02 RF77",Dublin 2,53.3452461,-6.238764199999999
Harcourt Health,"35 Camden Street Upper, Dublin, D02 HK82",Dublin 2,53.3327282,-6.2647102
Joseph Molony,"37 Castle Street, Dublin, D02 H773",Dublin 2,53.3432869,-6.2696863
Lincoln Place Medical,"26 Clare Street, Dublin, D02 VX59",Dublin 2,53.3414709,-6.252176299999999
Mercer's Medical Centre,"Stephen Street Lower, Dublin 2, Dublin, D02 P294",Dublin 2,53.3412641,-6.2642397
Nassau Clinic,"Unit 17 Morrison Chambers, 32 Nassau Street, Dublin, D02 XW77",Dublin 2,53.3427151,-6.2574859
Parliament Street Medical Practice,"11 Parliament Street, Dublin, D02 V277",Dublin 2,53.3447099,-6.267239
Pearse Street Primary Care Centre,"15 Mark's Lane, Dublin, D02 TD23",Dublin 2,53.3449024,-6.2495425
Pearse Street Primary Care Centre,"15 Mark's Lane, Dublin, D02 TD23",Dublin 2,53.3449024,-6.2495425
SmartHealth,"77 Camden Street Lower, Dublin, D02 XE80",Dublin 2,53.3353123,-6.2654232
Suffolk Street Surgery,"107 Grafton Street, Dublin, D02 E425",Dublin 2,53.3434211,-6.2595576
The Adelaide Clinic,"56 Adelaide Road, Dublin, D02 H337",Dublin 2,53.3321524,-6.253262299999999
The D2 Medical Centre,"4 Fitzwilliam Square East, Dublin, D02 FE06",Dublin 2,53.335209,-6.2503495
The Gallery Medical Centre,"26 Clare Street, Dublin, D02 VX59",Dublin 2,53.3414709,-6.252176299999999
The Temple Bar Medical Centre,"26 Wellington Quay, Dublin, D02 R221",Dublin 2,53.3456793,-6.2645531
Tir na nOg Clinic,"Unit 31 Morrison Chambers, 32 Nassau Street , Dublin, D02 WE12",Dublin 2,53.3427729,-6.2574783
Travel Health Clinic,"7 Dawson Street, Dublin, D02 HX22",Dublin 2,53.3422007,-6.2577479
Chapelizod Medical Centre,"Belgrove Park, Chapelizod, Dublin, D20 KH70",Dublin 20,53.3521726,-6.3507703
Manor Road Surgery,"31 Manor Road, Redcowfarm, Dublin, D20 AW73",Dublin 20,53.35101969999999,-6.368591299999999
Medical Centre,"14 Palmerstown Park, Woodfarm, Dublin, D20 YD43",Dublin 20,53.3510573,-6.378787
Palmerstown Medical Centre,"Unit 4 Aldi Centre, Lucan Road Old, Palmerstown Lower, Dublin, D20 EK76",Dublin 20,53.3573835,-6.3747421
Waterstown Medical,"Stewarts Care Limited, Mill Lane, Redcow, Dublin, D20 XT80",Dublin 20,53.3548872,-6.3674516
Ashwood Surgery,"19 Ashwood Road, Clondalkin, Dublin, D22 E9K6",Dublin 22,53.3261324,-6.4107422
Centric Health - Village Medical Centre,"Unit 4 Village Centre, Watery Lane, Clondalkin, Dublin, D22 P3Y8",Dublin 22,53.322655,-6.3930108
Clondalkin Medical Centre,"24 Cherrywood Grove, Clondalkin, Dublin, D22 C3W9",Dublin 22,53.3211273,-6.4092576
Dr Fergus Purcell,"5 Castle Crescent, Clondalkin, Dublin, D22 Y7Y8",Dublin 22,53.3211874,-6.3900292
Dr John O'Grady,"48 Tower Road, Clondalkin, Dublin, D22 F2P9",Dublin 22,53.320272,-6.3950977
Dr K Olinger,"Unit 6 Village Centre, Watery Lane , Clondalkin, Dublin, D22 V2H9",Dublin 22,53.322655,-6.3930108
Dr Richard Mullen,"48 Tower Road, Clondalkin, Dublin, D22 F2P9",Dublin 22,53.320272,-6.3950977
Drs Lynch and Hamilton Surgery,"3 Orchard Road, Clondalkin, Dublin, D22 Y8N4",Dublin 22,53.32199019999999,-6.3934267
Glenfield Family Practice,"20 Glenfield Avenue, Clondalkin, Dublin, D22 E309",Dublin 22,53.34752659999999,-6.3984201
Hans Weber,"98 Monastery Road, Clondalkin, Dublin, D22 V2F6",Dublin 22,53.319962,-6.3835956
Nangor Medical Centre,"Old Nangor Road, Clondalkin, Dublin, D22 V2Y8",Dublin 22,53.3232216,-6.4008783
Neilstown Health Centre,"Neilstown Village Court, Neilstown Road, Ronanstown, Dublin, D22 E8P2",Dublin 22,53.3413243,-6.3993172
Neilstown Surgery,"Unit 3 Neilstown Shopping Centre, Neilstown Road, Collinstown, Dublin, D22 T0A8",Dublin 22,53.3382587,-6.400688199999999
Newlands Cross Medical Centre,"Newlands Cross, Clondalkin, Dublin, D22 C1P3",Dublin 22,53.31379889999999,-6.3942299
Tower Medical Centre,"Unit 8 Tower Shopping Centre, Tower Road, Clondalkin, Dublin, D22 N778",Dublin 22,53.3211736,-6.394727100000001
Webdoctor,"14A Knockmeenagh Road, Newlands, Dublin, D22 Y793",Dublin 22,53.3164029,-6.3893074
Wheatfield Surgery,"1 Chaplain's Place, Rowlagh, Dublin, D22 A4P2",Dublin 22,53.3446969,-6.3970512
Clontarf Family Practice,"14 Kincora Avenue, Clontarf, Dublin, D03 T2W2",Dublin 3,53.3637175,-6.209566799999999
Clontarf General Practice,"2/3 Churchgate Avenue, Clontarf East, Dublin, D03 DK59",Dublin 3,53.3596324,-6.196704299999999
Clontarf Medical Centre,"26 Saint Gabriel's Road, Dublin, D03 H016",Dublin 3,53.3646398,-6.1842565
D3 Medical Centre,"196 Howth Road, Clontarf East, Dublin, D03 C1P8",Dublin 3,53.3713055,-6.204632699999999
Dr James Dolan,"191 Howth Road, Clontarf East, Dublin, D03 A3V7",Dublin 3,53.3709206,-6.2044773
Dr Joseph Yasbeck,"13 Marino Mart, Dublin, D03 X5V2",Dublin 3,53.3643809,-6.2320986
East Wall Medical Centre,"145 Church Road, North Dock, Dublin, D03 X894",Dublin 3,53.355276,-6.2349035
Fairview Family Practice,"17 Fairview Strand, Clontarf, Dublin, D03 A5Y9",Dublin 3,53.3628134,-6.2378752
Fairview Medical Centre,"37/39 Fairview Strand, Clontarf, Dublin, D03 F8C2",Dublin 3,53.3628291,-6.2389983
Hanlon Medical Practice,"199 Howth Road, Clontarf East, Dublin, D03 V6W9",Dublin 3,53.3715792,-6.202105899999999
Malahide Road Surgery,"80a Malahide Road, Malahide, Dublin, D03 HK53",Dublin 3,53.3679439,-6.226611
Marino Medical Centre,"144 Philipsburgh Avenue, Clontarf West, Dublin, D03 R6X6",Dublin 3,53.3688215,-6.2390719
North Strand Surgery,"110 North Strand Road, North Dock, Dublin, D03 KW81",Dublin 3,53.3593219,-6.240122599999999
Sveikas Zmogus Family Medical Clinic,"384 Clontarf Road, Clontarf East, Dublin, D03 E3H0",Dublin 3,53.36375580000001,-6.1776312
Vernon Medical Centre,"67/67a Vernon Avenue, Clontarf East, Dublin, D03 N2H7",Dublin 3,53.3623139,-6.195257300000001
115 Medical,"115 Morehampton Road, Donnybrook, Dublin, D04 A6Y8",Dublin 4,53.32336979999999,-6.2392354
Ailesbury Clinic,"David Lloyd River View, Beech Hill Road, Clonskeagh, Dublin, D04 AF10",Dublin 4,53.3140387,-6.237087
Baggot Street Medical,"10 Baggot Street Upper, Dublin, D04 KT35",Dublin 4,53.3338706,-6.244589
Ballsbridge Medical Centre,"66 Merrion Road, Dublin, D04 N1W5",Dublin 4,53.32727269999999,-6.2245555
Barrow Medical,"Unit E2, The Gasworks, Barrow Street, Dublin, D04 C1K7",Dublin 4,53.3385553,-6.2347325
Bath Avenue surgery,"Bath Avenue Medical Centre, 4/6 Bath Avenue, Dublin, D04 V8N8",Dublin 4,53.3373225,-6.2339702
D4 Medical Centre,"95a Morehampton Road, Donnybrook, Dublin, D04 N903",Dublin 4,53.3241516,-6.2401044
Dr Cahill Surgery,"70 Serpentine Avenue, Sandymount, Dublin, D04 E067",Dublin 4,53.3312991,-6.2234639
Dr Gately's Surgery,"Cameo, 119 Strand Road, Sandymount, Dublin, D04 X4K6",Dublin 4,53.3259907,-6.2081216
Dr Lisa Fay,"6 Merrion Court, Merrion Road, Dublin, D04 DD58",Dublin 4,53.32003839999999,-6.213915999999999
Dr Michael Moore,"4 Morehampton Road, Donnybrook, Dublin, D04 T9C8",Dublin 4,53.3274149,-6.243311299999999
Dr P Harte,"28a Park Avenue, Dublin, D04 P5Y8",Dublin 4,53.32696379999999,-6.214224799999999
Dr Vincent Carroll,"Fairfield House, Newbridge Avenue, Dublin, D04 Y7H9",Dublin 4,53.3498053,-6.2603097
Dr Wendy Lynch,"4 Morehampton Road, Donnybrook, Dublin, D04 T9C8",Dublin 4,53.3274149,-6.243311299999999
General Practice Donnybrook,"114 Morehampton Road, Donnybrook, Dublin, D04 K3H7",Dublin 4,53.3233849,-6.2383545
Irishtown And Ringsend Primary Care Centre,"1a Irishtown Road, Irishtown, Dublin, D04 HW30",Dublin 4,53.3407274,-6.225474699999999
Merrion Gates Medical Centre,"240 Merrion Road, Dublin, D04 CF74",Dublin 4,53.3173792,-6.207713699999999
Morehampton Clinic,"Gardeners Cottage, Royal Hospital, Bloomfield Avenue, Donnybrook, Dublin, D04 P8N6",Dublin 4,53.3255322,-6.2468979
Morris Clinic,"68 Pembroke Road, Dublin, D04 A3T6",Dublin 4,53.3326917,-6.2390457
Park Avenue Medical Centre,"28a Park Avenue, Sandymount, Dublin, D04 P5Y8",Dublin 4,53.32696379999999,-6.214224799999999
Ringsend Medical Centre,"Unit 5 Ringsend Medical Centre, Fitzwilliam Street, Dublin, D04 T9X5",Dublin 4,53.3413575,-6.226766
Sandymount Road Medical Centre,"29 Sandymount Road, Dublin, D04 E034",Dublin 4,53.3351868,-6.2198497
Sandymount Road Medical Centre,"Irishtown And Ringsend Primary Care Centre, 1a Irishtown Road, Ringsend, Dublin, D04 HW30",Dublin 4,53.3407285,-6.225656499999999
Beechwood Medical,"46 Ashfield Road, Ranelagh, Dublin, D06 X320",Dublin 6,53.32411,-6.2526405
Dr. Nickrow,"32 Dunville Avenue, Ranelagh, Dublin, D06 NR77",Dublin 6,53.32122949999999,-6.2566925
Moe Family Practice,"Holly Lodge, 13 Winton Road, Ranelagh, Dublin, D06 X2R4",Dublin 6,53.3271411,-6.249852199999999
Rafter Medical Centre,"183 Rathmines Road Lower, Rathmines, Dublin, D06 E3E5",Dublin 6,53.32287830000001,-6.265949099999999
Ranelagh Medical Centre,"22-26 Sandford Road, Ranelagh, Dublin, D06 A365",Dublin 6,53.3229901,-6.248651799999999
Rathmines Clinic,"24 Rathmines Road Upper, Rathmines, Dublin, D06 W2R4",Dublin 6,53.3209251,-6.2652486
Terenure Medical,"84a Terenure Road East, Rathfarnham, Dublin, D06 W5A2",Dublin 6,53.31019939999999,-6.2825767
The Cambridge Clinic,"5 Cambridge Villas, Rathmines, Dublin, D06 C9X5",Dublin 6,53.3209265,-6.2624414
The Doctors Clinic,"104 Rathmines Road Lower, Rathmines, Dublin, D06 F9P0",Dublin 6,53.3263166,-6.264793099999999
The Rathgar Medical Pratice,"150 Rathgar Road, Rathfranham, Dublin, D06 YP29",Dublin 6,53.3167567,-6.2703392
Cypress Clinic,"8 Cypress Park, Templeogue, Dublin, D6W YY63",Dublin 6W,53.2996765,-6.308425600000001
Dr Ahmad Ajina,"1a Orwell Park, Dublin 6W, Dublin, D6W AD14",Dublin 6W,53.3084522,-6.301157700000001
Greenlea Clinic,"118 Greenlea Road, Terenure, Dublin, D6W WY18",Dublin 6W,53.3073771,-6.3004504
Harold's Cross Surgery,"254 Harold's Cross Road, Harold's Cross, Dublin, D6W F789",Dublin 6W,53.321094,-6.279520499999999
Harolds Cross Medical Practice,"324 Harold's Cross Road, Terenure, Dublin, D6W TN82",Dublin 6W,53.3189704,-6.2792335
MyClinic.ie,"3 Terenure Road West, Terenure, Dublin, D6W YY79",Dublin 6W,53.3097657,-6.285208099999999
Orwell Medical Centre,"Orwell Shopping Centre, Orwell Park, Templeogue, Dublin, D6W CE01",Dublin 6W,53.2982713,-6.321642
St Judes Family Practice,"69a Orwell Park Rise, Templeogue, Dublin, D6W AF86",Dublin 6W,53.2995702,-6.323664099999999
Templeogue Village Medical,"184 Templeogue Road, Templeogue, Dublin, D6W WN53",Dublin 6W,53.2981845,-6.3036607
Terenure General Medical Clinic,"9 Rathmore Villas, Rathfranham, Dublin, D6W HF84",Dublin 6W,53.3110888,-6.2827284
The Medical Practice,"335 Kimmage Road Lower, Kimmage, Dublin, D6W Y967",Dublin 6W,53.31496749999999,-6.296168499999999
Cabra Medical Centre,"109 Cabra Road, Cabra East, Dublin, D07 XH5V",Dublin 7,53.3614727,-6.285057999999999
Centric Health - Navan Road,"Aras Slainte, Navan Road, Cabra West, Dublin, D07 K229",Dublin 7,53.36323660000001,-6.3022668
Charter Medical Group,"1st Floor Block G, Smithfield Market, Smithfield, Dublin, D07 VKP9",Dublin 7,53.34885269999999,-6.279043499999999
Dental & Medical Clinic Benburb Street,"77 Benburb Street, Dublin, D07 E9DE",Dublin 7,53.3472537,-6.2818494
Dr M F Whitty,"340a North Circular Road, Dublin, D07 C9HE",Dublin 7,53.3606172,-6.2740627
Dr Robert Dybkowski and Dr Ilona Izdebska Medical Centre,"Orby Chambers, 7 Coke Lane, Smithfield, Dublin, D07 T0FA",Dublin 7,53.346851,-6.2795217
Dr Vida Naciene,"400 North Circular Road, Dublin, D07 ER26",Dublin 7,53.3600242,-6.2643368
Family Clinic LTD,"263 Navan Road, Ashtown, Dublin, D07 RCK4",Dublin 7,53.3679467,-6.3177257
Family Health Care (Polska Przychodnia Rodzinna),"Unit 3 Block E, Thundercut Alley , Smithfield, Dublin, D07 YH01",Dublin 7,53.3489338,-6.278970300000001
"Family Health Care, Thundercut Alley","Unit 3 Block E, Smithfield Market, Smithfield, Dublin, D07 VH01",Dublin 7,53.34885269999999,-6.279043499999999
Family Medical Centre,"213 Navan Road, Ashtown, Dublin, D07 XN34",Dublin 7,53.367074,-6.3139201
Kajarmed Med Family Clinic Limited,"263 Navan Road, Ashtown, Dublin, D07 RCK4",Dublin 7,53.3679467,-6.3177257
Liffey Medical,"8a Little Britain Street, Smithfield, Dublin, D07 NY18",Dublin 7,53.3493399,-6.270194
Manor Street Family Practice,"40/41 Manor Street, Stoneybatter, Dublin, D07 W586",Dublin 7,53.3508256,-6.282754
Medicus Medical Centre Stoneybatter,"Park Shopping Centre, 35-39 Prussia Street, Stoneybatter, Dublin, D07 TA4V",Dublin 7,53.3559283,-6.2876555
Mountjoy Medical Centre,"Grangegorman Primary Care Centre, Grangegorman Upper, Grangegorman, Dublin, D07 H984",Dublin 7,53.3575115,-6.2816921
Other - Safetynet Primary Care,"Macro Community Resource Centre, 1 Green Street, Dublin, D07 X6NR",Dublin 7,53.3504075,-6.2708151
Phibsborough Dental & Medical Clinic,"340A North Circular Road, Phibsborough, Dublin, D07 C9HE",Dublin 7,53.3606172,-6.2740627
Plaza Health,"Unit 16 Smithfield Markets, Smithfield, Dublin, D07 V583",Dublin 7,53.3478741,-6.27794
Sirona Medical,"185 Cabra Road, Cabra East, Dublin, D07 FR52",Dublin 7,53.3616076,-6.2910243
Stoneybatter Family Practice,"66 Manor Street, Stoneybatter, Dublin, D07 R152",Dublin 7,53.3526847,-6.2846072
The Berkeley Clinic,"4 Berkeley Street, Phibsborough, Dublin, D07 R6DD",Dublin 7,53.3569783,-6.2677974
The Meridian Clinic Mountjoy,"67/67a Mountjoy Street, Phibsborough, Dublin, D07 NN50",Dublin 7,53.3566478,-6.2681778
The Milligan Family Practice,"Unit 3a Maple Shopping Centre, Navan Road, Cabra West, Dublin, D07 H3NH",Dublin 7,53.3611306,-6.298737099999999
Village Medical,"26 Fassaugha Avenue, Cabra, Dublin, D07 X9YN",Dublin 7,53.3672269,-6.2932538
Camden Medical,"The Meath Primary Care Centre, Heytesbury Street, Portobello, Dublin, D08 HX97",Dublin 8,53.3358877,-6.269648999999999
Centric Health St James Gate Medical Centre,"114-116 James's Street, The Liberties, Dublin, D08 KXN8",Dublin 8,53.3437732,-6.2884104
Coombe Family Practice,"Rialto Primary Care Centre, 383 South Circular Road, Rialto, Dublin, D08 E0X7",Dublin 8,53.3350855,-6.2942728
Dr Michael O'Malley,"1 Tyrconnell Road, Inchicore, Dublin, D08 AE98",Dublin 8,53.33936259999999,-6.3207659
Dr O'Flynn,"239 South Circular Road, Dublin, D08 R2C1",Dublin 8,53.33177449999999,-6.2858752
Dublin City GP,"1-9 The Meath Primary Care Centre, Heytesbury Street, Portobello, Dublin, D08 Y1TW",Dublin 8,53.3358877,-6.269648999999999
Eldon Family Practice,"119 South Circular Road, Dublin, D08 VC0H",Dublin 8,53.3320583,-6.275718599999999
Harrington Medical - Camden Clinic,"The Meath Primary Care Centre, Heytesbury Street, Portobello, Dublin, D08 HX97",Dublin 8,53.3358877,-6.269648999999999
Himerus Health,"The Meath Primary Care Centre, Heytesbury Street, Portobello, Dublin, D08 HX97",Dublin 8,53.3358877,-6.269648999999999
Inchicore Family Doctors,"St. Michael's Estate, Inchicore, Dublin, D08 KW35",Dublin 8,53.3385804,-6.3163842
Inchicore Medical Centre,"15 Grattan Crescent, Inchicore, Dublin, D08 EWF2",Dublin 8,53.3403153,-6.3201927
Kilmainham Medical Centre,"632 South Circular Road, Dublin, D08 HF80",Dublin 8,53.3391252,-6.3027176
Rialto Primary Care Centre,"383 South Circular Road, Rialto, Dublin, D08 4Y99",Dublin 8,53.3350723,-6.294596899999999
South Circular Road Surgery,"106a South Circular Road, Dublin, D08 K2V6",Dublin 8,53.332309,-6.2747789
Thomas Court Primary Care,"4 Saint Catherine's Lane West, The Liberties, Dublin, D08 WTW0",Dublin 8,53.3422355,-6.2807311
Ballymun Family Practice - Ground Floor,"Ground Floor, Ballymun Civic Centre, Ballymun, Dublin, D09 C8P5",Dublin 9,53.3950338,-6.2628783
Ballymun GP,"Ballymun Civic Centre, Main Street, Ballymun, Dublin, D09 C8P5",Dublin 9,53.4116673,-6.2641626
Beaumont Park Clinic,"77 The Park, Beaumont Woods, Beaumont, Dublin, D09 T974",Dublin 9,53.3899437,-6.2297964
Botanic Road Surgery,"97 Botanic Road, Glasnevin, Dublin, D09 E361",Dublin 9,53.36917140000001,-6.269128599999999
Calderwood Family Clinic,"28 Sion Hill Road, Drumcondra, Dublin, D09 PX99",Dublin 9,53.3756281,-6.2393924
College Gate Clinic,"123 Ballymun Road, Glasnevin, Dublin, D09 W523",Dublin 9,53.3852258,-6.2657028
Collins Ave GP,"138 Collins Avenue, Whitehall, Dublin, D09 W7W3",Dublin 9,53.37755199999999,-6.2246114
Crestfield Medical Practice,"14 Crestfield Drive, Whitehall, Dublin, D09 NY94",Dublin 9,53.38568369999999,-6.2504661
D9 Family Practice,"204 Ballymun Road, Whitehall, Dublin, D09 X3P0",Dublin 9,53.3905028,-6.263672199999999
Dr Cox,"2 Iveragh Road, Ashtown, Dublin, D09 FK15",Dublin 9,53.3810634,-6.2462385
Dr Hampston,"128 Collins Avenue, Beaumont, Dublin, D09 Y367",Dublin 9,53.37735139999999,-6.224175499999999
Dr J N Mohamed,"31 Oak Avenue, Royal Oak, Santry, Dublin, D09 HT95",Dublin 9,53.40076999999999,-6.2369115
Drumcondra Clinic,"53 Drumcondra Road Lower, Drumcondra, Dublin, D09 N4X8",Dublin 9,53.3639333,-6.2569389
Drumcondra Medical,"40 Drumcondra Road Upper, Drumcondra, Dublin, D09 C4H3",Dublin 9,53.3700497,-6.253828599999999
Drumcondra Village Medical Centre,"10 Drumcondra Road Upper, Drumcondra, Dublin, D09 H3C5",Dublin 9,53.3690991,-6.254391699999999
Griffith Avenue Practice,"411 Griffith Avenue, Whitehall, Dublin, D09 YY19",Dublin 9,53.3781516,-6.261028500000001
Omni Park Medical Centre,"Unit 87, Omni Park Shopping Centre, Swords Road, Dublin, D09 K021",Dublin 9,53.3928317,-6.2484477
Prospect Medical Practice,"22 Prospect Road, Phibsborough, Dublin, D09 C940",Dublin 9,53.3649519,-6.2717421
Santry GP.ie Clinic,"Unit 1 Northwood House, Northwood Business Park, Santry, Dublin, D09 E289",Dublin 9,53.403985,-6.2410782
Shanard Family Practice,"33 Shanard Road, Whitehall, Dublin, D09 E1W1",Dublin 9,53.39083400000001,-6.2567074
Swords Road Medical Practice,"250 Swords Road, Santry, Dublin, D09 E735",Dublin 9,53.3890739,-6.245612599999999
The Surgery,"37a Swords Road, Whitehall, Dublin, D09 T9K7",Dublin 9,53.3967537,-6.2449702
United Medical Centre,"14 Drumcondra Road Lower, Drumcondra, Dublin, D09 E2H2",Dublin 9,53.3623142,-6.2592972
Whitehall Clinic,"394a Collins Avenue, Whitehall, Dublin, D09 F1T2",Dublin 9,53.38159779999999,-6.2407939
Whitworth Medical Centre,"Saint Brigid's Road Lower, Drumcondra, Dublin, D09 R2K2",Dublin 9,53.3629683,-6.2624005
Swords Family Practice,"28 Brackenstown Village, Swords, Dublin, K67 F6E4",Dublin North,53.45807079999999,-6.2362275
Doctor P Kerrigan,"Cloghanover, Headford, Galway, Co. Galway",Galway,53.4456239,-9.095290799999999
Abbeyknockmoy Health Centre,"Culliagh North, Abbeyknockmoy, Galway, H54 H103",Galway,53.43428660000001,-8.7547499
Abbeyknockmoy Health Centre,"Culliagh North, Abbeyknockmoy, Galway, H54 H103",Galway,53.43428660000001,-8.7547499
Annaghdown Medical Centre,"Mace, Corrandulla, Galway, H91VH67",Galway,53.3960757,-9.0302472
Arlington House Medical Centre,"Dublin Road, Oranmore, Galway, H91 FXD0",Galway,53.2697993,-8.9229496
Athenry Surgery,"Athenry Primary Care Centre, Raheen, Athenry, Galway, H65 KH93",Galway,53.29966599999999,-8.7554483
Atlantic Medical Practice,"43/45 Father Griffin Road, Lower Salthill, Salthill, Galway, H91 X4A6",Galway,53.2667776,-9.0643045
Ballygar Health Centre,"High Street, Ballygar, Galway, F42 HK53",Galway,53.520643,-8.3318468
Bishop Street Medical Center,"Bishop Street, Tuam, Galway, H54 A243",Galway,53.5159953,-8.8485526
Camp Street Surgery,"Lower Camp Street, Oughterard, Galway, H91 R2XF",Galway,53.4318681,-9.318333
Carepoint Medical Centre,"4 Mulvoy Park, Sean Mulvoy Road, Galway City, Galway, H91 EN26",Galway,53.28220779999999,-9.040161699999999
Carepoint Medical Centre,"4 Mulvoy Park, Galway City, Galway, H91 EN26",Galway,53.2818674,-9.0407726
Carna Health Centre,"Carna, Galway, Galway, H91 TNY0",Galway,53.3235811,-9.828192699999999
Carraroe Health Centre,"Carraroe, Barraderry, Galway, H91 X6V9",Galway,53.2613837,-9.606310599999999
Castle Medical Centre,"Unit 4 Centrepoint, Liosban Industrial Estate, Tuam Road, Galway, H91 Y61X",Galway,53.2857277,-9.037364499999999
Cill Cais Family Practice,"Unit 2 Cill Cais, Clybaun Road, Knocknacarra, Galway, H91 T634",Galway,53.270242,-9.1074606
Claddagh Medical Centre,"The Crescent, Galway City, Galway, H91 EA37",Galway,53.2685408,-9.0642301
Clarinbridge Medical Centre,"Hillpark, Clarinbridge, Galway, H91 XW63",Galway,53.2307478,-8.8808815
Clifden Health Centre,"Hospital Road, Clifden, Galway, H71 XP84",Galway,53.4946577,-10.0178505
Clifden Medical Practice,"Westport Road, Clifden, Galway, H71 TX62",Galway,53.4926077,-10.0229669
Clonbur Primary Care Centre,"Clonbur, Galway City, Galway, F12 E653",Galway,53.5448716,-9.363180200000002
Clonbur Primary Care Centre,"Cloonbur, Clonbur, Galway, F12 E653",Galway,53.5448716,-9.363180200000002
Clybaun Surgery,"Clybaun Road, Knocknacarra, Galway, H91 AKK3",Galway,53.270242,-9.1074606
Corrib Medical Centre,"17/18 Mill Street, Galway City, Galway, H91 E206",Galway,53.2725063,-9.0591978
Crescent Medical Centre,"1 The Crescent, Galway City, Galway, H91 E7FP",Galway,53.26872179999999,-9.063489599999999
Doctor J. Winters Surgery,"Church Road, Moycullen, Galway, H91 DT88",Galway,53.3412508,-9.175101399999999
Doctor365 Galway,"Unit 3 University Halls, Newcastle Road, Galway City, Galway, H91 WR66",Galway,53.2764512,-9.0633159
Doctors Clinic,"32 Newcastle Road, Newcastle Road, Galway City, Galway, H91 HYF5",Galway,53.2761851,-9.062918699999999
Dr Anne Rowan GP Surgery,"Coill Rainne, Killarainy, Moycullen, Galway, H91 TX08",Galway,53.34032759999999,-9.1835489
Dr Edward Harty,"Annaghvaan, Bealadangan, Galway, H91 DX4F",Galway,53.3120932,-9.6269251
Dr Fiona Molloy,"Culleen, Headford, Galway",Galway,53.4694617,-9.106133999999999
Dr K Duddy,"Saint Brendan's Street, Portumna, Galway, H53 R6X5",Galway,53.0934948,-8.2239669
Dr Kieran Whyte,"42 Father Griffin Road, Galway City, Galway, H91 XFF9",Galway,53.2672829,-9.062136299999999
Dr McGauran Surgery,"Eyrecourt Health Centre, Market Street, Townparks, Galway, H53 FX94",Galway,53.1997171,-8.131427
Dr Moloney Surgery,"Abbey House, Abbey Street, Loughrea, Galway, H62 YV70",Galway,53.19989,-8.5712206
Dr Paddy McDonagh,"Knockdoe, Claregalway, Galway, H91 YY40",Galway,53.3819579,-8.8930098
Dr Peter A Sloane,"Carraroe South, Carraroe, Galway, H91 YF62",Galway,53.2615985,-9.6049667
Dr Pigott Surgery,"Church Street, Gort, Galway, H91 RW2A",Galway,53.0656611,-8.8219016
Dr Raymond Brogan,"Clonfert Avenue, Portumna, Galway, H53 PX26",Galway,53.0942512,-8.2157672
Dr Sargaison,"Kiltormer Health Centre, Kiltormer, Ballinasloe, Galway, H53 R223",Galway,53.2345607,-8.2654284
Dr. Rachel Hynes,"Health Centre, Carraroe, Galway, H91 X6V9",Galway,53.2614052,-9.606111499999999
Dunloe Medical Centre,"Harbour Road, Ballinasloe, Galway, H53 C1X0",Galway,53.3255651,-8.2207226
Dunmore Medical Practice,"High Street, Dunmore, Galway, H54 NP80",Galway,53.6178553,-8.7442453
Galvia West Medical Centre,"Seamus Quirke Road, Galway City, Galway, H91 V8XK",Galway,53.2772264,-9.0725861
GalviaWest Medical Centre,"Westside Shopping Centre, Seamus Quirke Road, Galway City, Galway, H91 V8XK",Galway,53.2763077,-9.075877199999999
Galway Bay Medical Centre,"24 Dock Gate, Dock road, Galway City, Galway, H91 PCF5",Galway,53.2708304,-9.0509959
Galway City Medical Centre,"1 Ely Place, Sea Road, Galway City, Galway, H91 EWH5",Galway,53.2691326,-9.0618655
Galway Clinic,"Doughiska, Galway, H91 HHT0",Galway,53.28268749999999,-8.9738502
Galway East Medical Practice,"5 Doughiska Retail Park, Doughiska Road, Galway City, Galway, H91 NPW2",Galway,53.2857588,-8.9836423
Galway Primary Care,"Harrmack House, Tuam Road, Galway City, Galway, H91 DHE0",Galway,53.28883829999999,-9.0224871
GalwayDoc Walk-In Clinic,"1st Floor Tuam Road Retail Centre, Tuam Road, Galway City, Galway, H91 KHA8",Galway,53.2833543,-9.037096
Gort Medical Centre,"Gort House, Bridge Street, Gort, Galway, H91 CHX5",Galway,53.0659643,-8.8175364
Grove Medical Centre,"Sean Purcell Road, Tuam, Galway, Galway, H54 XA07",Galway,53.5117763,-8.852717799999999
Hazel Medical Centre,"6 Mulvoy Park, Sean Mulvoy Road, Galway City, Galway, H91 PX98",Galway,53.2818674,-9.0407726
Headford Health Centre,"Galway Road, Headford, Galway, H91 Y6X4",Galway,53.46838289999999,-9.10707
Headford Road Medical Clinic,"Terryland Shopping Centre, Headford Road, Galway City, Galway, H91 E0W0",Galway,53.2836362,-9.046172499999999
Influmed Family Practice,"5 Cul Na Coirre, Headford, Galway, H91 Y93F",Galway,53.4698625,-9.1128851
Inis Oirr Primary Care Centre,"An Tra, Inis Oirr, Galway, H91 X625",Galway,53.06443429999999,-9.5139145
Kilconnell Health Centre,"Kilconnell, Ballinasloe, Galway, H53 PK50",Galway,53.3327098,-8.3977241
Kilrainey Medical Centre,"Gortyloughlin, Moycullen, Galway, H91 EPC8",Galway,53.3390211,-9.1814065
Kilronan Health Centre,"Lower Kilronan, Inishmore, Galway, H91 E677",Galway,53.1182105,-9.6736877
Kingston Medical Centre,"Unit 4, Kingston Hall, Knocknacarra, Galway, H91 CH29",Galway,53.2675267,-9.1123975
Kingston Medical Centre,"Unit 4, Kingston Hall, Knocknacarra Galway, Galway, H91 CH29",Galway,53.26293099999999,-9.102767
Kinvara Clinic,"Kinvara, Galway, H91 HE2Y",Galway,53.1378873,-8.9460328
Knocknacarra Medical Centre,"Fearnóg, Clybaun Road, Knocknacarra, Galway, H91 TKF3",Galway,53.2673254,-9.107351999999999
Knocknacarra Primary Care,"1 Ashleigh Grove, Ballymoneen Road, Knocknacarra, Galway, H91 X680",Galway,53.2648839,-9.116855
Lakeshore Medical Centre,"Barrack Street, Loughrea, Galway, H62 HP92",Galway,53.19762,-8.56974
Lakeview Medical Centre,"Creggs Road, Glenamaddy, Galway, F45 K293",Galway,53.6048955,-8.5545769
Laurencetown Health Centre,"Lawrencetown, Ballinasloe, Galway, H53 XN73",Galway,53.2361675,-8.1809128
Lettermore Health Centre,"Lettermore, Galway, Galway, H91 KXA5",Galway,53.29024709999999,-9.653574599999999
Lower Salthill Medical Practice,"61 Salthill Road Lower, Galway City, Galway, H91 N2WR",Galway,53.2653726,-9.071753
Main Street Clinic,"Main Street, Loughrea, Galway, H62 X252",Galway,53.1990978,-8.5665561
Mall Medical Centre,"The Mall, Tuam, Galway, H54 HR50",Galway,53.5136747,-8.853076
Maretimo Medical,"Unit 2, Upper Salthill, Galway, H91 EW68",Galway,53.2574406,-9.090677699999999
Marina House Medical Centre,"Marina Point, New Road, Ballinasloe, Galway, H53 C9V6",Galway,53.327367,-8.2204984
Market Square Surgery,"The Crane Centre, Main Street, Kinvara, Galway, H91 RFC3",Galway,53.1388725,-8.938841
Medical Centre,"Ballyroe, Williamstown, Galway, F45 AH28",Galway,53.6793008,-8.5722841
Mervue Health Centre,"Michael Collins Road, Mervue, Galway, H91 T6Y3",Galway,53.2808881,-9.0168677
Mervue Medical Centre,"6 Plunkett Avenue, Mervue, Galway City, Galway, H91 VYW1",Galway,53.2854781,-9.017462499999999
Millennium Medical Centre,"Mountbellew, Ballinasloe, Galway, H53 E2R7",Galway,53.46488369999999,-8.4928224
Moycullen Medical Centre,"Kilrainey, Moycullen, Galway, H91 A899",Galway,53.3390211,-9.1814065
Newcastle Medical Centre,"44 Lower Newcastle, Galway City, Galway, H91 NX22",Galway,53.2807507,-9.0638776
Nile Lodge Medical Clinic,"6 Nile Lodge, Salthill Road Lower, Salthill, Galway, H91 XHV5",Galway,53.2678486,-9.066939
Oran Medical Centre,"4 Cloonarkin Drive, Oran More, Galway, H91 E42C",Galway,53.2670352,-8.9290817
Oranmore Family Doctors,"Oranhill, Oranmore, Galway, H91 C432",Galway,53.2637526,-8.9267264
Oughterard Health Centre,"Main Street, Oughterard, Galway, H91 C590",Galway,53.428074,-9.3173309
Palace Medical Centre,"Tullinadaly Road, Tuam, Galway, H54 PK10",Galway,53.5198827,-8.8525459
Pine Grove Medical Centre,"Tuam Road, Mountbellew, Galway, H53 YA46",Galway,53.4723931,-8.5112473
Portumna Medical Centre,"Saint Patrick's Street, Portumna, Galway, H53 A0X3",Galway,53.0916984,-8.2184789
Prospect Health Centre,"Atlantic House, 39 Prospect Hill, Galway City, Galway, H91 DD5X",Galway,53.27662669999999,-9.047703499999999
Renmore Park Surgery,"2 Renmore Park, Renmore, Galway, H91 H9K6",Galway,53.2792398,-9.024265500000002
Renvyle Health Centre,"Tully More, Renvyle, Galway, H91 RW52",Galway,53.5961382,-9.9751538
River Clare Family Practice,"Unit 8/9, Cois Chláir, Claregalway, Galway, H91 EY81",Galway,53.3446738,-8.9442992
Roscam Medical,"Centric Health Primary Care, Unit 17, Level 1 Briarhill Shopping Centre, Briarhill, Galway, H91 PF88",Galway,53.2904468,-8.9878511
Rosmuc Health Centre,"Rosmuck Health Centre, Turlough, Rosmuck, Galway, H91 X8XV",Galway,53.3643189,-9.6245402
Roundstone Health Centre,"Coast Road, Roundstone, Galway, H91 W7D0",Galway,53.3940549,-9.9207317
Saint Brendan's Medical Centre,"Saint Brendan's Campus, Lake Road, Loughrea, Galway, H62 VY76",Galway,53.1900571,-8.5638343
Salthill Medical Centre,"Mount Carmel, 216 Upper Salthill, Galway City, Galway, H91 X6X0",Galway,53.2601294,-9.0762611
Seacrest Knocknacarra Medical Centre,"Shangort Road, Knocknacarra, Galway, H91 VPX2",Galway,53.2624223,-9.1102653
Seapoint Medical Centre,"Barna Village Centre, Seapoint, Barna, Galway, H91 F6C9",Galway,53.2495613,-9.154020599999999
Spiddal Medical Centre,"River Road, Spiddal, Galway, H91 FPP6",Galway,53.24657819999999,-9.3048112
The Health Centre,"Athenry, Galway, H65 RH66",Galway,53.30294809999999,-8.7474964
The Heights Medical Centre,"Castlelawn Shopping Centre, Coolough Road, Galway City, Galway, H91 YR1X",Galway,53.28813049999999,-9.0481676
Tuam Family Practice,"Tuam Primary Care Centre, Sean Purcell Road, Tuam, Galway, H54 DT61",Galway,53.511468,-8.8517005
Turloughmore Medical Centre,"Lackagh More, Turloughmore, Galway, H65 H599",Galway,53.3689878,-8.8934184
Whitehall Medical Centre,"Whitehall, Galway, Galway, H91 D9FW",Galway,53.2727952,-9.0505015
Abbeydorney Medical Centre,"Bridge Road, Abbeydorney, Kerry, V92 YK5X",Kildare,52.3450761,-9.6919523
An Neidin Family Practice,"Railway Road, Kenmare, Kerry, V93 Y02R",Kildare,51.8851092,-9.581234
Annascaul Health Centre,"Church Avenue, Annascaul, Kerry, V92 KA03",Kildare,52.15151,-10.05231
Ardfert Medical Centre,"Farranwilliam, Ardfert, Kerry, V92 EKX9",Kildare,52.3252111,-9.7785523
Ballyduff Medical Centre,"Main Street, Ballyduff, Kerry, V92 TR66",Kildare,52.4545648,-9.6627008
Brandon Medical Centre,"5 Hoffmans Terrace, Basin Road, Tralee, Kerry, V92 XA7K",Kildare,52.2680626,-9.7111925
Brooklands Medical Centre,"5 Main Street, Castleisland, Kerry, V92 WPE0",Kildare,52.2304859,-9.464603499999999
Brooklands Medical Practice,"Brooklands Medical Centre, 5 Main Street, Castleisland, Kerry, V92 WPE0",Kildare,52.2304859,-9.464603499999999
Cahernane Medical Centre,"42 Cahernane Meadows, Killarney, Kerry, V93 P6DE",Kildare,52.0508626,-9.5089249
Carraig Medical Centre,"5 Gas Terrace, Tralee, Kerry, V92 F5HF",Kildare,52.2700825,-9.7088653
Castlegregory Medical Centre,"Clossguire, Castlegregory, Kerry, V92 KN90",Kildare,52.256589,-10.0215515
Castleview Medical Centre,"Kealgorm House, Killarney Road, Castleisland, Kerry, V92 AY88",Kildare,52.2291374,-9.4677151
Church Street Surgery,"Castletown House, 25/27 Church Street, Castleisland, Kerry, V92 EW6D",Kildare,52.2328974,-9.4601492
Clinic Cois Abhann,"Spa Road, Dingle, Kerry, V92 K282",Kildare,52.1454733,-10.2541698
Clounalour Medical Centre,"Centrepoint, John Joe Sheehy Road, Tralee, Kerry, V92 P2FE",Kildare,52.2704557,-9.6994075
Convent Street Clinic,"41 Market Street, Listowel, Kerry, V31 DV76",Kildare,52.447094,-9.4886751
Cooper Medicare,"17 Ashe Street, Tralee, Kerry, V92 D76R",Kildare,52.2705958,-9.702783
Courthouse Road Medical Centre,"6 Courthouse Road, Listowel, Kerry, V31 XD32",Kildare,52.44810140000001,-9.4824891
Daly's Lane Surgery,"Daly's Lane, Main Street, Killorglin, Kerry, V93 KX2C",Kildare,52.1058171,-9.7857507
Deenagh Medical Practice,"Killarney Primary Care Centre, Rock Road, Killarney, Kerry, V93 VW2F",Kildare,52.0654731,-9.5143647
Dingle Doc,"Gort A Lin, John Street, Dingle, Kerry, V92 EWR4",Kildare,52.1394923,-10.2653757
Dingle Medical Centre,"The Mall, Dingle, Kerry, V92 FC3K",Kildare,52.1401701,-10.2682174
Dr Anne Cronin,"Market Road, Killorglin, Kerry, V93 RY62",Kildare,52.107177,-9.7859899
Dr Anne McSwiney,"Pluckeen, Caherslee, Tralee, Kerry, V92 AW21",Kildare,52.275997,-9.7174215
Dr Aoife de Faoite Surgery,"33 Main Street, Castleisland, Kerry, V92 P0AC",Kildare,52.2309084,-9.4637063
Dr J Shanahan and Dr B O'Donovan,"Main Street, Caherciveen, Kerry, V23 CD89",Kildare,51.9463015,-10.226415
Dr Marek Waloch,"117 Rock Street, Tralee, Kerry, V92 K1KF",Kildare,52.2703696,-9.7082825
Fairies Cross Medical Centre,"Clounalour, Tralee, Kerry, V92 X3PK",Kildare,52.2723565,-9.69754
Farranfore Medical Centre,"Dromore, Farranfore, Kerry, V93 E6HT",Kildare,52.1703318,-9.553939
Fuchsia Medical Centre,"Ballinorig Business Park, Tralee, Kerry, V92 VP4V",Kildare,52.2709357,-9.6728103
Ivy Clinic,"Convent Road, Listowel, Kerry, V31 VN25",Kildare,52.446829,-9.4947004
Killarney GP Medical Centre,"6b Scotts Street, Esat Avenue Road, Killarney, Kerry, V93 HW28",Kildare,52.058513,-9.505512
Killarney Medical Centre,"47 New Street, Killarney, Kerry, V93 CKD7",Kildare,52.0585429,-9.514763799999999
Killorglin Medical Centre,"Market Street, Killorglin, Kerry, V93 N283",Kildare,52.1080249,-9.786066
Lixnaw Healthcare Services,"The Cross, Lixnaw, Kerry, V92 AC97",Kildare,52.4065597,-9.618452699999999
Manor Medical Centre,"Willow Drive, Rathass, Tralee, Kerry, V92 C6CY",Kildare,52.266081,-9.6801058
Milltown Medical Centre,"Bridge Street, Milltown, Kerry, V93 D6X7",Kildare,52.1442412,-9.7180883
Moyderwell Medical Centre,"14 Moyderwell, Tralee, Kerry, V92 K803",Kildare,52.2682025,-9.7007429
Oakpark Medical Centre,"Oakpark, Tralee, Kerry, V92 RF2D",Kildare,52.2750549,-9.6939125
Ocean Medical Centre,"Cliff Road, Ballybunnion, Kerry, V31 XR96",Kildare,52.5132002,-9.6746337
Park Medical and Wellness Centre,"Building 2 Central Point, Park Road, Killarney, Kerry, V93 FF2R",Kildare,52.06059519999999,-9.4925078
Park Medical Practice,"Park Road, Killarney, Kerry, V93 CV0F",Kildare,52.060354,-9.4926614
Rathmore Surgery,"Old Road, Shinnagh, Rathmore, Kerry, P51 YC61",Kildare,52.0807686,-9.2163662
Rattoo Surgery,"Rattoo Medical Centre, Knockananore, Ballyduff, Kerry, V92 RD2N",Kildare,52.445957,-9.6686775
Ross Medical Practice,"The Reeks Gateway, Tralee Road, Killarney, Kerry, V93 KN8K",Kildare,52.0681869,-9.5171266
Sneem Health Centre,"Inchinaleega East, Sneem, Kerry, V93 X62X",Kildare,51.8379079,-9.8995182
Sunhill Family Practice,"School Road, Killorglin, Kerry, V93 DK44",Kildare,52.10745559999999,-9.7882123
Tarbert Medical Centre,"1 Saint Patricks Terrace, Tarbert, Kerry, V31 EW21",Kildare,52.57368229999999,-9.3770171
The Ashe Street Clinic,"36 Ashe Street, Tralee, Kerry, V92 H9KV",Kildare,52.2704296,-9.7038117
The Edward Court Clinic,"Edward Court, Edward Street, Tralee, Kerry, V92 D42H",Kildare,52.27040359999999,-9.701756
The Medical Centre,"Railway Road, Kenmare, Kerry, V93 Y02R",Kildare,51.8851092,-9.581234
The Surgery,"33 Main Street, Castleisland, Kerry, V92 P0AC",Kildare,52.2309084,-9.4637063
Tralee Medical Centre,"Saint Brendan's Park, Tralee, Kerry, V92 D96H",Kildare,52.2776148,-9.7054085
Valentia Road Medical Centre,"Garranebane, Caherciveen, Kerry, V23 TF44",Kildare,51.9414203,-10.234645
Waterville Medical Centre,"Lower Main Street, Waterville, Kerry, V23 H363",Kildare,51.829465,-10.1745436
Ayrfield Medical Practice,"Ayrfield Medical Park, Granges Road, Kilkenny, Kilkenny, R95 P2EF",Kilkenny,52.6579708,-7.261439200000001
Ballyhale Health Centre,"Vicars Lane, Ballyhale, Kilkenny, R95 X0VX",Kilkenny,52.46975,-7.19008
Ballyragget Medical Centre,"Chapel Avenue, Ballyragget, Kilkenny, R95 W3WA",Kilkenny,52.7891419,-7.3317411
Callan Medical Centre,"Callan Primary Care Centre, Friary Walk Retail Park, Callan, Kilkenny, R95 N8XK",Kilkenny,52.5500201,-7.3842478
Castle Gardens Surgery,"Castle Road, Kilkenny, Kilkenny, R95 AY8R",Kilkenny,52.6482796,-7.2456955
Castlecomer Medical Centre,"Barrack Street, Castlecomer, Kilkenny, R95 E516",Kilkenny,52.8047024,-7.217966
Coolbaun Clinic,"Coolbawn Health Centre, Coolbawn, Castlecomer, Kilkenny, R95 W0HT",Kilkenny,52.8202682,-7.177016699999999
Deerpark Medical Centre,"Deerpark, Mullinavat, Kilkenny, X91 D886",Kilkenny,52.3645881,-7.171984300000001
Dr Achim Schlunke Thomastown,"Primary Care Centre, Lady’s Well Street, Thomastown, Kilkenny, R95 T3FW",Kilkenny,52.5268615,-7.1440186
Dr Lonergan and Helly Surgery,"Graiguenamanagh Health Centre, Convent Lane, Graiguenamanagh, Kilkenny, R95 A520",Kilkenny,52.5421045,-6.9543613
Dr Michael Canning,"Baracore, Goresbridge, Kilkenny, R95 EV25",Kilkenny,52.6506085,-6.9888729
Dr Miriam Hogan,"Saint Anthony's, Newpark, Kilkenny, R95 V270",Kilkenny,52.6601539,-7.2428259
Dr Prasad,"2 Bowden's Row, Castlecomer, Kilkenny, R95 HP08",Kilkenny,52.8047894,-7.211517
Freshford Health Centre,"Kilkenny Street, Freshford, Kilkenny, R95 YW0X",Kilkenny,52.7325937,-7.395446
Goresbridge Health Centre,"Barrack Street, Goresbridge, Kilkenny, R95 FX09",Kilkenny,52.6303557,-6.9943509
Gowran Medical & Travel Health,"Gowran Health Centre, Main Street, Gowran, Kilkenny, R95 PYW6",Kilkenny,52.6299815,-7.062983
Johnstown Health Centre,"Urlingford Road, Johnstown, Kilkenny, E41 VY73",Kilkenny,52.7468913,-7.5582788
Kilkenny Medical Centre,"Garrison House, John's Green, Highhays, Kilkenny, R95 WK0E",Kilkenny,52.6551941,-7.2469203
Kilmoganny Health Centre,"Mill Street, Kilmoganny, Kilkenny, R95 W7XN",Kilkenny,52.4642302,-7.3231477
Lakeside Family Practice (Loughboy Medical Centre),"Newpark Primary Care Centre, Golf Links Road, Newpark, Kilkenny, R95 HAC4",Kilkenny,52.6597793,-7.242164300000001
Patrick Street Medical Centre,"Colles House, 8 Patrick Street, Kilkenny, Kilkenny, R95 X72F",Kilkenny,52.6497243,-7.251782800000001
Piltown Health Centre,"Main Street, Piltown, Kilkenny, E32 VH98",Kilkenny,52.3510265,-7.3304457
Abbeyleix Health Centre,"Ballinakill Road, Abbeyleix, Laois, R32 A006",Laois,52.9123311,-7.342971
Abbeyleix Medical Centre,"Main Street, Abbeyleix, Laois, R32 R58P",Laois,52.9126063,-7.349891899999999
An Lialann,"College Avenue, Mountmellick, Laois, R32 AE00",Laois,53.1205329,-7.3253986
Borris In Ossory Health Centre,"Sentryhill, Borris-in-ossory, Laois, R32 DPX8",Laois,52.940081,-7.6153211
Clann Medical Centre (Anna Gullane),"Green View, Mountmellick Road, Portlaoise, Laois, R32 T298",Laois,53.0450305,-7.3122991
Clonaslee Medical Centre,"Capparogan, Clonaslee, Laois, R32 PW20",Laois,53.1504136,-7.529857400000001
Dr John Lyons,"Mountrath Health Centre, Link Road, Mountrath , Laois, R32 EA32",Laois,52.99985359999999,-7.4741447
Dr Padraic Farrell,"Ballylinan Health Centre, Ballylinan, Laois, R14 Y156",Laois,52.9423289,-7.0431496
Dr Thomas Stewart,"27 Gandon Close, Fairgreen, Portlaoise, Laois, R32 D66C",Laois,53.0477784,-7.3236127
Durrow Health Centre,"The Square, Durrow, Laois, R32 WEY2",Laois,52.8462882,-7.39455
Glenard Clinic,"Connolly Street, Mountmellick, Laois, R32 H7KP",Laois,53.1145919,-7.3203297
Kilminchy Medical Centre / Boston Health Centre,"Saint Anne's, Dublin Road, Portlaoise, Laois, R32 N9DD",Laois,53.0389308,-7.276356100000001
Kilnacourt Surgery,"Kilnacourt House, Bracklone Street, Portarlington, Laois, R32 X01R",Laois,53.15629509999999,-7.181647799999999
Maryborough Family Practice,"Parkside, Abbeyleix Road, Portlaoise, Laois, R32 KDN8",Laois,53.0266904,-7.3010265
Medi Centre,"Link Road, Portarlington, Laois, R32 PY5N",Laois,53.1602053,-7.1875722
Medical Centre Portlaoise,"James Fintan Lalor Avenue, Portlaoise, Laois, R32 CF98",Laois,53.0317224,-7.2994466
Mountrath Health Centre,"Link Road, Mountrath, Laois, R32 EA32",Laois,52.9996317,-7.4740142
Old Chapel Medical Centre,"8 Chapel Street, Durrow, Laois, R32 A6ND",Laois,52.8447718,-7.3965712
Portarlington Family Practice,"Rosetta, Station Road, Portarlington, Laois, R32 XNN9",Laois,53.1531932,-7.1832317
Primecare TMB,"The Tyndall Clinic, Barrow Valley Retail Park, Graiguecullen, Laois, R93 N6W8",Laois,52.8453488,-6.9435234
Rapid Health Clinic,"7 Lismard Court, Portlaoise, Laois, R32 RRP0",Laois,53.0330115,-7.295029400000001
Rathdowney Health Centre,"Mooreville, Rathdowney, Laois, R32 RFW7",Laois,52.8567343,-7.5971692
Stradbally Medical Practice,"Court Square, Stradbally, Laois, R32 VWH7",Laois,53.0122373,-7.14576
The Cedar Clinic,"Mountmellick Road, Portlaoise, Laois, R32 D5XP",Laois,53.043474,-7.3118207
The Medi Centre,"Clonminam Road, Portlaoise, Laois, R32 HW83",Laois,53.0300862,-7.304094
Tyndall Clinic,"Barrow Valley Retail Park, Sleaty Road, Graiguecullen, Laois, R93 N6W8",Laois,52.8453488,-6.9435234
Ballinamore Surgery,"7/8 Railway Road, Ballinamore, Leitrim, N41 EF60",Leitrim,54.0542915,-7.7971684
Carrick Family Practice,"Mary Immaculate Centre, Summerhill, Carrick-on-shannon, Leitrim, N41 NX21",Leitrim,53.9479859,-8.089247799999999
Carrick Medical Centre,"New Primary Care Centre, Townparks, Carrick-on-shannon, Leitrim, N41 E3C9",Leitrim,53.9445035,-8.093128799999999
Carrigallen Health Centre,"Clooncorick, Carrigallen, Leitrim, H12 K5N7",Leitrim,53.9768459,-7.6405772
Dromahair Health Centre,"8 Churchfield, Drumahaire, Dromahair, Leitrim, F91 VX2F",Leitrim,54.2293654,-8.2977096
Drumkeeran Health Centre,"Lugmeen, Drumkeeran, Leitrim, N41 HR25",Leitrim,54.1683721,-8.1415899
Drumshanbo Health Centre,"Drumshambo Primary Care Centre, Ballinamore Road, Drumshanbo, Leitrim, N41 E942",Leitrim,54.0464641,-8.0382941
Manorhamilton Health Centre,"Amorset, Manorhamilton, Leitrim, F91 VX00",Leitrim,54.3104379,-8.1828086
Mohill Primary Care Centre,"Water Street, Mohill, Leitrim, N41 VX85",Leitrim,53.9266964,-7.8630569
Abbey Medical Centre - Limerick,"Killarney Road, Abbeyfeale, Limerick, Limerick, V94 FP7R",Longford,52.3783138,-9.305571
Abbey River House Medical Practice,"Abbey River House, Charlotte's Quay, Limerick, Limerick, V94 C2NX",Longford,52.66614980000001,-8.6207415
Abbeygrove House Medical Practice,"Abbeygrove House Medical Practice, 31 Sir Harry's Mall, Limerick, Limerick, V94 DY0X",Longford,52.668295,-8.6191613
Adare Family Doctors,"Station Road, Adare, Limerick, V94 KD45",Longford,52.5651736,-8.7912287
Adare Medical Centre,"Adare Village Centre, Station Road, Adare, Limerick, V94 N6KW",Longford,52.5656225,-8.7917527
Ashdown Medical Centre,"Courtbrack Avenue, South Circular Road, Limerick City, Limerick, V94 H9KR",Longford,52.6545181,-8.6476189
Askeaton Medical Centre,"The Quay, Askeaton, Limerick, V94 C9R6",Longford,52.601737,-8.9733525
Atlantic Edge Medical,"Unit 8 Steamboat Quay, Dock Road, Limerick, Limerick, V94 HK84",Longford,52.6601732,-8.637346299999999
Bio Force Medical & Wellness Clinic,"1st Floor George's Quay House, George's Quay, Limerick, Limerick, V94 YW9T",Longford,52.66665399999999,-8.6206085
Blossom Gate Medical Centre,"Kilmallock Primary Care Centre, Kilmallock Business Park, Kilmallock, Limerick, V35 K389",Longford,52.40677669999999,-8.5825953
Broadford Surgery,"Main Street, Broadford, Limerick, P56 E062",Longford,52.3452812,-8.9764718
Caherconlish Health Centre,"Templemichael, Caherconlish, Limerick, V94 TY72",Longford,52.5937805,-8.4698105
Cara Medical Centre,"Gortboy, Newcastle West, Limerick, V42 XY38",Longford,52.45466330000001,-9.0524422
Castleconnell Medical Practice,"Castleconnell Health Centre, Castleconnell, Limerick, V94 XR96",Longford,52.7132709,-8.501951
Cedarville Surgery,"34 Cedarville, Abbeyfeale, Limerick, V94 CA4P",Longford,52.3846048,-9.295226500000002
Clarina Medical Centre,"Carrigogunnel, Clarina, Limerick, V94 K3V7",Longford,52.64096319999999,-8.7379178
Corbally Medical Centre,"Corbally Road, Corbally, Limerick, V94 WFX9",Longford,52.6798935,-8.6123995
County Medical Centre,"Kilmallock Retail Park, Kilmallock, Limerick, V35 V523",Longford,52.399475,-8.573248099999999
Croagh Medical Centre,"Ballycannon, Croagh, Limerick, Limerick, V94 FDA5",Longford,52.5329785,-8.8747034
Cullen & Hanly Family Doctors,"15 Pery Square, Prospect, Limerick, V94 XV4A",Longford,52.6590423,-8.6289687
Davin Clinic,"Annesville, Ennis Road, Limerick, Limerick, V94 YY8D",Longford,52.6707556,-8.6598919
Doctors 365 Limerick,"38 Clare Street, Limerick, Limerick, V94 YV22",Longford,52.6654041,-8.609993099999999
Doon Medical Clinic,"Saint Josephs Convent Of Mercy, Lisgaugh, Doon, Limerick, V94 EF2V",Longford,52.60387309999999,-8.244877299999999
Doon-Moon Medical Centre,"Saint Nessan's Road, Dooradoyle, Limerick, V94 FCD1",Longford,52.6363416,-8.6546454
Dooradoyle Medical Centre,"Dooradoyle Road, Limerick, Limerick, V94 3H68",Longford,52.631856,-8.6433334
Dr Andrew Kelly,"1 Graney Close, Dooradoyle, Limerick, V94 V2TT",Longford,52.6321902,-8.6574567
Dr Annemarie Dineen,"Carlton House, 8 Shannon Street, Limerick, Limerick, V94 TY79",Longford,52.66249999999999,-8.629083999999999
Dr Blanaid MacCurtain,"The Paddocks, Castle Street, Castleconnell, Limerick, V94 RC56",Longford,52.7124953,-8.5005462
Dr Conor Geaney,"HSECroom Primary Care Centre, Skagh, Limerick, V35 XT25",Longford,52.52603920000001,-8.712737599999999
Dr E and M O'Callaghan,"Newtown, Bruff, Limerick, V35 XK51",Longford,52.4788071,-8.5493211
Dr Flynn and Lee,"Ballinacurra House, Ballinacurra, Limerick, V35 EP21",Longford,52.5000043,-8.4387244
Dr Giolla McCann,"Westbrook House, Caherdavin Cross, Limerick, V94 F6YE",Longford,52.6717633,-8.6618292
Dr John Slevin,"The Moorings 4 Verona Villas, O'Connell Avenue, Limerick, Limerick, V94 AY05",Longford,52.65460539999999,-8.6347632
Dr Judith Bugler,"Main Street, Kilfinane, Limerick, V35 NN52",Longford,52.35878,-8.468675700000002
Dr Kelly & Loughnane,"Bóthar Buí, Newcastle West, Limerick, V42 V259",Longford,52.4457957,-9.0588715
Dr Maire Una Ni Rathaille,"Galbally Road, Ballylanders, Limerick, V35 K164",Longford,52.3743686,-8.345688
Dr Mary McNally G.P. Surgery,"1 Stenson Park, Farranshone, Limerick, V94 XD2E",Longford,52.6715179,-8.6351797
Dr Mel Fullam,"Bishop Street, Newcastle West, Limerick, V42 W738",Longford,52.4524454,-9.0590154
Dr Negin Reyhani,"51 William Street Uppper, Limerick, Limerick, V94 RY8W",Longford,52.66274850000001,-8.6243131
Dr O'Callaghan and O'Dea,"5 Johnsgate Village, Johnsgate, Limerick, Limerick, V94 VK1H",Longford,52.66388809999999,-8.61742
Dr Patrick O'Dwyer,"Moore Street, Cappamore, Limerick, V94 C1X4",Longford,52.6133957,-8.3364009
Dr Roger Hayes,"Daar Wood, Gortboy, Newcastle West, Limerick, V42 DH77",Longford,52.4543598,-9.0449067
Dr Seamus O'Flynn,"Fingall, Ballinacurra Road, Limerick, Limerick, V94 T381",Longford,52.6471446,-8.639040099999999
Dr. John Waters,"33 Fortfield, Raheen, Limerick, V94 HC44",Longford,52.62759699999999,-8.6525941
Dr. Pat Murphy,"Seancarnan, Stradbally North, Castleconnell, Limerick, V94 Y2T9",Longford,52.7087496,-8.5062647
Dromcollogher Health Centre,"Buttevant Road, Dromcollogher, Limerick, P56 TD39",Longford,52.3388384,-8.9058867
Ennis Road Medical Centre,"Elm Park Villas, Ennis Road, Limerick, Limerick, V94 X5XF",Longford,52.6685508,-8.6524022
Family Doctor,"Unit 2/3, Salmon Weir, Annacotty, Limerick, V94 E3W7",Longford,52.667224,-8.5286724
Fealewest Medical Centre,"Killarney Road, Abbeyfeale, Limerick, V94 HX06",Longford,52.3783138,-9.305571
Ferndale Family Practice,"Ferndale, The Square, Abbeyfeale, Limerick, V94 C582",Longford,52.3842077,-9.302088999999999
GP Surgery,"19 Barrington Street, Limerick City, Limerick, V94 PCY9",Longford,52.6580695,-8.6310182
Griffin Daly GP Practice,"2 John's Square, Limerick City, Limerick, V94 K44A",Longford,52.6628015,-8.618848500000002
Grove Island Medical Centre,"Unit 15a, Grove Island, Corbally, Limerick, V94 Y5CD",Longford,52.6809953,-8.6106529
Hospital Medical Centre,"Coolalough, Hospital, Limerick, V35 CX70",Longford,52.4728134,-8.4256563
Kilmurry Medical Centre,"Unit 26A Whitethorns, Briarfield, Castletroy, Limerick, V94 DXY8",Longford,52.6669125,-8.5552759
King's Island Medical Centre,"King's Island Primary Care Centre, Island Road, Limerick, V94 T2RF",Longford,52.6712642,-8.6235091
Limerick First Medical Centre,"45 Rathmore House, Church Hill Meadows, Raheen, Limerick, V94 392D",Longford,52.6251772,-8.6451192
Meadow Springs Medical Centre,"41a Meadow Springs, Clareview, Limerick, V94 RPA8",Longford,52.6719867,-8.6583296
Medicentre Limerick,"105 O'Connell Street, Limerick, Limerick, V94 NT2Y",Longford,52.6618097,-8.6292378
MedWise Limerick,"Glenesk Commercial Centre, Dublin Road, Castletroy, Limerick, V94 RR24",Longford,52.6674562,-8.5628654
Mungret Medical Centre,"Mungret Village, Moneteen, Limerick, V94 X004",Longford,52.6357733,-8.692874699999999
New Road Clinic,"20A Johnsgate Village, New Road, Limerick City, Limerick, V94 DET8",Longford,52.6644044,-8.6177897
Newtown Medical Centre,"Newtown, Annacotty, Limerick, V94 Y99E",Longford,52.6635635,-8.5376976
Old Windmill Medical Centre,"Lower Gerald Griffin Street, Limerick, Limerick, V94 CX6H",Longford,52.6624109,-8.6203098
Park Lodge Medical Centre,"Dublin Road, Rhebogue, Limerick, Limerick, V94 H229",Longford,52.6674562,-8.5628654
Parnell Street Surgery,"Parnell Mall, Parnell Street, Limerick, Limerick, V94 RY6P",Longford,52.6596141,-8.6250824
People's Park Medical Centre,"The Park, Lord Edward Street, Limerick, Limerick, V94 XE17",Longford,52.6540396,-8.6302875
Personal Medical Clinic,"22 University Court, Castletroy, Limerick, V94 AXY7",Longford,52.667089,-8.569419
Polyclinic Medical and Diagnostic Centre,"Unit E, The Gables, Limerick Ballysimon Road, Limerick City, Limerick, V9494W0",Longford,52.6560667,-8.6072758
Quay Clinic,"2 Gortboy Court, Newcastle West, Limerick, V42 E658",Longford,52.4545712,-9.0481368
Raheen Medical Centre,"1 Graney Close, Dooradoyle, Limerick, V94 V2TT",Longford,52.6321902,-8.6574567
Rathkeale Medical Centre,"Lower Main Street, Rathkeale, Limerick, V94 N4AW",Longford,52.5225377,-8.9403524
Riverwest Medical - Foynes,"Foynes Clinic, Corgrigg, Foynes, Limerick, V94 HH2A",Longford,52.60922979999999,-9.104345
Roxboro Medical Centre,"Unit 8 Quality Retail Centre, Roxboro, Limerick, V94 VC43",Longford,52.6494118,-8.616954999999999
Royal Med Health Centre Limerick,"Barrack View Primary Care Centre, Lord Edward Street, Limerick, Limerick, V94 DD8W",Longford,52.6548906,-8.6274692
Rylanes Medical Centre,"Rylanes, Ballingarry, Limerick, V94 K0D2",Longford,52.4778595,-8.864370599999999
St. Patricks Walk in Medical Centre,"3 Courtfields, Gouldavoher, Raheen, Limerick, V94 0X34",Longford,52.6294165,-8.6655167
Stanford Clinic,"Unit 6/7 Steamboat Quay, Dock Road, Limerick, Limerick, V94 Y7YH",Longford,52.66021600000001,-8.637065999999999
The Adare Clinic,"Unit 2 Harvey's Quay, Limerick, Limerick, V94 56T7",Longford,52.6637873,-8.6300519
The Clinic,"18/19 Parnell Street, Limerick, Limerick, V94 XE29",Longford,52.6599892,-8.624695599999999
The Clinic Dooradoyle,"14 St. Nessan's Road, Dooradoyle, Limerick, V94 XE29",Longford,52.6370863,-8.6536705
The Park Medical Centre,"Barrack View Primary Care Centre, Lord Edward Street, Limerick, Limerick, V94 DD8W",Longford,52.6548906,-8.6274692
The Surgery,"22 William Street, Limerick City, Limerick, V94 XV9T",Longford,52.6628766,-8.623928
The Surgery,"Saint Nessan's Road, Dooradoyle, Limerick, V94 K5WH",Longford,52.6384176,-8.653205
The Surgery,"Main Street, Patrickswell, Limerick, V94 C8YV",Longford,52.5963244,-8.7123192
Thomond Park Clinic,"19 Cregan Avenue, Kileely, Limerick, V94 DD2V",Longford,52.6742365,-8.6381787
Treaty Medical Centre,"Oakdale House, Ennis Road, Limerick, Limerick, V94 NX4T",Longford,52.6685508,-8.6524022
Ultimate Health Clinic,"George's Quay House, George's Quay, Limerick, Limerick, V94 YW9T",Longford,52.66665399999999,-8.6206085
Victoria House Medical Practice,"Victoria House, John's Square, Limerick, Limerick, V94 K3VF",Longford,52.6628276,-8.618439799999999
Walk In Medical Centre,"13 Saint Nessan's Park, Dooradoyle, Limerick, V94 AD86",Longford,52.6370705,-8.6536138
Westbury Medical Centre,"Athea Upper, Athea, Limerick, V94 997A",Longford,52.461188,-9.2937096
Ard Bryan Clinic,"Dublin Road, Bryanstown, Drogheda, Louth, A92 H4XH",Louth,53.7065241,-6.3247207
Ardmell Clinic,"Upper Mell, Drogheda, Louth, A92 FK2A",Louth,53.7191086,-6.3735276
Aston Medical,"Unit 14 Aston Green, Aston Village, Drogheda, Louth, A92 RT20",Louth,53.7271023,-6.3321828
Baltic Medical Clinic,"6 Meat Market Lane, Drogheda, Louth, A92 XKR8",Louth,53.714199,-6.351240199999999
Blackrock Family Practice,"Main Street, Blackrock, Louth, A91 XT9D",Louth,53.9633771,-6.3660222
Blackrock Medical Centre,"Main Street, Blackrock, Louth, A91 PYY3",Louth,53.9636404,-6.365849
Boyne Medical Practice,"Unit 12 Boyne Shopping Centre, Bolton Street, Drogheda, Louth, A92 E283",Louth,53.7175799,-6.3556878
Bryanstown Medical Centre,"Bryanstown, Dublin Road, Drogheda, Louth, A92 HHT2",Louth,53.7065241,-6.3247207
Brú Medical Clinic,"Wellington Quay, Drogheda, Louth, A92 E0YX",Louth,53.7137319,-6.3543583
Carlingford Medical Centre,"Trinity Close, Carlingford, Louth, A91 PEX2",Louth,54.0385714,-6.1868734
Carrick Road Medical Centre,"Lis Na Dara, Dundalk, Louth, A91 HTX3",Louth,54.0011097,-6.424141199999999
Castletown Clinic,"133/135 Castletown Road, Dundalk, Louth, A91 VHR3",Louth,54.0125666,-6.409986
Centric Health - Dundalk,"Main Street, Blackrock, Louth, A91 DX6K",Louth,53.9630287,-6.3659972
"Centric Health - Hilltop Medical Practice,","Drogheda Retail And Leisure Centre, Rathmullan Road, Drogheda, Louth, A92 KVP8",Louth,53.7140932,-6.3741043
Church Street Medical Centre,"1st Floor 1-3 Church Street, Dundalk, Louth, A91 RD2P",Louth,54.0079425,-6.401989400000001
Clann Medical Practice,"Cross Lane, Drogheda, Louth, A92 PP5X",Louth,53.7244977,-6.3601057
Clogherhead Health Care Centre,"Clogherhead, Louth, A92 P58A",Louth,53.7904522,-6.243110199999999
Cornerstone Medical Practice,"19 Fair Street, Drogheda, Louth, A92 VN2K",Louth,53.7162306,-6.3543618
Dr Byrnes Surgery,"10 Francis Street, Dundalk, Louth, A91 TP4V",Louth,54.0038182,-6.400512
Dr Ciarin Cairns Medical Practice,"2b Neighbourhood Shopping Centre, Inner Relief Road, Dundalk, Louth, A91 P5PD",Louth,53.9883897,-6.3735353
Dr J. Whately Surgery,"2 Park Avenue, Dundalk, Louth, A91 R88X",Louth,54.0038893,-6.4045044
Dr Liam Mcgrath,"30 Jocelyn Street, Dundalk, Louth, A91 RY6A",Louth,54.0052013,-6.3945912
Drogheda Medical Clinic,"Dublin Road, Drogheda, Louth, A92 A40Y",Louth,53.7065241,-6.3247207
Dunleer Medical Centre,"Main Street, Dunleer, Louth, A92 AFH1",Louth,53.8315585,-6.3952734
Fairgate Medical Practice,"13 Fair Street, Drogheda, Louth, A92 X650",Louth,53.7161449,-6.353595299999999
Ferdia Family Practice,"Unit 3 Ash Mews, Ash Walk, Ardee, Louth, A92 FXE4",Louth,53.8557998,-6.5408805
John Street Surgery,"John Street, Ardee, Louth, A92 E3WY",Louth,53.845193,-6.5577952
Lorenc Medical Centre,"Drogheda Street, Collon, Louth, A92 RY27",Louth,53.7779308,-6.4812845
Lugh Medical Centre,"Unit 3 College House, College Heights, Dundalk, Louth, A91 KD51",Louth,53.9869253,-6.3904466
Medical Centre,"13 Demesne Road, Dundalk, Louth, A91 E516",Louth,54.00638559999999,-6.407319999999999
Northgate Surgery,"226 Pearse Park, Drogheda, Louth, A92 E088",Louth,53.7199655,-6.3494095
Number 47 Medical Practice,"47 Fair Street, Drogheda, Louth, A92 Y62H",Louth,53.71662449999999,-6.355800200000001
Quays Medical Practice,"Wellington Quay, Drogheda, Louth, A92 E0YX",Louth,53.7137319,-6.3543583
Ravensdale Dispensary,"Proleek Acres, Ravensdale, Louth, A91 T025",Louth,54.049409,-6.348771699999999
Roden Court Medical Clinic,"Roden Place, Dundalk, Louth, A91 C1XY",Louth,54.0046851,-6.3979329
Seatown Family Practice,"10 Seatown Place, Dundalk, Dundalk, Louth, A91 K8YW",Louth,54.005029,-6.392618499999999
South Beach Medical Centre,"Main Street, Blackrock, Louth, A91 T9TP",Louth,53.9630287,-6.3659972
Southside Medical,"Unit 5, Dublin Road, Drogheda, Louth, A92 XE86",Louth,53.70794710000001,-6.3298285
The Laurels Health Centre,"Primary Care Centre, 1 The Laurels, Dundalk, Louth, A91 CVK6",Louth,54.008399,-6.404545499999999
The Square Medical,"1st Floor Elgee Building, Market Square, Dundalk, Louth, A91 YR9X",Louth,54.00400140000001,-6.403391099999999
Tierney St Surgery,"Tierney Street, Ardee, Louth, A92 K5NN",Louth,53.8573173,-6.5313542
Tullyallen Medical Centre,"Tullyallen, Louth, A92 FWN2",Louth,53.7362115,-6.415696
"Wheaton Hall Medical Centre,","Wheaton Hall, Drogheda, Louth, A92 E266",Louth,53.7096656,-6.329345099999999
Achill Doctors,"Pollagh, Keel, Achill, Mayo, F28 X3Y6",Mayo,53.9744322,-10.0852574
Achill Sound Health Centre,"Saint Fionnans Road, Achill, Mayo, F28 W925",Mayo,53.9296407,-9.9300355
Annagh Medical Centre,"Doctors Road, Ballyhaunis, Mayo, F35 X932",Mayo,53.7671709,-8.7713178
Atlantic Medical Centre,"Cq Centre, Kevin Barry Street, Ballina, Mayo, F26 DK76",Mayo,54.1112636,-9.1595815
Balla Medical Centre,"Balla, Mayo, F23 CV61",Mayo,53.8019768,-9.1304652
Ballina Medical Centre,"Ballina Primary Care Centre, Kevin Barry Street, Ballina, Mayo, F26 P6P1",Mayo,54.11182059999999,-9.1596646
Ballindine Primary Healthcare Hub,"Main Street, Ballindine, Mayo, F12 VE48",Mayo,53.6694436,-8.9571022
Bangor Erris Health Centre,"Srahanarry, Bangor Erris, Ballina, Mayo, F26 Y886",Mayo,54.1444212,-9.7391021
Castle Medical Centre,"Station Road, Castlebar, Mayo, F23 PX68",Mayo,53.8489207,-9.2887971
Castlebar Family Practice,"Mountain View, Castlebar, Mayo, F23 EY43",Mayo,53.8541416,-9.3006204
Clew Bay Family Practice,"Primary Care Centre, Tober Hill, Westport, Mayo, F28 ED71",Mayo,53.7968862,-9.5277748
Deel Medical Centre,"Main Street, Crossmolina, Crossmolina, Mayo, F26 C6V2",Mayo,54.1006949,-9.318339199999999
Dr Catherine Sweeney Family Practice,"Ballindine Health Centre, Main Street, Ballindine, Mayo, F12 H1R7",Mayo,53.6715989,-8.9587642
Dr Charles Meehan,"Garden Court, Tone Street, Ballina, Mayo, F26 V978",Mayo,54.1148488,-9.157527199999999
Dr Clinton,"Carrowkibbock Lower, Ballycastle, Mayo, F26 R3K4",Mayo,54.2769792,-9.359587699999999
Dr David Brunker,"15 The Arches, Ballina, Mayo, F26 KV63",Mayo,54.1139457,-9.149039799999999
Dr Diarmaid Mcloughlin,"3 Circular Road, Swinford, Mayo, F12 W243",Mayo,53.9440505,-8.953784299999999
Dr Fergal Ruane Surgery,"Quay Street, Belmullet, Mayo, F26 HH60",Mayo,54.22376190000001,-9.9905204
Dr Frances Rowley,"Dublin Road, Swinford, Mayo, F12 AW93",Mayo,53.9441755,-8.9450561
Dr Hugh Byrne,"Ballynanerroon Beg, Partry, Mayo, F12 WD34",Mayo,53.6985964,-9.2790042
Dr Ita Mullaghy,"South Mall, Westport, Mayo, F28 Y234",Mayo,53.8004146,-9.5214863
Dr John Grimes,"Ballina Road, Foxford, Mayo, F26 DC42",Mayo,53.9834898,-9.1177327
Dr John McCrohan,"Bridge Street, Swinford, Mayo, F12 RC04",Mayo,53.9441255,-8.947462699999999
Dr Long,"New Antrim Street, Castlebar, Mayo, F23 P827",Mayo,53.8591243,-9.2982357
Dr Marcus Allen,"4 Howley Terrace, Ballina, Mayo, F26 TP04",Mayo,54.1147724,-9.147905399999999
Dr Noreen Lineen-Curtis,"Achill Health Centre, Achill, Mayo, F28 E142",Mayo,53.9300726,-9.929440399999999
Dr Stephen Patten General Practice,"Market Street, Castlebar, Mayo, F23 ND98",Mayo,53.85645,-9.2987809
Foxford Medical Centre,"Main Street, Foxford, Mayo, F26 F2W7",Mayo,53.9805901,-9.1145902
Glenamoy Health Centre,"Spadow, Glenamoy, Ballina, Mayo, F26 P8K8",Mayo,54.2410693,-9.688129
Grove Medical Centre,"Mill Street, Westport, Mayo, F28 EV22",Mayo,53.7985998,-9.5212208
Hazelhill Family Practice,"Upper Main Street, Ballyhaunis, Mayo, F35 CX94",Mayo,53.7647247,-8.7720421
HSE Doctor in Charge,"Community Care Centre, Ballagh Street, Charlestown, Mayo, F12 D620",Mayo,53.9637283,-8.791664299999999
Inisturk GP Surgery,"Inisturk Community Centre, Ballyvaum, Inishturk, Mayo, H91 N990",Mayo,53.70099260000001,-10.0934451
Kilkelly Medical Centre,"Ballaghadereen Road, Kilkelly, Mayo, F35 A092",Mayo,53.872133,-8.8468889
Killala Health Centre,"Ballina Road, Killala, Mayo, F26 P6H2",Mayo,54.2125146,-9.220999899999999
Kiltimagh Medical Centre,"Walshtown, Kiltimagh, Mayo, F12 C6W7",Mayo,53.854174,-8.994273699999999
Knock Medical Centre,"Knock, Mayo, Mayo, F12 PA03",Mayo,53.7904942,-8.9193929
Lahardane Medical Centre,"7 Church View, Lahardane, Ballina, Mayo, F26 R9K5",Mayo,54.0292089,-9.3199246
Lakelands Medical Practice,"Ballinrobe Primary Care Centre, Claremorris Road, Ballinrobe, Mayo, F31 RW66",Mayo,53.6270861,-9.2131653
Louisburgh Health Centre,"Westport Road, Louisburgh, Mayo, F28 XR50",Mayo,53.7631376,-9.8090849
Louisburgh Medical Centre,"Chapel Street, Louisburgh, Mayo, F28 T184",Mayo,53.7624571,-9.8057336
Lynn Medical Centre,"Nymphsfield, Cong, Mayo, F31 RD35",Mayo,53.5438754,-9.277044799999999
Malvern Medical Centre,"Knock Road, Claremorris, Mayo, F12 R2A4",Mayo,53.7241558,-8.9963341
Malvern Medical Group,"Ballindine Health Centre, Main Street, Ballindine, Mayo, F12 H1R7",Mayo,53.6715989,-8.9587642
Malvern Medical Group Castlebar,"Bridge Street, Castlebar, Mayo, F23 X330",Mayo,53.8568185,-9.2985752
Moneen Primary Care Centre,"Moneen Road, Castlebar, Mayo, F23 XV04",Mayo,53.8546387,-9.275679
Moyview Family Practice,"Dillon Terrace, Ballina, Mayo, F26 R9V2",Mayo,54.1151723,-9.1508054
Mulranny Health Centre,"Mulranny, Westport, Mayo, F28 DK28",Mayo,53.90706410000001,-9.774470899999999
Newport Health Centre,"Meddlicott Street, Newport, Mayo, F28 NW84",Mayo,53.8834513,-9.5454261
Old Bank Medical Centre,"Abbey Street, Ballyhaunis, Mayo, F35 YH93",Mayo,53.7615835,-8.7625744
"Primary Care Centre,","Moneen Road, Castlebar, Mayo, F23 XV04",Mayo,53.8546387,-9.275679
Reek View Clinic,"Westport Primary Care Centre, Tober Hill, Westport, Mayo, F28 ED71",Mayo,53.7962237,-9.5282898
Swanick Family Practice,"Church Road, Belmullet, Mayo, F26 N9V9",Mayo,54.2205727,-9.9865738
Swinford Medical Centre,"Davitt Place, Swinford, Mayo, F12 FT72",Mayo,53.9411742,-8.948778
Swinford Primary Care Centre,"Pound Lane, Swinford, Mayo, F12 D324",Mayo,53.9428106,-8.9504611
The Medical Centre,"Clare Street, Ballyhaunis, Mayo, F35 R127",Mayo,53.7631101,-8.764984
The Surgery,"Bury Street, Ballina, Mayo, F26 R585",Mayo,54.1128124,-9.1570582
Tobin Healthcare Centre,"Station Road, Castlebar, Mayo, F23 WV78",Mayo,53.8489207,-9.2887971
Townley Medical Centre,"Ballyhaunis Road, Claremorris, Mayo, F12 V6P3",Mayo,53.72197,-8.99143
West Coast Medical,"Westport Primary Care Centre, Tober Hill, Westport, Mayo, F28 ED71",Mayo,53.7962237,-9.5282898
Westport Medical Clinic,"Market Lane, Bridge Street, Westport, Mayo, F28 A261",Mayo,53.799145,-9.5206032
Drogheda Medical Clinic,"Duleek Health Centre, Navan Road, Duleek, Meath, A92 KRN8",Monaghan,53.6545718,-6.4199049
Abbey House Medical Centre,"Abbey Road, Navan, Meath, C15 D290",Monaghan,53.6551595,-6.6868467
Ashbourne Family Practice,"Killegland Walk, Ashbourne, Meath, A84 A627",Monaghan,53.5112676,-6.4003688
Ashbourne Medical Centre,"1st Floor, Killegland Street, Ashbourne, Meath, A84 TP84",Monaghan,53.5112676,-6.4003688
Athboy Family Practice,"Main Street, Athboy, Meath, C15 E330",Monaghan,53.6218673,-6.9204481
Ballagh House Surgery,"Ballagh House, Boynehill, Navan, Meath, C15 HK27",Monaghan,53.6275458,-6.663972999999999
Bedford Medical Centre,"Convent Road, Navan, Meath, C15 PD0V",Monaghan,53.64908,-6.6734283
Bettystown Medical Practice,"20 Brookside, Bettystown, Meath, A92 PA02",Monaghan,53.6954451,-6.2438065
Cannon Street Surgery,"Cannon Street, Kells, Meath, A82 F8W9",Monaghan,53.7274179,-6.8813115
Centric Health Ashbourne Clinic,"Ashbourne Retail Park, Ballybin Road, Ashbourne, Meath, A84 DE42",Monaghan,53.5224336,-6.4156973
Clonee Medical Centre,"Cloncourt, Main Street, Clonlee, Meath, D15 WE54",Monaghan,53.4105621,-6.4426
Deerpark Medical Centre,"2 Deerpark, Ashbourne, Meath, A84 HA24",Monaghan,53.5044484,-6.3899897
Dr Noel Clancy,"Eden Bawn, Navan Road, Trim, Meath, C15 K791",Monaghan,53.5572892,-6.7844226
Dr Patrick Tierney,"Lisheen, Grangend, Dunshaughlin, Meath, A85 YK82",Monaghan,53.5139455,-6.538191599999999
Dr Shanthamurthy,"7 Watergate Street, Navan, Meath, C15 P653",Monaghan,53.6537095,-6.6837782
Drumconrath Surgery,"Drumconrath, Navan, Meath, C15 DH9H",Monaghan,53.8496649,-6.6512623
Dunboyne Family Practitioners,"4 Navan Road, Dunboyne, Meath, A86 KV44",Monaghan,53.4220076,-6.474409
Dunboyne Surgery,"Main Street, Dunboyne, Meath, A86 HX63",Monaghan,53.4189807,-6.4766586
Dunshaughlin Health Care Unit,"Main Street, Dunshaughlin, Meath, A85 WD91",Monaghan,53.509256,-6.5397994
Dunshaughlin Health Care Unit,"Main Street, Dunshaughlin, Meath, A85 WD91",Monaghan,53.509256,-6.5397994
Enfield Health Centre,"Johnstown Road, Enfield, Meath, A83 YN20",Monaghan,53.4065303,-6.8434875
Family Practitioners,"Dunshaughlin Health Care Unit, Main Street, Dunshaughlin, Meath, A85 WD91",Monaghan,53.508168,-6.5427994
Gormanston Park Surgery,"Gormanston, Meath, K32 PW44",Monaghan,53.6347786,-6.2341384
Headfort Family Practice,"Kells Primary Care Centre, Navan Road, Kells, Meath, A82 H3C7",Monaghan,53.72470329999999,-6.862601
Johnstown Group Practice,"Oldtown Road, Johnstown, Navan, Meath, C15 H018",Monaghan,53.6250025,-6.6055531
Kells Medical,"Church Street, Kells, Meath, A82 D6P5",Monaghan,53.7275124,-6.8783015
Longwood Health Centre,"Kilglass, Longwood, Meath, A83 Y470",Monaghan,53.45409489999999,-6.9380963
Meadowbank Medical Centre,"Meadowbank Hill, Ratoath, Meath, A85 HC98",Monaghan,53.5040243,-6.4639445
Moynalty Health Centre,"Moynalty, Meath, A82 N596",Monaghan,53.7889618,-6.883962599999999
My Family Clinic,"The Clonee Centre, Main Street, Clonlee, Meath, D15 H95Y",Monaghan,53.4103416,-6.4410155
Navan Medical Practice,"Unit 2 Oldtown Road, Johnstown, Navan, Meath, C15 FY6D",Monaghan,53.6250025,-6.6055531
Nobber Medical Practice,"Nobber Health Centre, Nobber, Meath, A82 N402",Monaghan,53.825921,-6.7560104
Oldcastle Health Centre,"Church Street, Oldcastle, Meath, A82 E8D8",Monaghan,53.7691498,-7.1602731
Oldcastle Health Centre,"Church Street, Oldcastle, Meath, A82 E8D8",Monaghan,53.7691498,-7.1602731
Ratoath Medical Centre,"Main Street, Ratoath, Meath, A85 XY32",Monaghan,53.5054043,-6.4541954
Strand Medical Centre,"Laytown Health Centre, Laytown, Meath, A92 VA03",Monaghan,53.6810507,-6.2402099
Summerhill Medical Centre,"Summerhill Primary Care Centre, New Road, Summerhill, Meath, A83 V252",Monaghan,53.4825308,-6.7395744
The Maple Clinic,"Dublin Road, Ashbourne, Meath, A84 KV18",Monaghan,53.5053173,-6.3921522
Trim Group Practice,"Trim Primary Care Centre, Knightsbridge Village, Trim, Meath, C15 PHP1",Monaghan,53.5523666,-6.7866474
Trim Primary Care Centre,"Knightsbridge Village, Trim, Meath, C15 PHP1",Monaghan,53.54649800000001,-6.7969776
Watergate Medical Centre,"14 Watergate Street, Navan, Meath, C15 RP8D",Monaghan,53.6540763,-6.683491
Watergate Street Surgery,"29 Watergate Street, Navan, Meath, C15 XKC7",Monaghan,53.6542433,-6.682595999999999
Banagher Health Centre,"Primary Care Centre, Banagher, Offaly, R42 XW40",Offaly,53.1842988,-7.9859665
Clara Medical Centre,"Main Street, Clara, Offaly, R35 TX61",Offaly,53.34318529999999,-7.614352200000001
Clonminch Medical Centre,"Clonminch, Tullamore, Offaly, R35 H573",Offaly,53.2559973,-7.4800137
Dr Brendan Lee,"3 Cormac Street, Tullamore, Offaly, R35 CK06",Offaly,53.2715338,-7.4951998
Dr F Fahey,"O'Connor Square, Tullamore, Offaly, R35 H221",Offaly,53.27414959999999,-7.492370399999999
Dr Grainne McHale Surgery,"15 Henry Street, Tullamore, Offaly, R35 X789",Offaly,53.2754418,-7.487511799999999
Dr Patricia Garry,"Tower House, Clonminch, Tullamore, Offaly, R35 A3W9",Offaly,53.2526415,-7.478532899999998
Dr Patricia Garry,"Fionntir, 6 Market Square, Tullamore, Offaly, R35 E0Y0",Offaly,53.2751526,-7.489819099999999
Dr Philip Brady,"1 Boyne Meadows, Edenderry, Offaly, R45 KT96",Offaly,53.3461716,-7.0378615
Dr. Donal Sheehan,"Rathmoyle, Rhode, Offaly, R35 PC95",Offaly,53.3489137,-7.1987533
Dr. John Corboy,"Church Street, Clara, Offaly, R35 DC63",Offaly,53.3449824,-7.616082500000001
Edenderry Medical,"Saint Conleth's Road, Edenderry, Offaly, R45 EF83",Offaly,53.3439849,-7.051817199999999
Edenderry Medical Centre,"3 Carrick Court, Saint Conleth's Road, Edenderry, Offaly, R45 VW54",Offaly,53.3114608,-6.3305368
Edgewater Medical Centre,"Grand Canal House, Columcille Street, Tullamore, Offaly, R35 C8P5",Offaly,53.27741320000001,-7.4912409
Ferbane Health Centre,"Belmount Road, Ferbane, Offaly, R42 PK22",Offaly,53.2716957,-7.8340288
Green Street Medical Centre,"Green Street, Birr, Offaly, R42 VW88",Offaly,53.0963992,-7.9132507
Kilcormac Medical Centre,"Derrinboy Road, Kilcormac, Offaly, R42 DA25",Offaly,53.171114,-7.7254425
Medical Centre,"Church Street, Tullamore, Offaly, R35 A7D7",Offaly,53.2747702,-7.4903968
Murphy Medical,"Lough Muir, Mount Heaton, Roscrea, Offaly, E53 TX28",Offaly,52.9617134,-7.869568999999999
O'Hare Medical Centre,"Oxmantown Mall, Birr, Offaly, R42 HE20",Offaly,53.0981137,-7.9118476
The Avenue Clinic,"Church Avenue, Tullamore, Offaly, R35 K1W4",Offaly,53.2747702,-7.4903968
Tullamore Medical Centre,"Sullivan House, Arden Road, Tullamore, Offaly, R35 YF98",Offaly,53.2841353,-7.4927002
Abbey Street Medical Centre,"Abbey Street, Ballypheasan, Roscommon, F42 NV90",Roscommon,53.6282676,-8.193697
Abbey Street Medical Centre,"18 Abbey Street, Roscommon Town, Roscommon, F42 NV90",Roscommon,53.62767179999999,-8.1940139
Boyle Medical Centre,"Boyle Primary Care Centre, Elphin Street, Boyle, Roscommon, F52 A324",Roscommon,53.9693407,-8.303932399999999
Castle Street Family Practice,"Castle Street, Roscommon Town, Roscommon, F42 P797",Roscommon,53.6345698,-8.1899157
Castlerea Medical Centre,"Barrack Street, Castlerea, Roscommon, F45 PD68",Roscommon,53.7667597,-8.4852567
Dr Pierce Meagher,"The Clinic, Pound Street, Ballaghaderreen, Roscommon, F45 Y099",Roscommon,53.9031038,-8.5767837
Elphin Medical Practice,"Chapel Street, Elphin, Roscommon, F45 T671",Roscommon,53.8460776,-8.1988444
Family Care,"Cherry Side Business Centre, Castle Street, Cloonbrackna, Roscommon, F42 YY48",Roscommon,53.6345698,-8.1899157
Frenchpark Medical Practice,"The Demesne, Frenchpark, Roscommon, F45 FX62",Roscommon,53.8739712,-8.4025676
Keadue Medical Practice,"Keadue West, Keadue, Boyle, Roscommon, F52 NH70",Roscommon,54.05280399999999,-8.1429618
Kelly Henry Medical Centre,"Knock Road, Castlerea, Roscommon, F45 P959",Roscommon,53.7695305,-8.5116471
Loftus Medical Centre,"Abbeytown, Boyle, Roscommon, F52 CF43",Roscommon,53.9743621,-8.2927389
Newtown at Monksland Medical,"Daneswell Business Park, Monksland, Athlone, Roscommon, N37 F9V4",Roscommon,53.4209097,-7.9907678
Primary Care Centre Strokestown,"Caslin Way, Strokestown, Roscommon, F42 PX61",Roscommon,53.7787474,-8.1078696
Rooskey Surgery,"Main Street, Roosky, Roscommon, N41 P9K0",Roscommon,53.8322127,-7.925831499999999
Roscommon Health Centre,"Primary Care Centre, Golf Links Road, Roscommon Town, Roscommon, F42 HY97",Roscommon,53.6270762,-8.187638399999999
Saint Comans Medical Centre,"Saint Comans Park, Roscommon Town, Roscommon, F42 RW83",Roscommon,53.6314065,-8.1944937
Strokestown Health Centre,"Church Street, Strokestown, Roscommon, F42 XH33",Roscommon,53.7767829,-8.1096909
The Clinic,"Pound Street, Ballaghaderreen, Roscommon, F45 Y099",Roscommon,53.9035113,-8.5754583
The Health Centre Invergeal,"Cortober, Carrick-on-shannon, Roscommon, N41 T6D7",Roscommon,53.9416114,-8.1002477
The Health Clinic,"Castle Street, Roscommon Town, Roscommon, F42 KH52",Roscommon,53.6345698,-8.1899157
The Medical Centre St Coman's,"Saint Comans Park, Roscommon, Roscommon, F42 RW83",Roscommon,53.6314065,-8.1944937
Willow Brook Medical Centre,"Convent Road, Ballaghaderreen, Roscommon, F45 DX94",Roscommon,53.9000361,-8.5887377
Ballymote Family Practice,"Ballymote Primary And Mental Health Care Centre, Earlsfield, Ballymote, Sligo, F56 PK88",Sligo,54.0942799,-8.515568199999999
Banada Surgery,"Banada Primary Care Centre, Banada, Tourlestrane, Sligo, F91 FP77",Sligo,54.0367317,-8.8151988
Collooney Health Centre,"Lower Main Street, Collooney, Sligo, F91 CRX3",Sligo,54.1859407,-8.4913595
Coolaney Health Centre,"Coolaney Primary Care Centre, Coolaney, Sligo, F56 AE39",Sligo,54.169223,-8.6054353
Dorman Family Practice,"6 The Mall, Sligo Town, Sligo, F91 YF1H",Sligo,54.2725145,-8.468247
Dr Brennan and Dr Murphy Surgery,"Doctor Roisin Brennan, 36 Market Street, Sligo Town, Sligo, F91 WFK8",Sligo,54.2703913,-8.4738731
Dr Coleman's Surgery,"Main Street, Tubbercurry, Sligo, F91 HX89",Sligo,54.0525801,-8.7326975
Dr Ida Leddy,"Drumfad, Grange, Sligo, F91 XY03",Sligo,54.4053043,-8.490917099999999
Dr James G Devins,"Unit 2 Stephen Court, Stephen Street, Sligo Town, Sligo, F91 YP57",Sligo,54.27213520000001,-8.4732977
Dr M J Flynn,"2 The Commons, Ballymote, Sligo, F56 TX37",Sligo,54.0860983,-8.5121329
Dr Margaret Connolly,"1 High Street, Sligo Town, Sligo, F91 WK0T",Sligo,54.2695708,-8.4733115
Dr N Hever Surgery,"9 Glenview Park, Grange, Sligo, F91 HT28",Sligo,54.3948821,-8.5263445
Dr. Sinéad McNamara,"Millennium House, Stephen Street, Sligo Town, Sligo, F91 E7KH",Sligo,54.2723277,-8.4736113
Drumcliffe Family Practice,"Drumcliffe North, Drumcliffe, Sligo, F91 E14K",Sligo,54.3296584,-8.5011022
Easkey Family Practice,"Easkey Primary Care Centre, Bunowna, Easkey, Sligo, F26 YK85",Sligo,54.2859983,-8.9548369
Family Medical Centre Sligo,"1 Wine Street, Sligo Town, Sligo, F91 RFK1",Sligo,54.272368,-8.4797516
Gurteen Family Practice,"Gurteen Health Centre, Gurteen, Sligo, F56 AW98",Sligo,53.99395879999999,-8.5181715
Health Centre Barrack Street,"Primary Care Centre, Barrack Street, Sligo Town, Sligo, F91 Y8EK",Sligo,54.2767779,-8.4748672
Medicentre,"Primary Care Centre, Barrack Street, Sligo Town, Sligo, F91 Y8EK",Sligo,54.2767779,-8.4748672
Riverstown Medical Practice,"Ardkeeran, Riverstown, Sligo, F52 XY00",Sligo,54.12867989999999,-8.3953495
Shore Family Practice,"46 Wine Street, Sligo Town, Sligo, F91 NV2F",Sligo,54.2721923,-8.4781566
Skreen Family Practice,"Skreen Health Centre, Gerrib Big, Skreen, Sligo, F91 P278",Sligo,54.2430113,-8.7024224
Sligo Clinic,"Saint Geralds, Pearse Road, Sligo Town, Sligo, F91 TEP8",Sligo,54.25583839999999,-8.4697107
Strandhill Surgery,"Shore Road, Strandhill, Sligo, F91 RWK7",Sligo,54.2704639,-8.6054341
Streedagh House,"Strand House, Streedagh, Grange, Sligo, F91 XE40",Sligo,54.3942533,-8.5545441
The Mall Family Practice,"Primary Care Centre, Barrack Street, Sligo Town, Sligo, F91 Y8EK",Sligo,54.2767779,-8.4748672
Tubercurry Family Practice,"Teeling Street, Tubbercurry, Sligo, F91 HX89",Sligo,54.0526249,-8.7321826
Ballingarry Health Centre,"Ballingarry Upper, Thurles, Tipperary, E41 D589",Tipperary,52.5862414,-7.541117499999999
Ballyporeen Health Centre,"Church Street, Ballyporeen, Tipperary, E21 X735",Tipperary,52.2717192,-8.1000648
Bansha Health Centre,"Main Street, Bansha, Tipperary, E34 KV70",Tipperary,52.44647390000001,-8.0621894
Borrisokane Health Centre,"Marian Avenue, Borrisokane, Tipperary, E45 EC61",Tipperary,52.9919554,-8.1224732
Cahir Road Medical Centre,"Cahir Road, Cashel, Tipperary, E25 N289",Tipperary,52.5081494,-7.8911717
Cappawhite Health Centre,"Main Street Upper, Cappawhite, Tipperary, E34 F822",Tipperary,52.5822072,-8.1640983
Cashel Medical Centre,"Feehan's Road, Cashel, Tipperary, E25 RD21",Tipperary,52.5148288,-7.8844402
Castle Street Medical Centre,"3 Castle Street, Carrick-on-suir, Tipperary, E32 W026",Tipperary,52.3453943,-7.4085828
Clogheen Health Centre,"Mountanglesby, Clogheen, Tipperary, E21 NF44",Tipperary,52.2725541,-7.9923273
Cloughjordan Medical Centre,"Templemore Road, Cloughjordan, Tipperary, E53 EH94",Tipperary,52.9394752,-8.0317216
De Feu Medical Centre,"Rosemary Square, Roscrea, Tipperary, E53 DN34",Tipperary,52.9531023,-7.799027700000001
Dr Brian Kennedy,"Mount Carmel, Tyone, Nenagh, Tipperary, E45 WF63",Tipperary,52.8582328,-8.193005399999999
Dr Edmund Fitzpatrick,"Fennor, Urlingford, Urlingford, Tipperary, E41 H275",Tipperary,52.7051987,-7.596190899999999
Dr Emily O'Dowd,"Mount Carmel, Tyone, Nenagh, Tipperary, E45 WF63",Tipperary,52.8582328,-8.193005399999999
Dr Harrold Medical Centre,"Tyone, Nenagh, Tipperary, E45 N267",Tipperary,52.8576667,-8.1933099
Dr J M Hennessy Practice,"Main Street, Templemore, Tipperary, E41 WP48",Tipperary,52.7963897,-7.8359308
Dr James Molony,"Friar Street, Thurles, Tipperary, E41 E276",Tipperary,52.6783773,-7.8174781
Dr McBrearty,"Slievenamon Road, Thurles, Tipperary, E41 E6H7",Tipperary,52.6744064,-7.8121382
Dr Molly Owens Surgery,"Main Street, Fethard, Tipperary, E91 X3T2",Tipperary,52.4660649,-7.6964133
Dr Muiris O'keeffe,"Nenagh Family Practice, 19-21 Pearse Street, Nenagh, Tipperary, E45 HK28",Tipperary,52.86349200000001,-8.1983786
Dr Patrick Yon Hin,"Grove Street, Roscrea, Tipperary, E53 KW83",Tipperary,52.9565579,-7.7968191
Dr Paul Booth,"Coolevin, Dublin Road, Roscrea, Tipperary, E53 EA26",Tipperary,52.9551789,-7.798469600000001
Dr Paul O'Farrell,"9/10 O'Rahilly Street, Nenagh, Tipperary, E45 DD74",Tipperary,52.8649754,-8.1988355
Dr Timothy O Donovan,"17 Kickham Street, Carrick-on-suir, Tipperary, E32 EF89",Tipperary,52.3478183,-7.4139778
Dr William Ryan,"Deerpark Road, Cashel, Tipperary, E25 AY64",Tipperary,52.5118024,-7.8975227
Dr. Liam Collins,"Fianna Road, Thurles, Tipperary, E41 V1D9",Tipperary,52.6770879,-7.8133653
Dundrum Health Centre,"Garryduff East, Dundrum, Tipperary, E34 V042",Tipperary,52.5604009,-8.0447446
Gladstone Street Surgery,"46 Gladstone Street, Clonmel, Tipperary, E91 E8P6",Tipperary,52.3536003,-7.7015699
Kickham Street Medical Centre,"33 Kickham Street, Carrick-on-suir, Tipperary, E32 T922",Tipperary,52.3482287,-7.4143849
Killenaule Surgery,"Fethard Road, Killenaule, Tipperary, E41 K6N6",Tipperary,52.5118242,-7.6022306
Kylecourt Clinic,"Blind Street, Tipperary Town, Tipperary, E34 W983",Tipperary,52.4750553,-8.1589761
Market Yard Surgery,"Cahir Primary Care Centre, Rosemount Close, Cahir, Tipperary, E21 KF83",Tipperary,52.3816687,-7.914844299999999
Market Yard Surgery,"Market Yard, Market Street, Cahir, Tipperary, E21 X395",Tipperary,52.37537,-7.92135
Mary Street Medical Centre,"12 Mary Street, Clonmel, Tipperary, E91 T6W2",Tipperary,52.3546906,-7.7050349
Medicentre,"4 Main Street, Tipperary Town, Tipperary, E34 DH00",Tipperary,52.4740206,-8.1596979
Mullinahone Health Centre,"Kickham Street, Mullinahone, Tipperary, E41 HD82",Tipperary,52.5132807,-7.5018774
Murphy and Harrington Medical Practice,"2 Friar Street, Thurles, Tipperary, E41 W2X8",Tipperary,52.6786963,-7.816842800000001
Newport Medical Practice,"Briarfield, Newport, Tipperary, V94 FYT2",Tipperary,52.7090363,-8.3977839
Premier Surgery,"Slievenamon Road, Thurles, Tipperary, E41 WY97",Tipperary,52.6744064,-7.8121382
Riverside Medical Centre,"7 Irishtown Upper, Clonmel, Tipperary, E91 X8C0",Tipperary,52.3516549,-7.712862299999999
Rocklow Medical Centre,"Northgate House, Rocklow Road, Fethard, Tipperary, E91 K7P2",Tipperary,52.4678239,-7.697625400000001
Roscrea Centre Surgery,"Roscrea Shopping Centre, Castle Street, Roscrea, Tipperary, E53 HR04",Tipperary,52.9552327,-7.798366199999999
Suirside Medical Centre,"The Gables, Old Waterford Road, Clonmel , Tipperary, E91 H0X2",Tipperary,52.3523791,-7.6935275
Templemore Medical Centre,"Bank Street, Templemore, Tipperary, E41 P5K2",Tipperary,52.7957937,-7.8329433
The Health Clinic,"Town Wall, Carrick-on-suir, Tipperary, E32 A384",Tipperary,52.3470205,-7.4123255
The Medical Centre,"Rosemary Square, Roscrea, Tipperary, E53 DN34",Tipperary,52.9531023,-7.799027700000001
The Surgery,"Grange Road, Ballina, Tipperary, V94 TNH5",Tipperary,52.811933,-8.4360827
The Surgery,"Pallas Street, Borrisoleigh, Tipperary, E41 V6Y6",Tipperary,52.7491098,-7.9578182
Thomond Healthcare,"1 Thomond Road, Thurles, Tipperary, E41 YY93",Tipperary,52.67742089999999,-7.8118521
Thurles Surgery,"Fianna Road, Thurles, Tipperary, E41 V1D9",Tipperary,52.6770879,-7.8133653
Tipperary Primary Care Centre,"Rosanna Road, Tipperary Town, Tipperary, E34 K682",Tipperary,52.4785274,-8.1605139
Toomevara Health Centre,"Coolkereen, Toomevara, Nenagh, Tipperary, E45 C580",Tipperary,52.8497778,-8.0375227
Western House Medical Centre,"Western Road, Clonmel, Tipperary, E91 V6W9",Tipperary,52.3532682,-7.7185647
Wilton Medical Centre,"Gortlandroe, Nenagh, Tipperary, E45 P597",Tipperary,52.87239289999999,-8.2186151
Ardkeen Medical Centre,"Ardkeen Shopping Centre, Dunmore Road, Waterford City, Waterford, X91 XE0A",Waterford,52.2463974,-7.082132199999999
Ardmore Health Centre,"Rocky Road, Ardmore, Waterford, P36 TK61",Waterford,51.9497691,-7.725025899999999
Ballyduff GP Practice,"Main Street, Ballyduff, Waterford, P51 E0KR",Waterford,52.1476997,-8.0526372
Carrigdhoun Surgery,"Williamstown Road, Waterford City, Waterford, X91 CK31",Waterford,52.2347293,-7.0759663
Catherine Street Medical Centre,"18 Catherine Street, Waterford City, Waterford, X91 W0HA",Waterford,52.25763019999999,-7.107469099999999
Cedar House Surgery,"Cedar House, Ardkeen Shopping Centre, Dunmore Road, Waterford, X91 XEX8",Waterford,52.2463815,-7.083129199999999
Doctor365 Waterford,"Williamstown Centre, Ardkeen Village, Waterford City, Waterford, X91 YA2H",Waterford,52.2422325,-7.0870603
Dr Barry Lordan,"Main Street, Ballyduff, Waterford, P51 E0KR",Waterford,52.1476997,-8.0526372
Dr Barry Lordan,"East Main Street, Lismore, Waterford, P51 CK70",Waterford,52.1378328,-7.926423799999998
Dr Brett Lynam Surgery,"Brenan, Kilmacthomas, Waterford, X42 XY70",Waterford,52.1642172,-7.4249126
Dr Devlin Surgery,"Unit 17/18 Ballinakill Shopping Centre, Dunmore Road, Waterford City, Waterford, X91 AN25",Waterford,52.2408066,-7.0669179
Dr James Stacey,"26 O'connell Street, Dungarvan, Waterford, X35 YC98",Waterford,52.08964839999999,-7.6239372
Dr John Power,"34 Ballybricken, Waterford City, Waterford, X91 YV57",Waterford,52.259688,-7.1177648
Dr M A Fitzgerald,"Horsequarter, Dunmore East, Waterford, X91 AR29",Waterford,52.1553082,-6.9963555
Dr Saleem Osman,"6 Brook Road, Riverview, Waterford, X91 YK77",Waterford,52.2372039,-7.0633357
Dr Sanjay Date,"Supervalu Shopping Centre, Priests Road, Tramore, Waterford, X91 CY95",Waterford,52.1617973,-7.1536347
Dr Zoltan Csarodai-Nagy,"41 Barronstrand Street, Waterford City, Waterford, X91 WR6K",Waterford,52.2618009,-7.1114465
Family Care Medical Centre,"Unit 17/18 Ballinakill Shopping Centre, Dunmore Road , Waterford City, Waterford, X91 AN25",Waterford,52.2408066,-7.0669179
Family Practice Medical Centre,"Lower Branch Road, Tramore, Waterford, X91 WR6W",Waterford,52.1635048,-7.1475664
Fitzpatrick Medical Centre,"32/33 Ballybricken, Waterford City, Waterford, X91 KT1D",Waterford,52.25965619999999,-7.1179367
Fourmilewater Health Centre,"Ballymacarbry, Waterford, E91 YK11",Waterford,52.2799543,-7.7523404
Grange Manor Surgery,"1 Rocwood Walk, Grange Manor, Waterford City, Waterford, X91 H2W4",Waterford,52.24346749999999,-7.095150599999999
Health Centre Cappoquinn,"Cappoquin, Waterford, P51 F96V",Waterford,52.146104,-7.843003399999999
High Street Medical Centre,"High Street, Dungarvan, Waterford, X35 CD73",Waterford,52.0899007,-7.6215294
Hoban Health,"44 Northumberland Avenue, Dun Laoghaire, Dublin, A96 A9D3",Waterford,53.2906778,-6.1352144
John's Hill Medical Practice,"Waterford Primary Care Centre, John's Hill, Waterford City, Waterford, X91 F65D",Waterford,52.2452626,-7.103705499999999
Johnstown Medical Centre,"68 Johnstown, Waterford City, Waterford, X91 YN3C",Waterford,52.2554027,-7.1103254
Kilmacthomas Health Centre,"Hillside Crescent, Kilmacthomas, Waterford, X42 X256",Waterford,52.2021909,-7.427846
Lismore Health Centre,"1 Ashley Court, Lismore, Waterford, P51 FA38",Waterford,52.137271,-7.9275247
Littlebridge Surgery,"Cook Street, Cappoquin, Waterford, P51 EK57",Waterford,52.1459247,-7.84983
Parnell Clinic,"13 Parnell Street, Waterford City, Waterford, X91 K6YW",Waterford,52.2586753,-7.1093392
Portlaw Health Centre,"Portlaw, Waterford, X91 FT22",Waterford,52.2879213,-7.3204889
Roche-Nagle Practice,"Ballyhest House, Ballyhest, Carrick-on-suir, Waterford, E32 A033",Waterford,52.2943969,-7.4547845
Shandon Clinic,"Dungarvan Shopping Centre, Shandon, Dungarvan, Waterford, X35 V126",Waterford,52.090388,-7.6237463
Springside Medical,"Dungarvan Primary Centre, Springmount, Dungarvan, Waterford, X35 X236",Waterford,52.0884659,-7.6371562
St Philomena's,"Saint Philomena's, 1 Marian Park, waterford city, Waterford, X91 F5NE",Waterford,52.2586028,-7.130794499999999
Tallow Health Centre,"Convent Street, Tallow, Waterford, P51 FX99",Waterford,52.0960728,-8.0070259
The Keogh Practice,"27 Ballybricken, Waterford City, Waterford, X91 VYE9",Waterford,52.2595646,-7.1186323
The Keogh Practice,"27 Ballybricken, Waterford, Waterford, X91 VYE9",Waterford,52.2595646,-7.1186323
The Keogh Practice,"Unit 3 Cellar Court, Ferrybank, Waterford, X91 C7RF",Waterford,52.2651204,-7.1054603
The Rowe Creavin Medical Practice,"Waterford Health Park, Slievekeale Road, Waterford City, Waterford, X91 X3HY",Waterford,52.25368719999999,-7.1278643
"The Surgery, Waterford","58 Mayor's Walk, Waterford City, Waterford, X91 F76H",Waterford,52.2594742,-7.1155344
Tramore Medical Centre,"Summerhill, Tramore, Waterford, X91 X90F",Waterford,52.1636139,-7.1578827
Waterford Medical Centre,"Kilbarry Centre, Tramore Road, Waterford City, Waterford, X91 A212",Waterford,52.2462561,-7.1212494
Carewell Medical Centre,"67 Oaklawns, Mullingar, Westmeath, N91 XH63",Wexford,53.5205207,-7.364495600000001
Castlepollard Medical Practice,"Green Street, Castlepollard, Westmeath, N91 PK68",Wexford,53.682409,-7.3008845
Castletown Geoghegan Health Centre,"Woodside, Castletown Geoghegan, Westmeath, N91 NX83",Wexford,53.4429467,-7.4845124
Centric Health - Bellview Clinic,"Dublin Road, Mullingar, Westmeath, N91 EK7R",Wexford,53.5245408,-7.3169333
Charter Medical Mullingar,"Ballinderry, Mullingar, Westmeath, N91 FE40",Wexford,53.51406069999999,-7.3347516
Clonbrusk Primary Care Centre,"Coosan, Athlone, Westmeath, N37 P8P8",Wexford,53.4364409,-7.9332281
Coole Medical Centre,"Coole, Westmeath, N91 F7XR",Wexford,53.69703699999999,-7.362581499999999
Delvin Health Centre,"Main Street, Delvin, Westmeath, N91 K2H0",Wexford,53.6112507,-7.0938847
Doctor365 Mullingar,"Mullingar Healthcare Complex, Austin Friars Street, Mullingar, Westmeath, N91 ED2H",Wexford,53.5261248,-7.337532599999999
Dr Anne McGarry,"1 Auburn Village, Mullingar, Westmeath, N91 PR28",Wexford,53.5223711,-7.3339684
Dr Deirdre Forde,"1 Ankers Bower, Brideswell, Athlone, Westmeath, N37 WC62",Wexford,53.4200053,-7.9235884
Dr Noel Cogan,"Green Street, Castlepollard, Westmeath, N91 PK68",Wexford,53.682409,-7.3008845
Dr Susan Orwa,"Patrick Street, Mullingar, Westmeath, N91 DD23",Wexford,53.5228072,-7.3541845
Dr. Patrick O'Kelly,"Ballynacarrigy Health Centre, Wood Row, Ballynacargy, Westmeath, N91 V9FK",Wexford,53.5831246,-7.5390728
Dr. Thomas Waldron,"Harbour Street, Mullingar, Westmeath, N91 AY99",Wexford,53.5292816,-7.3434611
Grainne Clyne,"Main Street, Tyrrellspass, Westmeath, N91 AK7H",Wexford,53.3867023,-7.379237900000001
Harbour Medical Centre Mullingar,"Primary Care Centre, Harbour Road, Mullingar, Westmeath, N91 Y1K8",Wexford,53.5323673,-7.344715399999999
Kearon & McCormick Medical Practice,"Clonbrusk Primary Care Centre, Coosan, Athlone, Westmeath, N37 P8P8",Wexford,53.4334702,-7.942523899999999
Kilbeggan Medical Centre,"Mullingar Road, Kilbeggan, Westmeath, N91 XP26",Wexford,53.3689696,-7.497413300000001
Killucan Health Centre,"Rathwire, Killucan, Westmeath, N91 YK11",Wexford,53.5093902,-7.145489899999999
Kinnegad Family Practice,"Unit 1 The Shopping Centre, Main Street, Kinnegad, Westmeath, N91 XN79",Wexford,53.4558641,-7.1022088
Kinnegad/Killucan General Practice,"Main Street, Kinnegad, Westmeath, N91 PX33",Wexford,53.45393,-7.0983536
Market Point Health (Dr Owen & Dr Moira Fagan),"Market Point, Patrick Street, Mullingar, Westmeath, N91 K5HW",Wexford,53.5228483,-7.3495915
Market Point Medical Centre,"Market Point, Patrick Street, Mullingar, Westmeath, N91 DX0R",Wexford,53.5228483,-7.3495915
Market Square Medical Centre,"The Square, Kilbeggan, Westmeath, N91 CHV0",Wexford,53.3678099,-7.497840500000001
Millmount Medical Centre,"Millmount, Mullingar, Westmeath, N91 HW21",Wexford,53.516608,-7.3340053
Moate Medical Centre,"Church Street, Moate, Westmeath, N37 H9Y4",Wexford,53.3963126,-7.7255613
Mullingar Healthcare Complex,"Austin Friars Street, Mullingar, Westmeath, N91 E653",Wexford,53.5258976,-7.3353596
Mullingar Medical Centre,"Mullingar Primary Care Centre, Harbour Road, Mullingar, Westmeath, N91 V6R9",Wexford,53.5323673,-7.344715399999999
Newtown Medical Centre,"1/2 Newtown Terrace, Athlone, Westmeath, N37 E0Y8",Wexford,53.426347,-7.9339868
The Old Barracks Surgery,"Main Street, Moate, Westmeath, N37 W8K5",Wexford,53.3962344,-7.7229348
Town Centre Surgery,"Cityquarter, Athlone, Westmeath, N37 A0C1",Wexford,53.42434429999999,-7.936494300000001
Town Medical Clinic Mullingar,"Mullingar Healthcare Complex, Austin Friars Street, Mullingar, Westmeath, N91 ED2H",Wexford,53.5261248,-7.337532599999999
Ashford Clinic,"Mount Usher Court, Ashford, Wicklow, A67 YW93",Wicklow,53.0119991,-6.107665799999999
Aughrim Health Centre,"Main Street, Aughrim, Wicklow, Y14 YN70",Wicklow,52.8560089,-6.3248243
Bentley Devereux,"Bradshaw's Lane, Arklow, Wicklow, Y14 E190",Wicklow,52.7982991,-6.1565565
Blackbird Medical Services,"2 Kilpeddar Grove, Johnstown, Kilpedder, Wicklow, A63 YW57",Wicklow,53.1125014,-6.1063939
Blessington Family Practice,"Main Street, Blessington, Wicklow, W91 H704",Wicklow,53.1706809,-6.5327667
Boghall Surgery,"Boghall Shopping Centre, Boghall Road, Bray, Wicklow, A98 HY72",Wicklow,53.1893548,-6.1224004
Bothwell & Coates,"3 Upper Main Street, Arklow, Wicklow, Y14 C9D8",Wicklow,52.79764979999999,-6.1590842
Bray Family Practice,"Saint Helen's, Meath Road, Bray, Wicklow, A98 Y8X9",Wicklow,53.19935479999999,-6.0983866
Bray Family Practice,"Saint Helen's, Meath Road, Bray, Wicklow, A98 Y8X9",Wicklow,53.19935479999999,-6.0983866
Bray Medical Centre,"Clonmore, Herbert Road, Bray, Wicklow, A98 K1K0",Wicklow,53.1965642,-6.124258
"Buggle, McCabe and O'Connell","Sheltonville, 15 Ferrybank, Arklow, Wicklow, Y14 K300",Wicklow,52.8006764,-6.1490296
Carrig Clinic,"96 Heathervue, Greystones, Wicklow, A63 X659",Wicklow,53.1446864,-6.0697112
Centric Health Blessington Medical,"McGreals Primary Care Centre, Blessington Business Park, Blessington, Wicklow, W91 F5X4",Wicklow,53.1761371,-6.530030699999999
Charlesland Medical Centre,"The Charlesland Centre, Charlesland, Greystones, Wicklow, A63 X283",Wicklow,53.1268923,-6.063993
Church Street Clinic,"Church Street, Wicklow Town, Wicklow, A67 RH61",Wicklow,52.9813522,-6.0433658
Dargle Clinic,"11a Eglinton Road, Bray, Wicklow, A98 D2X6",Wicklow,53.203639,-6.1065854
Dr Fidelma Savage,"Donard House, Novara Avenue, Bray, Wicklow, A98 P6R2",Wicklow,53.20230890000001,-6.1094642
Dr Mirko Jukic Health Centre,"Carnew Primary Care Centre, Gorey Road, Carnew, Wicklow, Y14 PY64",Wicklow,52.7101979,-6.4952608
Dr Sandro Togyi,"Mill Street, Baltinglass, Wicklow, W91 T92T",Wicklow,52.9409833,-6.7114047
Duncairn Medical Centre,"9 Duncairn Terrace, Quinsborough Road, Bray, Wicklow, A98 V6K1",Wicklow,53.2051911,-6.104409599999999
Dunlavin Health Centre,"Kilcullen Street, Dunlavin, Wicklow, W91 D289",Wicklow,53.0614713,-6.7008045
Greystones Family Practice,"Blacklion Retail Centre, Rathdown Road, Greystones, Wicklow, A63 NT25",Wicklow,53.1519455,-6.0826544
Greystones Harbour Family Practice,"Trafalgar Road, Greystones, Wicklow, A63 AY71",Wicklow,53.1481471,-6.0642769
Greystones Medical Centre,"Mill Road, Killincarrig, Greystones, Wicklow, A63 YE86",Wicklow,53.1370316,-6.0652435
Maryville,"Saint Mary's Road, Arklow, Wicklow, Y14 DH57",Wicklow,52.7963681,-6.1590494
Medical Centre,"Weaver's Square, Baltinglass, Wicklow, W91 TDF7",Wicklow,52.9396513,-6.7045067
Medowscroft Surgery,"Millview Court, Tinahely, Wicklow, Y14 R922",Wicklow,52.8005536,-6.464443999999999
Newtown Medical Practice,"Mountkennedy Town Centre, Main Street, Newtownmountkennedy, Wicklow, A63 HD58",Wicklow,53.0914975,-6.1145568
North Wicklow Medical,"The Old Corner House, Main Street, Newtownmountkennedy, Wicklow, A63 XP26",Wicklow,53.0925688,-6.1120217
Novara Medical,"2 Donard House, Novara Avenue, Bray, Wicklow, A98 P6R2",Wicklow,53.20230890000001,-6.1094642
Oakwell Clinic,"9 The Mall, Wicklow Town, Wicklow, A67 VW83",Wicklow,52.9801936,-6.0395372
Preventive Health Ltd,"15/16 Albert Avenue, Bray, Wicklow, A98 WK03",Wicklow,53.2029289,-6.1005541
Salem Medical Centre,"Wicklow Primary Healthcare Centre, Knockrobin, Rathnew, Wicklow, A67 K5C7",Wicklow,52.9896819,-6.065296699999999
Sheeran Purcell General Practice,"Wicklow Primary Healthcare Centre, Knockrobin, Rathnew, Wicklow, A67 K5C7",Wicklow,52.9896819,-6.065296699999999
The Carlton Clinic,"Bray Primary Care Centre, Killarney Road, Bray, Wicklow, A98 KW13",Wicklow,53.20012389999999,-6.1126467
The Doctors Centre,"3 Main Street, Kilcoole, Wicklow, A63 FW31",Wicklow,53.1072599,-6.064540399999999
The Harbour Surgery,"Evans Houses, Harbour Road, Arklow, Wicklow, Y14 HW02",Wicklow,52.7944532,-6.147806500000001
The Surgery,"Enniskerry Village, Enniskerry, Wicklow, A98 RP04",Wicklow,53.1930359,-6.1698654
Town Hall Clinic,"Market Court, Main Street, Bray, Wicklow, A98 F3P6",Wicklow,53.200263,-6.1111963
Westmount Clinic,"Wicklow Town, Wicklow, A67 RC04",Wicklow,52.9844837,-6.051172299999999
Wicklow Primary Healthcare Centre,"Knockrobin, Rathnew, Wicklow, A67 K5C7",Wicklow,52.9898599,-6.065732
Wilton Clinic,"Merrymeeting Shopping Centre, Merrymeeting, Rathnew, Wicklow, A67 E2T1",Wicklow,52.9878047,-6.0773438
